<?xml version="1.0" ?>
<gpx xmlns="http://www.topografix.com/GPX/1/1" version="1.1" creator="ERO1">
  <trk>
    <name>anjou — baseline — zone 1</name>
    <trkseg>
      <trkpt lat="45.6097701" lon="-73.5784967"/>
      <trkpt lat="45.607039" lon="-73.5712207"/>
      <trkpt lat="45.606753" lon="-73.571229"/>
      <trkpt lat="45.6061123" lon="-73.5717859"/>
      <trkpt lat="45.6050115" lon="-73.572748"/>
      <trkpt lat="45.6043667" lon="-73.5712457"/>
      <trkpt lat="45.6043667" lon="-73.5712457"/>
      <trkpt lat="45.6050115" lon="-73.572748"/>
      <trkpt lat="45.6061123" lon="-73.5717859"/>
      <trkpt lat="45.6098808" lon="-73.5804989"/>
      <trkpt lat="45.6103054" lon="-73.5801402"/>
      <trkpt lat="45.6097701" lon="-73.5784967"/>
      <trkpt lat="45.609169" lon="-73.5758523"/>
      <trkpt lat="45.6065435" lon="-73.5699162"/>
      <trkpt lat="45.6055397" lon="-73.5687015"/>
      <trkpt lat="45.6063696" lon="-73.5646506"/>
      <trkpt lat="45.6068379" lon="-73.5643626"/>
      <trkpt lat="45.6115883" lon="-73.5603742"/>
      <trkpt lat="45.6136803" lon="-73.558321"/>
      <trkpt lat="45.6140011" lon="-73.5580446"/>
      <trkpt lat="45.6135813" lon="-73.5573587"/>
      <trkpt lat="45.6135401" lon="-73.5577946"/>
      <trkpt lat="45.6142944" lon="-73.5595028"/>
      <trkpt lat="45.6144508" lon="-73.5583827"/>
      <trkpt lat="45.6134612" lon="-73.5592594"/>
      <trkpt lat="45.6133502" lon="-73.5593623"/>
      <trkpt lat="45.6125813" lon="-73.5599883"/>
      <trkpt lat="45.6121908" lon="-73.5603219"/>
      <trkpt lat="45.6110624" lon="-73.5613086"/>
      <trkpt lat="45.6096679" lon="-73.5625743"/>
      <trkpt lat="45.6080571" lon="-73.5640442"/>
      <trkpt lat="45.606803" lon="-73.5673003"/>
      <trkpt lat="45.6051134" lon="-73.5691855"/>
      <trkpt lat="45.6026492" lon="-73.5689935"/>
      <trkpt lat="45.6028927" lon="-73.5695909"/>
      <trkpt lat="45.6032687" lon="-73.570455"/>
      <trkpt lat="45.6031943" lon="-73.5705241"/>
      <trkpt lat="45.6013267" lon="-73.5721488"/>
      <trkpt lat="45.6016707" lon="-73.5729338"/>
      <trkpt lat="45.6018315" lon="-73.5733157"/>
      <trkpt lat="45.6032029" lon="-73.5731982"/>
      <trkpt lat="45.6030245" lon="-73.5718059"/>
      <trkpt lat="45.6035453" lon="-73.5713492"/>
      <trkpt lat="45.6030245" lon="-73.5718059"/>
      <trkpt lat="45.6032029" lon="-73.5731982"/>
      <trkpt lat="45.6018315" lon="-73.5733157"/>
      <trkpt lat="45.6016707" lon="-73.5729338"/>
      <trkpt lat="45.6013267" lon="-73.5721488"/>
      <trkpt lat="45.6006079" lon="-73.5704602"/>
      <trkpt lat="45.5988989" lon="-73.5719082"/>
      <trkpt lat="45.5991688" lon="-73.5725181"/>
      <trkpt lat="45.6007148" lon="-73.5726776"/>
      <trkpt lat="45.5991688" lon="-73.5725181"/>
      <trkpt lat="45.5996658" lon="-73.573708"/>
      <trkpt lat="45.5986311" lon="-73.5746329"/>
      <trkpt lat="45.5996658" lon="-73.573708"/>
      <trkpt lat="45.5991688" lon="-73.5725181"/>
      <trkpt lat="45.5988989" lon="-73.5719082"/>
      <trkpt lat="45.5991688" lon="-73.5725181"/>
      <trkpt lat="45.6007148" lon="-73.5726776"/>
      <trkpt lat="45.5991388" lon="-73.569017"/>
      <trkpt lat="45.5986218" lon="-73.5692957"/>
      <trkpt lat="45.5990845" lon="-73.5688943"/>
      <trkpt lat="45.5991846" lon="-73.5688473"/>
      <trkpt lat="45.6003997" lon="-73.5690428"/>
      <trkpt lat="45.6002227" lon="-73.5691286"/>
      <trkpt lat="45.5994992" lon="-73.5688332"/>
      <trkpt lat="45.5993215" lon="-73.5691761"/>
      <trkpt lat="45.6007982" lon="-73.5725998"/>
      <trkpt lat="45.6019966" lon="-73.5753847"/>
      <trkpt lat="45.6019096" lon="-73.5754605"/>
      <trkpt lat="45.6007148" lon="-73.5726776"/>
      <trkpt lat="45.5991388" lon="-73.569017"/>
      <trkpt lat="45.5986218" lon="-73.5692957"/>
      <trkpt lat="45.5975259" lon="-73.5702479"/>
      <trkpt lat="45.5971463" lon="-73.570584"/>
      <trkpt lat="45.5976411" lon="-73.5723637"/>
      <trkpt lat="45.5986817" lon="-73.5714333"/>
      <trkpt lat="45.600405" lon="-73.5698807"/>
      <trkpt lat="45.6002227" lon="-73.5691286"/>
      <trkpt lat="45.5994992" lon="-73.5688332"/>
      <trkpt lat="45.5992256" lon="-73.5689474"/>
      <trkpt lat="45.5993215" lon="-73.5691761"/>
      <trkpt lat="45.6007982" lon="-73.5725998"/>
      <trkpt lat="45.6013267" lon="-73.5721488"/>
      <trkpt lat="45.6007982" lon="-73.5725998"/>
      <trkpt lat="45.6019966" lon="-73.5753847"/>
      <trkpt lat="45.6025269" lon="-73.5749196"/>
      <trkpt lat="45.6028643" lon="-73.5757089"/>
      <trkpt lat="45.6035062" lon="-73.5771923"/>
      <trkpt lat="45.6038402" lon="-73.5779598"/>
      <trkpt lat="45.6035062" lon="-73.5771923"/>
      <trkpt lat="45.6028643" lon="-73.5757089"/>
      <trkpt lat="45.6025269" lon="-73.5749196"/>
      <trkpt lat="45.603614" lon="-73.5739764"/>
      <trkpt lat="45.6039689" lon="-73.5747936"/>
      <trkpt lat="45.604766" lon="-73.5741049"/>
      <trkpt lat="45.6039689" lon="-73.5747936"/>
      <trkpt lat="45.6049254" lon="-73.5770195"/>
      <trkpt lat="45.6038402" lon="-73.5779598"/>
      <trkpt lat="45.6049254" lon="-73.5770195"/>
      <trkpt lat="45.605816" lon="-73.5764833"/>
      <trkpt lat="45.6061512" lon="-73.5772553"/>
      <trkpt lat="45.6064801" lon="-73.5780128"/>
      <trkpt lat="45.6068122" lon="-73.5787793"/>
      <trkpt lat="45.6065472" lon="-73.5790028"/>
      <trkpt lat="45.6068122" lon="-73.5787793"/>
      <trkpt lat="45.6071574" lon="-73.579558"/>
      <trkpt lat="45.6077347" lon="-73.5790427"/>
      <trkpt lat="45.6085436" lon="-73.5809514"/>
      <trkpt lat="45.6077652" lon="-73.5816375"/>
      <trkpt lat="45.6074049" lon="-73.5807793"/>
      <trkpt lat="45.6073257" lon="-73.580594"/>
      <trkpt lat="45.6067227" lon="-73.5811251"/>
      <trkpt lat="45.6077516" lon="-73.5834307"/>
      <trkpt lat="45.6077612" lon="-73.5835934"/>
      <trkpt lat="45.6077516" lon="-73.5834307"/>
      <trkpt lat="45.608324" lon="-73.5829388"/>
      <trkpt lat="45.6085509" lon="-73.5834631"/>
      <trkpt lat="45.6067393" lon="-73.5864065"/>
      <trkpt lat="45.6074394" lon="-73.5882084"/>
      <trkpt lat="45.6075308" lon="-73.5884138"/>
      <trkpt lat="45.6086364" lon="-73.5874496"/>
      <trkpt lat="45.6086364" lon="-73.5874496"/>
      <trkpt lat="45.6075308" lon="-73.5884138"/>
      <trkpt lat="45.6078695" lon="-73.5892074"/>
      <trkpt lat="45.6071298" lon="-73.5895478"/>
      <trkpt lat="45.6078695" lon="-73.5892074"/>
      <trkpt lat="45.6082317" lon="-73.5900433"/>
      <trkpt lat="45.6074657" lon="-73.5907294"/>
      <trkpt lat="45.6082317" lon="-73.5900433"/>
      <trkpt lat="45.6093288" lon="-73.5890574"/>
      <trkpt lat="45.6093288" lon="-73.5890574"/>
      <trkpt lat="45.6082317" lon="-73.5900433"/>
      <trkpt lat="45.6086114" lon="-73.5909243"/>
      <trkpt lat="45.6093732" lon="-73.5919276"/>
      <trkpt lat="45.6084393" lon="-73.5945119"/>
      <trkpt lat="45.6080242" lon="-73.5944154"/>
      <trkpt lat="45.6084393" lon="-73.5945119"/>
      <trkpt lat="45.6093732" lon="-73.5919276"/>
      <trkpt lat="45.6089876" lon="-73.5916916"/>
      <trkpt lat="45.6093732" lon="-73.5919276"/>
      <trkpt lat="45.6086114" lon="-73.5909243"/>
      <trkpt lat="45.6089876" lon="-73.5916916"/>
      <trkpt lat="45.6086114" lon="-73.5909243"/>
      <trkpt lat="45.6082317" lon="-73.5900433"/>
      <trkpt lat="45.6078695" lon="-73.5892074"/>
      <trkpt lat="45.6075308" lon="-73.5884138"/>
      <trkpt lat="45.6074394" lon="-73.5882084"/>
      <trkpt lat="45.6066596" lon="-73.5865458"/>
      <trkpt lat="45.6067393" lon="-73.5864065"/>
      <trkpt lat="45.6066596" lon="-73.5865458"/>
      <trkpt lat="45.6054077" lon="-73.5886029"/>
      <trkpt lat="45.6080242" lon="-73.5944154"/>
      <trkpt lat="45.6054077" lon="-73.5886029"/>
      <trkpt lat="45.6066596" lon="-73.5865458"/>
      <trkpt lat="45.6063032" lon="-73.5857412"/>
      <trkpt lat="45.6057268" lon="-73.5861456"/>
      <trkpt lat="45.6063032" lon="-73.5857412"/>
      <trkpt lat="45.6058883" lon="-73.5847632"/>
      <trkpt lat="45.6049182" lon="-73.5863558"/>
      <trkpt lat="45.6048852" lon="-73.5866399"/>
      <trkpt lat="45.6048736" lon="-73.5868328"/>
      <trkpt lat="45.6048736" lon="-73.5868328"/>
      <trkpt lat="45.6048852" lon="-73.5866399"/>
      <trkpt lat="45.6048178" lon="-73.5864392"/>
      <trkpt lat="45.6047193" lon="-73.5863637"/>
      <trkpt lat="45.6047193" lon="-73.5863637"/>
      <trkpt lat="45.6048178" lon="-73.5864392"/>
      <trkpt lat="45.6049182" lon="-73.5863558"/>
      <trkpt lat="45.6058883" lon="-73.5847632"/>
      <trkpt lat="45.6060016" lon="-73.5846653"/>
      <trkpt lat="45.6058883" lon="-73.5847632"/>
      <trkpt lat="45.6056524" lon="-73.5842156"/>
      <trkpt lat="45.6057647" lon="-73.5841147"/>
      <trkpt lat="45.6056524" lon="-73.5842156"/>
      <trkpt lat="45.6051302" lon="-73.5830008"/>
      <trkpt lat="45.6052543" lon="-73.582897"/>
      <trkpt lat="45.6051302" lon="-73.5830008"/>
      <trkpt lat="45.6045776" lon="-73.581675"/>
      <trkpt lat="45.604687" lon="-73.5816184"/>
      <trkpt lat="45.6052543" lon="-73.582897"/>
      <trkpt lat="45.6057647" lon="-73.5841147"/>
      <trkpt lat="45.6065916" lon="-73.5833717"/>
      <trkpt lat="45.6065916" lon="-73.5833717"/>
      <trkpt lat="45.6057647" lon="-73.5841147"/>
      <trkpt lat="45.6060016" lon="-73.5846653"/>
      <trkpt lat="45.6067393" lon="-73.5864065"/>
      <trkpt lat="45.6085509" lon="-73.5834631"/>
      <trkpt lat="45.608324" lon="-73.5829388"/>
      <trkpt lat="45.6077516" lon="-73.5834307"/>
      <trkpt lat="45.6067227" lon="-73.5811251"/>
      <trkpt lat="45.6073257" lon="-73.580594"/>
      <trkpt lat="45.6074049" lon="-73.5807793"/>
      <trkpt lat="45.6077652" lon="-73.5816375"/>
      <trkpt lat="45.608324" lon="-73.5829388"/>
      <trkpt lat="45.6077652" lon="-73.5816375"/>
      <trkpt lat="45.6085436" lon="-73.5809514"/>
      <trkpt lat="45.6083047" lon="-73.5785463"/>
      <trkpt lat="45.6085436" lon="-73.5809514"/>
      <trkpt lat="45.6077347" lon="-73.5790427"/>
      <trkpt lat="45.6083047" lon="-73.5785463"/>
      <trkpt lat="45.6079629" lon="-73.5777549"/>
      <trkpt lat="45.606759" lon="-73.5768016"/>
      <trkpt lat="45.6064184" lon="-73.5760095"/>
      <trkpt lat="45.6069935" lon="-73.5755001"/>
      <trkpt lat="45.6072499" lon="-73.5752934"/>
      <trkpt lat="45.6069935" lon="-73.5755001"/>
      <trkpt lat="45.6064184" lon="-73.5760095"/>
      <trkpt lat="45.606759" lon="-73.5768016"/>
      <trkpt lat="45.6079629" lon="-73.5777549"/>
      <trkpt lat="45.6083047" lon="-73.5785463"/>
      <trkpt lat="45.6077347" lon="-73.5790427"/>
      <trkpt lat="45.6071574" lon="-73.579558"/>
      <trkpt lat="45.6068122" lon="-73.5787793"/>
      <trkpt lat="45.6064801" lon="-73.5780128"/>
      <trkpt lat="45.6062282" lon="-73.578241"/>
      <trkpt lat="45.6064801" lon="-73.5780128"/>
      <trkpt lat="45.6061512" lon="-73.5772553"/>
      <trkpt lat="45.6063448" lon="-73.5802682"/>
      <trkpt lat="45.6067227" lon="-73.5811251"/>
      <trkpt lat="45.6063448" lon="-73.5802682"/>
      <trkpt lat="45.6071574" lon="-73.579558"/>
      <trkpt lat="45.6063448" lon="-73.5802682"/>
      <trkpt lat="45.6052351" lon="-73.5812167"/>
      <trkpt lat="45.604687" lon="-73.5816184"/>
      <trkpt lat="45.6045776" lon="-73.581675"/>
      <trkpt lat="45.6040219" lon="-73.582049"/>
      <trkpt lat="45.6035206" lon="-73.5825827"/>
      <trkpt lat="45.6035206" lon="-73.5825827"/>
      <trkpt lat="45.6040219" lon="-73.582049"/>
      <trkpt lat="45.6045776" lon="-73.581675"/>
      <trkpt lat="45.6036242" lon="-73.5794585"/>
      <trkpt lat="45.6037135" lon="-73.5793759"/>
      <trkpt lat="45.604687" lon="-73.5816184"/>
      <trkpt lat="45.6052351" lon="-73.5812167"/>
      <trkpt lat="45.604882" lon="-73.5803936"/>
      <trkpt lat="45.6045356" lon="-73.5795823"/>
      <trkpt lat="45.6049468" lon="-73.5792283"/>
      <trkpt lat="45.6045356" lon="-73.5795823"/>
      <trkpt lat="45.6041878" lon="-73.5787708"/>
      <trkpt lat="45.6045356" lon="-73.5795823"/>
      <trkpt lat="45.604882" lon="-73.5803936"/>
      <trkpt lat="45.6053106" lon="-73.5800274"/>
      <trkpt lat="45.604882" lon="-73.5803936"/>
      <trkpt lat="45.6052351" lon="-73.5812167"/>
      <trkpt lat="45.6063448" lon="-73.5802682"/>
      <trkpt lat="45.6061512" lon="-73.5772553"/>
      <trkpt lat="45.605816" lon="-73.5764833"/>
      <trkpt lat="45.6064184" lon="-73.5760095"/>
      <trkpt lat="45.605816" lon="-73.5764833"/>
      <trkpt lat="45.6054467" lon="-73.5756378"/>
      <trkpt lat="45.6054467" lon="-73.5756378"/>
      <trkpt lat="45.605816" lon="-73.5764833"/>
      <trkpt lat="45.6049254" lon="-73.5770195"/>
      <trkpt lat="45.6039689" lon="-73.5747936"/>
      <trkpt lat="45.603614" lon="-73.5739764"/>
      <trkpt lat="45.6025269" lon="-73.5749196"/>
      <trkpt lat="45.6019966" lon="-73.5753847"/>
      <trkpt lat="45.6019096" lon="-73.5754605"/>
      <trkpt lat="45.6019966" lon="-73.5753847"/>
      <trkpt lat="45.6024205" lon="-73.5763704"/>
      <trkpt lat="45.6023341" lon="-73.5764461"/>
      <trkpt lat="45.6024205" lon="-73.5763704"/>
      <trkpt lat="45.6033094" lon="-73.578425"/>
      <trkpt lat="45.6037135" lon="-73.5793759"/>
      <trkpt lat="45.6036242" lon="-73.5794585"/>
      <trkpt lat="45.6031006" lon="-73.5799172"/>
      <trkpt lat="45.6040219" lon="-73.582049"/>
      <trkpt lat="45.6031006" lon="-73.5799172"/>
      <trkpt lat="45.6025289" lon="-73.5785975"/>
      <trkpt lat="45.6031006" lon="-73.5799172"/>
      <trkpt lat="45.602569" lon="-73.5814689"/>
      <trkpt lat="45.6031006" lon="-73.5799172"/>
      <trkpt lat="45.6036242" lon="-73.5794585"/>
      <trkpt lat="45.6032196" lon="-73.5785055"/>
      <trkpt lat="45.6033094" lon="-73.578425"/>
      <trkpt lat="45.6038402" lon="-73.5779598"/>
      <trkpt lat="45.6041878" lon="-73.5787708"/>
      <trkpt lat="45.6046075" lon="-73.5784143"/>
      <trkpt lat="45.6041878" lon="-73.5787708"/>
      <trkpt lat="45.6038402" lon="-73.5779598"/>
      <trkpt lat="45.6033094" lon="-73.578425"/>
      <trkpt lat="45.6032196" lon="-73.5785055"/>
      <trkpt lat="45.6023341" lon="-73.5764461"/>
      <trkpt lat="45.6018061" lon="-73.5768986"/>
      <trkpt lat="45.6005379" lon="-73.5780119"/>
      <trkpt lat="45.6008749" lon="-73.578751"/>
      <trkpt lat="45.6020049" lon="-73.5790487"/>
      <trkpt lat="45.6008749" lon="-73.578751"/>
      <trkpt lat="45.6005379" lon="-73.5780119"/>
      <trkpt lat="45.6018061" lon="-73.5768986"/>
      <trkpt lat="45.6025289" lon="-73.5785975"/>
      <trkpt lat="45.6020049" lon="-73.5790487"/>
      <trkpt lat="45.6025289" lon="-73.5785975"/>
      <trkpt lat="45.6018061" lon="-73.5768986"/>
      <trkpt lat="45.6023341" lon="-73.5764461"/>
      <trkpt lat="45.6019096" lon="-73.5754605"/>
      <trkpt lat="45.6007148" lon="-73.5726776"/>
      <trkpt lat="45.5991388" lon="-73.569017"/>
      <trkpt lat="45.5990845" lon="-73.5688943"/>
      <trkpt lat="45.5991846" lon="-73.5688473"/>
      <trkpt lat="45.6003997" lon="-73.5690428"/>
      <trkpt lat="45.6008948" lon="-73.569431"/>
      <trkpt lat="45.602648" lon="-73.5669999"/>
      <trkpt lat="45.6025345" lon="-73.5619592"/>
      <trkpt lat="45.6015009" lon="-73.5595141"/>
      <trkpt lat="45.6003632" lon="-73.5569108"/>
      <trkpt lat="45.5993465" lon="-73.5546089"/>
      <trkpt lat="45.5987937" lon="-73.5533796"/>
      <trkpt lat="45.5987233" lon="-73.553218"/>
      <trkpt lat="45.597125" lon="-73.5496339"/>
      <trkpt lat="45.5970758" lon="-73.5495214"/>
      <trkpt lat="45.5975319" lon="-73.5491276"/>
      <trkpt lat="45.5975702" lon="-73.5492153"/>
      <trkpt lat="45.5979031" lon="-73.5499787"/>
      <trkpt lat="45.5982351" lon="-73.5507227"/>
      <trkpt lat="45.5987127" lon="-73.5517832"/>
      <trkpt lat="45.5992293" lon="-73.552928"/>
      <trkpt lat="45.5996859" lon="-73.5539499"/>
      <trkpt lat="45.6002189" lon="-73.5556821"/>
      <trkpt lat="45.6026226" lon="-73.5611518"/>
      <trkpt lat="45.6038866" lon="-73.5632079"/>
      <trkpt lat="45.6068379" lon="-73.5643626"/>
      <trkpt lat="45.6115883" lon="-73.5603742"/>
      <trkpt lat="45.6136803" lon="-73.558321"/>
      <trkpt lat="45.6140011" lon="-73.5580446"/>
      <trkpt lat="45.6135813" lon="-73.5573587"/>
      <trkpt lat="45.6135401" lon="-73.5577946"/>
      <trkpt lat="45.6142944" lon="-73.5595028"/>
      <trkpt lat="45.6144508" lon="-73.5583827"/>
      <trkpt lat="45.6134612" lon="-73.5592594"/>
      <trkpt lat="45.6133502" lon="-73.5593623"/>
      <trkpt lat="45.6125813" lon="-73.5599883"/>
      <trkpt lat="45.6121908" lon="-73.5603219"/>
      <trkpt lat="45.6110624" lon="-73.5613086"/>
      <trkpt lat="45.6096679" lon="-73.5625743"/>
      <trkpt lat="45.6080571" lon="-73.5640442"/>
      <trkpt lat="45.606803" lon="-73.5673003"/>
      <trkpt lat="45.6051134" lon="-73.5691855"/>
      <trkpt lat="45.6026492" lon="-73.5689935"/>
      <trkpt lat="45.6028927" lon="-73.5695909"/>
      <trkpt lat="45.6032687" lon="-73.570455"/>
      <trkpt lat="45.6036187" lon="-73.5712858"/>
      <trkpt lat="45.6044581" lon="-73.5732253"/>
      <trkpt lat="45.6050115" lon="-73.572748"/>
      <trkpt lat="45.6061123" lon="-73.5717859"/>
      <trkpt lat="45.6098808" lon="-73.5804989"/>
      <trkpt lat="45.6103054" lon="-73.5801402"/>
      <trkpt lat="45.6097701" lon="-73.5784967"/>
      <trkpt lat="45.607039" lon="-73.5712207"/>
      <trkpt lat="45.6068383" lon="-73.5708344"/>
      <trkpt lat="45.6051134" lon="-73.5691855"/>
      <trkpt lat="45.6026492" lon="-73.5689935"/>
      <trkpt lat="45.6028927" lon="-73.5695909"/>
      <trkpt lat="45.6028212" lon="-73.5696528"/>
      <trkpt lat="45.6024629" lon="-73.569961"/>
      <trkpt lat="45.6024629" lon="-73.569961"/>
      <trkpt lat="45.6028212" lon="-73.5696528"/>
      <trkpt lat="45.6028927" lon="-73.5695909"/>
      <trkpt lat="45.6032687" lon="-73.570455"/>
      <trkpt lat="45.6036187" lon="-73.5712858"/>
      <trkpt lat="45.6035453" lon="-73.5713492"/>
      <trkpt lat="45.6031943" lon="-73.5705241"/>
      <trkpt lat="45.6032687" lon="-73.570455"/>
      <trkpt lat="45.6036187" lon="-73.5712858"/>
      <trkpt lat="45.6044581" lon="-73.5732253"/>
      <trkpt lat="45.6043848" lon="-73.5732869"/>
      <trkpt lat="45.6035453" lon="-73.5713492"/>
      <trkpt lat="45.6036187" lon="-73.5712858"/>
      <trkpt lat="45.6044581" lon="-73.5732253"/>
      <trkpt lat="45.6050115" lon="-73.572748"/>
      <trkpt lat="45.6044581" lon="-73.5732253"/>
      <trkpt lat="45.6043848" lon="-73.5732869"/>
      <trkpt lat="45.603614" lon="-73.5739764"/>
      <trkpt lat="45.6043848" lon="-73.5732869"/>
      <trkpt lat="45.6044581" lon="-73.5732253"/>
      <trkpt lat="45.6050115" lon="-73.572748"/>
      <trkpt lat="45.6061123" lon="-73.5717859"/>
      <trkpt lat="45.606753" lon="-73.571229"/>
      <trkpt lat="45.6068383" lon="-73.5708344"/>
      <trkpt lat="45.6051134" lon="-73.5691855"/>
      <trkpt lat="45.6026492" lon="-73.5689935"/>
      <trkpt lat="45.6025601" lon="-73.569029"/>
      <trkpt lat="45.6006079" lon="-73.5704602"/>
      <trkpt lat="45.6013267" lon="-73.5721488"/>
      <trkpt lat="45.6031943" lon="-73.5705241"/>
      <trkpt lat="45.6028212" lon="-73.5696528"/>
      <trkpt lat="45.6025601" lon="-73.569029"/>
      <trkpt lat="45.6006079" lon="-73.5704602"/>
      <trkpt lat="45.5988989" lon="-73.5719082"/>
      <trkpt lat="45.5986419" lon="-73.5721338"/>
      <trkpt lat="45.5986311" lon="-73.5746329"/>
      <trkpt lat="45.5989127" lon="-73.575296"/>
      <trkpt lat="45.5993616" lon="-73.5775151"/>
      <trkpt lat="45.6001175" lon="-73.5770301"/>
      <trkpt lat="45.5993616" lon="-73.5775151"/>
      <trkpt lat="45.6001175" lon="-73.5770301"/>
      <trkpt lat="45.6005379" lon="-73.5780119"/>
      <trkpt lat="45.6001175" lon="-73.5770301"/>
      <trkpt lat="45.6008444" lon="-73.576392"/>
      <trkpt lat="45.6001175" lon="-73.5770301"/>
      <trkpt lat="45.6008444" lon="-73.576392"/>
      <trkpt lat="45.5996658" lon="-73.573708"/>
      <trkpt lat="45.6008444" lon="-73.576392"/>
      <trkpt lat="45.6019096" lon="-73.5754605"/>
      <trkpt lat="45.6008444" lon="-73.576392"/>
      <trkpt lat="45.6019096" lon="-73.5754605"/>
      <trkpt lat="45.6007148" lon="-73.5726776"/>
      <trkpt lat="45.5991388" lon="-73.569017"/>
      <trkpt lat="45.5990845" lon="-73.5688943"/>
      <trkpt lat="45.5971559" lon="-73.5632423"/>
      <trkpt lat="45.5972521" lon="-73.5631797"/>
      <trkpt lat="45.5971559" lon="-73.5632423"/>
      <trkpt lat="45.5959455" lon="-73.5640413"/>
      <trkpt lat="45.5953784" lon="-73.5623639"/>
      <trkpt lat="45.5953784" lon="-73.5623639"/>
      <trkpt lat="45.5959455" lon="-73.5640413"/>
      <trkpt lat="45.5955606" lon="-73.5644272"/>
      <trkpt lat="45.5959455" lon="-73.5640413"/>
      <trkpt lat="45.5971559" lon="-73.5632423"/>
      <trkpt lat="45.5972521" lon="-73.5631797"/>
      <trkpt lat="45.5991846" lon="-73.5688473"/>
      <trkpt lat="45.5992256" lon="-73.5689474"/>
      <trkpt lat="45.5991388" lon="-73.569017"/>
      <trkpt lat="45.5986218" lon="-73.5692957"/>
      <trkpt lat="45.5975259" lon="-73.5702479"/>
      <trkpt lat="45.5986218" lon="-73.5692957"/>
      <trkpt lat="45.5975259" lon="-73.5702479"/>
      <trkpt lat="45.5971463" lon="-73.570584"/>
      <trkpt lat="45.5975259" lon="-73.5702479"/>
      <trkpt lat="45.5955606" lon="-73.5644272"/>
      <trkpt lat="45.5975259" lon="-73.5702479"/>
      <trkpt lat="45.5971463" lon="-73.570584"/>
      <trkpt lat="45.5976411" lon="-73.5723637"/>
      <trkpt lat="45.5986817" lon="-73.5714333"/>
      <trkpt lat="45.600405" lon="-73.5698807"/>
      <trkpt lat="45.6008948" lon="-73.569431"/>
      <trkpt lat="45.602648" lon="-73.5669999"/>
      <trkpt lat="45.6025345" lon="-73.5619592"/>
      <trkpt lat="45.6015009" lon="-73.5595141"/>
      <trkpt lat="45.6003632" lon="-73.5569108"/>
      <trkpt lat="45.5993465" lon="-73.5546089"/>
      <trkpt lat="45.5987937" lon="-73.5533796"/>
      <trkpt lat="45.5987233" lon="-73.553218"/>
      <trkpt lat="45.597125" lon="-73.5496339"/>
      <trkpt lat="45.5970758" lon="-73.5495214"/>
      <trkpt lat="45.5975319" lon="-73.5491276"/>
      <trkpt lat="45.5975702" lon="-73.5492153"/>
      <trkpt lat="45.5979031" lon="-73.5499787"/>
      <trkpt lat="45.5982351" lon="-73.5507227"/>
      <trkpt lat="45.5987127" lon="-73.5517832"/>
      <trkpt lat="45.5992293" lon="-73.552928"/>
      <trkpt lat="45.5996859" lon="-73.5539499"/>
      <trkpt lat="45.6002189" lon="-73.5556821"/>
      <trkpt lat="45.6026226" lon="-73.5611518"/>
      <trkpt lat="45.6038866" lon="-73.5632079"/>
      <trkpt lat="45.6065854" lon="-73.5687378"/>
      <trkpt lat="45.6074205" lon="-73.5710517"/>
      <trkpt lat="45.6094216" lon="-73.5760225"/>
      <trkpt lat="45.6107919" lon="-73.5802213"/>
      <trkpt lat="45.6122524" lon="-73.5839552"/>
      <trkpt lat="45.6135567" lon="-73.587957"/>
      <trkpt lat="45.6129753" lon="-73.5883504"/>
      <trkpt lat="45.6118001" lon="-73.5847394"/>
      <trkpt lat="45.6107527" lon="-73.5808033"/>
      <trkpt lat="45.609169" lon="-73.5758523"/>
      <trkpt lat="45.6065435" lon="-73.5699162"/>
      <trkpt lat="45.6055397" lon="-73.5687015"/>
      <trkpt lat="45.6031214" lon="-73.5631421"/>
      <trkpt lat="45.6002654" lon="-73.5562438"/>
      <trkpt lat="45.5993465" lon="-73.5546089"/>
      <trkpt lat="45.5987937" lon="-73.5533796"/>
      <trkpt lat="45.5987233" lon="-73.553218"/>
      <trkpt lat="45.597125" lon="-73.5496339"/>
      <trkpt lat="45.5970758" lon="-73.5495214"/>
      <trkpt lat="45.5975319" lon="-73.5491276"/>
      <trkpt lat="45.5975702" lon="-73.5492153"/>
      <trkpt lat="45.5979031" lon="-73.5499787"/>
      <trkpt lat="45.5982351" lon="-73.5507227"/>
      <trkpt lat="45.5987127" lon="-73.5517832"/>
      <trkpt lat="45.5992293" lon="-73.552928"/>
      <trkpt lat="45.5996859" lon="-73.5539499"/>
      <trkpt lat="45.6002189" lon="-73.5556821"/>
      <trkpt lat="45.6026226" lon="-73.5611518"/>
      <trkpt lat="45.6038866" lon="-73.5632079"/>
      <trkpt lat="45.6065854" lon="-73.5687378"/>
      <trkpt lat="45.6074205" lon="-73.5710517"/>
      <trkpt lat="45.6094216" lon="-73.5760225"/>
      <trkpt lat="45.6107919" lon="-73.5802213"/>
      <trkpt lat="45.6122524" lon="-73.5839552"/>
      <trkpt lat="45.6135567" lon="-73.587957"/>
      <trkpt lat="45.6144172" lon="-73.5906135"/>
      <trkpt lat="45.6168539" lon="-73.5938325"/>
      <trkpt lat="45.6180448" lon="-73.5920757"/>
      <trkpt lat="45.6193929" lon="-73.5901166"/>
      <trkpt lat="45.6206874" lon="-73.5882291"/>
      <trkpt lat="45.6218391" lon="-73.5865549"/>
      <trkpt lat="45.6234968" lon="-73.5841234"/>
      <trkpt lat="45.6252407" lon="-73.5815792"/>
      <trkpt lat="45.6236517" lon="-73.5784172"/>
      <trkpt lat="45.6235199" lon="-73.5781138"/>
      <trkpt lat="45.6226596" lon="-73.576107"/>
      <trkpt lat="45.6216387" lon="-73.5737392"/>
      <trkpt lat="45.6190003" lon="-73.5760661"/>
      <trkpt lat="45.6184045" lon="-73.5747967"/>
      <trkpt lat="45.6172401" lon="-73.5758312"/>
      <trkpt lat="45.6184045" lon="-73.5747967"/>
      <trkpt lat="45.6172401" lon="-73.5758312"/>
      <trkpt lat="45.6170631" lon="-73.5759826"/>
      <trkpt lat="45.6164822" lon="-73.5745602"/>
      <trkpt lat="45.6170631" lon="-73.5759826"/>
      <trkpt lat="45.6172401" lon="-73.5758312"/>
      <trkpt lat="45.6200341" lon="-73.582276"/>
      <trkpt lat="45.6185535" lon="-73.5835772"/>
      <trkpt lat="45.6170153" lon="-73.584916"/>
      <trkpt lat="45.6156456" lon="-73.5861222"/>
      <trkpt lat="45.6172041" lon="-73.5897844"/>
      <trkpt lat="45.6156456" lon="-73.5861222"/>
      <trkpt lat="45.6170153" lon="-73.584916"/>
      <trkpt lat="45.61857" lon="-73.5885749"/>
      <trkpt lat="45.6170153" lon="-73.584916"/>
      <trkpt lat="45.6185535" lon="-73.5835772"/>
      <trkpt lat="45.6199145" lon="-73.5867491"/>
      <trkpt lat="45.6206874" lon="-73.5882291"/>
      <trkpt lat="45.6199145" lon="-73.5867491"/>
      <trkpt lat="45.61857" lon="-73.5885749"/>
      <trkpt lat="45.6172041" lon="-73.5897844"/>
      <trkpt lat="45.6180448" lon="-73.5920757"/>
      <trkpt lat="45.6172041" lon="-73.5897844"/>
      <trkpt lat="45.6156456" lon="-73.5861222"/>
      <trkpt lat="45.6134392" lon="-73.5809608"/>
      <trkpt lat="45.6156456" lon="-73.5861222"/>
      <trkpt lat="45.6134392" lon="-73.5809608"/>
      <trkpt lat="45.6117587" lon="-73.5824241"/>
      <trkpt lat="45.6122524" lon="-73.5839552"/>
      <trkpt lat="45.6135567" lon="-73.587957"/>
      <trkpt lat="45.6156456" lon="-73.5861222"/>
      <trkpt lat="45.6135567" lon="-73.587957"/>
      <trkpt lat="45.6129753" lon="-73.5883504"/>
      <trkpt lat="45.6135567" lon="-73.587957"/>
      <trkpt lat="45.6129753" lon="-73.5883504"/>
      <trkpt lat="45.6118001" lon="-73.5847394"/>
      <trkpt lat="45.6112114" lon="-73.5829331"/>
      <trkpt lat="45.6096026" lon="-73.5843326"/>
      <trkpt lat="45.6120495" lon="-73.5911853"/>
      <trkpt lat="45.6124235" lon="-73.5967777"/>
      <trkpt lat="45.6120495" lon="-73.5911853"/>
      <trkpt lat="45.6135721" lon="-73.5901891"/>
      <trkpt lat="45.6120495" lon="-73.5911853"/>
      <trkpt lat="45.6124235" lon="-73.5967777"/>
      <trkpt lat="45.6132339" lon="-73.5984338"/>
      <trkpt lat="45.6132987" lon="-73.5985137"/>
      <trkpt lat="45.6133975" lon="-73.5986143"/>
      <trkpt lat="45.613895" lon="-73.5987325"/>
      <trkpt lat="45.6145696" lon="-73.5973412"/>
      <trkpt lat="45.6144169" lon="-73.5927096"/>
      <trkpt lat="45.6135721" lon="-73.5901891"/>
      <trkpt lat="45.6129753" lon="-73.5883504"/>
      <trkpt lat="45.6118001" lon="-73.5847394"/>
      <trkpt lat="45.6112114" lon="-73.5829331"/>
      <trkpt lat="45.6096026" lon="-73.5843326"/>
      <trkpt lat="45.6120495" lon="-73.5911853"/>
      <trkpt lat="45.6096026" lon="-73.5843326"/>
      <trkpt lat="45.6112114" lon="-73.5829331"/>
      <trkpt lat="45.6107746" lon="-73.5815938"/>
      <trkpt lat="45.6107224" lon="-73.5814371"/>
      <trkpt lat="45.6103054" lon="-73.5801402"/>
      <trkpt lat="45.6098808" lon="-73.5804989"/>
      <trkpt lat="45.6090409" lon="-73.583039"/>
      <trkpt lat="45.6085509" lon="-73.5834631"/>
      <trkpt lat="45.6090409" lon="-73.583039"/>
      <trkpt lat="45.6096026" lon="-73.5843326"/>
      <trkpt lat="45.6120495" lon="-73.5911853"/>
      <trkpt lat="45.6124235" lon="-73.5967777"/>
      <trkpt lat="45.6132339" lon="-73.5984338"/>
      <trkpt lat="45.6132987" lon="-73.5985137"/>
      <trkpt lat="45.6132368" lon="-73.5986382"/>
      <trkpt lat="45.6129616" lon="-73.5990909"/>
      <trkpt lat="45.6128018" lon="-73.5994667"/>
      <trkpt lat="45.6127744" lon="-73.5999004"/>
      <trkpt lat="45.6125324" lon="-73.5996063"/>
      <trkpt lat="45.611922" lon="-73.599637"/>
      <trkpt lat="45.6125324" lon="-73.5996063"/>
      <trkpt lat="45.6128018" lon="-73.5994667"/>
      <trkpt lat="45.6127744" lon="-73.5999004"/>
      <trkpt lat="45.6128018" lon="-73.5994667"/>
      <trkpt lat="45.6129616" lon="-73.5990909"/>
      <trkpt lat="45.613169" lon="-73.5985545"/>
      <trkpt lat="45.6124235" lon="-73.5967777"/>
      <trkpt lat="45.6132339" lon="-73.5984338"/>
      <trkpt lat="45.6132987" lon="-73.5985137"/>
      <trkpt lat="45.6132368" lon="-73.5986382"/>
      <trkpt lat="45.613169" lon="-73.5985545"/>
      <trkpt lat="45.6132339" lon="-73.5984338"/>
      <trkpt lat="45.6132987" lon="-73.5985137"/>
      <trkpt lat="45.6133975" lon="-73.5986143"/>
      <trkpt lat="45.6137722" lon="-73.598997"/>
      <trkpt lat="45.613895" lon="-73.5987325"/>
      <trkpt lat="45.6145696" lon="-73.5973412"/>
      <trkpt lat="45.6151011" lon="-73.5964109"/>
      <trkpt lat="45.6166037" lon="-73.594192"/>
      <trkpt lat="45.6168539" lon="-73.5938325"/>
      <trkpt lat="45.6180448" lon="-73.5920757"/>
      <trkpt lat="45.6172041" lon="-73.5897844"/>
      <trkpt lat="45.61857" lon="-73.5885749"/>
      <trkpt lat="45.6199145" lon="-73.5867491"/>
      <trkpt lat="45.6185535" lon="-73.5835772"/>
      <trkpt lat="45.6200341" lon="-73.582276"/>
      <trkpt lat="45.6172401" lon="-73.5758312"/>
      <trkpt lat="45.6170631" lon="-73.5759826"/>
      <trkpt lat="45.6147059" lon="-73.5780578"/>
      <trkpt lat="45.6170631" lon="-73.5759826"/>
      <trkpt lat="45.6147059" lon="-73.5780578"/>
      <trkpt lat="45.6170153" lon="-73.584916"/>
      <trkpt lat="45.6147059" lon="-73.5780578"/>
      <trkpt lat="45.6128805" lon="-73.5796523"/>
      <trkpt lat="45.6147059" lon="-73.5780578"/>
      <trkpt lat="45.6128805" lon="-73.5796523"/>
      <trkpt lat="45.612329" lon="-73.5783474"/>
      <trkpt lat="45.6104993" lon="-73.5740759"/>
      <trkpt lat="45.6118628" lon="-73.5728749"/>
      <trkpt lat="45.6104993" lon="-73.5740759"/>
      <trkpt lat="45.6081011" lon="-73.5719002"/>
      <trkpt lat="45.6104993" lon="-73.5740759"/>
      <trkpt lat="45.6093455" lon="-73.5750706"/>
      <trkpt lat="45.6104993" lon="-73.5740759"/>
      <trkpt lat="45.612329" lon="-73.5783474"/>
      <trkpt lat="45.6108514" lon="-73.5796389"/>
      <trkpt lat="45.612329" lon="-73.5783474"/>
      <trkpt lat="45.6128805" lon="-73.5796523"/>
      <trkpt lat="45.6113329" lon="-73.5811084"/>
      <trkpt lat="45.6117587" lon="-73.5824241"/>
      <trkpt lat="45.6134392" lon="-73.5809608"/>
      <trkpt lat="45.6128805" lon="-73.5796523"/>
      <trkpt lat="45.6134392" lon="-73.5809608"/>
      <trkpt lat="45.6128805" lon="-73.5796523"/>
      <trkpt lat="45.612329" lon="-73.5783474"/>
      <trkpt lat="45.6104993" lon="-73.5740759"/>
      <trkpt lat="45.6081011" lon="-73.5719002"/>
      <trkpt lat="45.6093455" lon="-73.5750706"/>
      <trkpt lat="45.6103465" lon="-73.5781649"/>
      <trkpt lat="45.6108514" lon="-73.5796389"/>
      <trkpt lat="45.6112814" lon="-73.5809465"/>
      <trkpt lat="45.6128805" lon="-73.5796523"/>
      <trkpt lat="45.6113329" lon="-73.5811084"/>
      <trkpt lat="45.6107746" lon="-73.5815938"/>
      <trkpt lat="45.6107224" lon="-73.5814371"/>
      <trkpt lat="45.6112814" lon="-73.5809465"/>
      <trkpt lat="45.6113329" lon="-73.5811084"/>
      <trkpt lat="45.6107746" lon="-73.5815938"/>
      <trkpt lat="45.6092802" lon="-73.5828216"/>
      <trkpt lat="45.6090409" lon="-73.583039"/>
      <trkpt lat="45.6096026" lon="-73.5843326"/>
      <trkpt lat="45.6090409" lon="-73.583039"/>
      <trkpt lat="45.6092802" lon="-73.5828216"/>
      <trkpt lat="45.6107224" lon="-73.5814371"/>
      <trkpt lat="45.6103054" lon="-73.5801402"/>
      <trkpt lat="45.6097701" lon="-73.5784967"/>
    </trkseg>
  </trk>
</gpx>
