<?xml version="1.0" ?>
<gpx xmlns="http://www.topografix.com/GPX/1/1" version="1.1" creator="ERO1">
  <trk>
    <name>riviere_des_prairies — securite — zone 1</name>
    <trkseg>
      <trkpt lat="45.644059" lon="-73.5859622"/>
      <trkpt lat="45.6460393" lon="-73.5827782"/>
      <trkpt lat="45.6465914" lon="-73.5821257"/>
      <trkpt lat="45.6479572" lon="-73.5805395"/>
      <trkpt lat="45.6484479" lon="-73.5799593"/>
      <trkpt lat="45.6492642" lon="-73.5790152"/>
      <trkpt lat="45.6493564" lon="-73.5789121"/>
      <trkpt lat="45.6501284" lon="-73.5779798"/>
      <trkpt lat="45.650831" lon="-73.5771759"/>
      <trkpt lat="45.6517479" lon="-73.5760905"/>
      <trkpt lat="45.65196" lon="-73.5758378"/>
      <trkpt lat="45.6524348" lon="-73.5752836"/>
      <trkpt lat="45.6530067" lon="-73.5746072"/>
      <trkpt lat="45.6543998" lon="-73.5722811"/>
      <trkpt lat="45.6547777" lon="-73.5715553"/>
      <trkpt lat="45.6551208" lon="-73.57089"/>
      <trkpt lat="45.655457" lon="-73.5702337"/>
      <trkpt lat="45.6558603" lon="-73.5694596"/>
      <trkpt lat="45.6564182" lon="-73.5683759"/>
      <trkpt lat="45.6567322" lon="-73.5677615"/>
      <trkpt lat="45.657124" lon="-73.5670084"/>
      <trkpt lat="45.6575145" lon="-73.5662463"/>
      <trkpt lat="45.6579772" lon="-73.5653514"/>
      <trkpt lat="45.6582854" lon="-73.5647506"/>
      <trkpt lat="45.6585814" lon="-73.5641722"/>
      <trkpt lat="45.6588963" lon="-73.563559"/>
      <trkpt lat="45.6610964" lon="-73.5592899"/>
      <trkpt lat="45.6616048" lon="-73.5583689"/>
      <trkpt lat="45.6633196" lon="-73.5559715"/>
      <trkpt lat="45.6646265" lon="-73.5543825"/>
      <trkpt lat="45.6659815" lon="-73.5527111"/>
      <trkpt lat="45.6685059" lon="-73.5486153"/>
      <trkpt lat="45.666039" lon="-73.5468398"/>
      <trkpt lat="45.6685059" lon="-73.5486153"/>
      <trkpt lat="45.66805" lon="-73.5495779"/>
      <trkpt lat="45.6660575" lon="-73.552856"/>
      <trkpt lat="45.663444" lon="-73.5560594"/>
      <trkpt lat="45.6617323" lon="-73.5584495"/>
      <trkpt lat="45.6612124" lon="-73.5593753"/>
      <trkpt lat="45.6590006" lon="-73.5636661"/>
      <trkpt lat="45.6586877" lon="-73.5642821"/>
      <trkpt lat="45.6583964" lon="-73.5648578"/>
      <trkpt lat="45.6580816" lon="-73.5654609"/>
      <trkpt lat="45.6576135" lon="-73.5663736"/>
      <trkpt lat="45.657229" lon="-73.567117"/>
      <trkpt lat="45.6568419" lon="-73.5678721"/>
      <trkpt lat="45.6565236" lon="-73.5684825"/>
      <trkpt lat="45.6559674" lon="-73.5695688"/>
      <trkpt lat="45.6555667" lon="-73.5703513"/>
      <trkpt lat="45.6552278" lon="-73.57101"/>
      <trkpt lat="45.6548876" lon="-73.5716687"/>
      <trkpt lat="45.6531032" lon="-73.5747394"/>
      <trkpt lat="45.6525222" lon="-73.5754275"/>
      <trkpt lat="45.6520445" lon="-73.5759832"/>
      <trkpt lat="45.6516672" lon="-73.5764266"/>
      <trkpt lat="45.6509057" lon="-73.577307"/>
      <trkpt lat="45.6502031" lon="-73.5781375"/>
      <trkpt lat="45.6494515" lon="-73.5790065"/>
      <trkpt lat="45.6493611" lon="-73.5791088"/>
      <trkpt lat="45.6485642" lon="-73.5800783"/>
      <trkpt lat="45.6480652" lon="-73.5806491"/>
      <trkpt lat="45.6467012" lon="-73.5822462"/>
      <trkpt lat="45.6461485" lon="-73.5828922"/>
      <trkpt lat="45.6441573" lon="-73.5860702"/>
      <trkpt lat="45.6424988" lon="-73.5893226"/>
      <trkpt lat="45.64204" lon="-73.5901968"/>
      <trkpt lat="45.6415761" lon="-73.5911134"/>
      <trkpt lat="45.6411224" lon="-73.5919816"/>
      <trkpt lat="45.6407807" lon="-73.5926381"/>
      <trkpt lat="45.6404223" lon="-73.5933392"/>
      <trkpt lat="45.6400921" lon="-73.5939595"/>
      <trkpt lat="45.6397019" lon="-73.5947409"/>
      <trkpt lat="45.6385595" lon="-73.5969406"/>
      <trkpt lat="45.6384761" lon="-73.5970947"/>
      <trkpt lat="45.6376478" lon="-73.5987149"/>
      <trkpt lat="45.636462" lon="-73.6010178"/>
      <trkpt lat="45.6360597" lon="-73.6018324"/>
      <trkpt lat="45.6356252" lon="-73.6026733"/>
      <trkpt lat="45.6351206" lon="-73.6036521"/>
      <trkpt lat="45.6338788" lon="-73.6056717"/>
      <trkpt lat="45.6328378" lon="-73.6071437"/>
      <trkpt lat="45.6318295" lon="-73.6086057"/>
      <trkpt lat="45.6313794" lon="-73.6092945"/>
      <trkpt lat="45.6309852" lon="-73.6098495"/>
      <trkpt lat="45.6304925" lon="-73.6105405"/>
      <trkpt lat="45.6299862" lon="-73.6113365"/>
      <trkpt lat="45.6294844" lon="-73.6120632"/>
      <trkpt lat="45.6273809" lon="-73.6150407"/>
      <trkpt lat="45.6279342" lon="-73.6156355"/>
      <trkpt lat="45.6284588" lon="-73.6161874"/>
      <trkpt lat="45.6279342" lon="-73.6156355"/>
      <trkpt lat="45.6273809" lon="-73.6150407"/>
      <trkpt lat="45.6279342" lon="-73.6156355"/>
      <trkpt lat="45.6284588" lon="-73.6161874"/>
      <trkpt lat="45.6289584" lon="-73.6152422"/>
      <trkpt lat="45.6299487" lon="-73.6162504"/>
      <trkpt lat="45.6294482" lon="-73.6172344"/>
      <trkpt lat="45.628591" lon="-73.6163307"/>
      <trkpt lat="45.6284588" lon="-73.6161874"/>
      <trkpt lat="45.6289584" lon="-73.6152422"/>
      <trkpt lat="45.6299487" lon="-73.6162504"/>
      <trkpt lat="45.6289584" lon="-73.6152422"/>
      <trkpt lat="45.6299487" lon="-73.6162504"/>
      <trkpt lat="45.6294482" lon="-73.6172344"/>
      <trkpt lat="45.630116" lon="-73.6179466"/>
      <trkpt lat="45.6311343" lon="-73.6164119"/>
      <trkpt lat="45.630116" lon="-73.6179466"/>
      <trkpt lat="45.6294482" lon="-73.6172344"/>
      <trkpt lat="45.630116" lon="-73.6179466"/>
      <trkpt lat="45.6311343" lon="-73.6164119"/>
      <trkpt lat="45.6325642" lon="-73.6135116"/>
      <trkpt lat="45.6332509" lon="-73.6122944"/>
      <trkpt lat="45.6335917" lon="-73.6116772"/>
      <trkpt lat="45.6353406" lon="-73.6091612"/>
      <trkpt lat="45.6347967" lon="-73.6085941"/>
      <trkpt lat="45.6352575" lon="-73.607751"/>
      <trkpt lat="45.6342704" lon="-73.6066462"/>
      <trkpt lat="45.6338788" lon="-73.6056717"/>
      <trkpt lat="45.6337901" lon="-73.6055164"/>
      <trkpt lat="45.6350079" lon="-73.603538"/>
      <trkpt lat="45.6355117" lon="-73.6025576"/>
      <trkpt lat="45.6359419" lon="-73.601703"/>
      <trkpt lat="45.6363615" lon="-73.6008941"/>
      <trkpt lat="45.6375488" lon="-73.5985888"/>
      <trkpt lat="45.6383798" lon="-73.5969832"/>
      <trkpt lat="45.6384632" lon="-73.5968322"/>
      <trkpt lat="45.6399934" lon="-73.5938553"/>
      <trkpt lat="45.6403147" lon="-73.5932233"/>
      <trkpt lat="45.6406741" lon="-73.5925262"/>
      <trkpt lat="45.6410191" lon="-73.591874"/>
      <trkpt lat="45.6403834" lon="-73.5911913"/>
      <trkpt lat="45.6408224" lon="-73.5903037"/>
      <trkpt lat="45.6412908" lon="-73.589409"/>
      <trkpt lat="45.6417332" lon="-73.5885219"/>
      <trkpt lat="45.6421471" lon="-73.5877145"/>
      <trkpt lat="45.6425785" lon="-73.5868857"/>
      <trkpt lat="45.6429862" lon="-73.5860881"/>
      <trkpt lat="45.6434038" lon="-73.5852795"/>
      <trkpt lat="45.6438901" lon="-73.5843392"/>
      <trkpt lat="45.6448615" lon="-73.5826691"/>
      <trkpt lat="45.6453681" lon="-73.5820731"/>
      <trkpt lat="45.6459252" lon="-73.5814129"/>
      <trkpt lat="45.6440408" lon="-73.5794326"/>
      <trkpt lat="45.6444284" lon="-73.5786717"/>
      <trkpt lat="45.6447363" lon="-73.5780932"/>
      <trkpt lat="45.6450708" lon="-73.5774467"/>
      <trkpt lat="45.6454482" lon="-73.5767404"/>
      <trkpt lat="45.6432595" lon="-73.5755175"/>
      <trkpt lat="45.6454482" lon="-73.5767404"/>
      <trkpt lat="45.6460684" lon="-73.5755826"/>
      <trkpt lat="45.6454482" lon="-73.5767404"/>
      <trkpt lat="45.6460684" lon="-73.5755826"/>
      <trkpt lat="45.6461427" lon="-73.5754703"/>
      <trkpt lat="45.6465832" lon="-73.574643"/>
      <trkpt lat="45.645984" lon="-73.5740183"/>
      <trkpt lat="45.645984" lon="-73.5740183"/>
      <trkpt lat="45.6465832" lon="-73.574643"/>
      <trkpt lat="45.6469283" lon="-73.5739882"/>
      <trkpt lat="45.6476211" lon="-73.5726347"/>
      <trkpt lat="45.6480367" lon="-73.571822"/>
      <trkpt lat="45.6484704" lon="-73.5710375"/>
      <trkpt lat="45.6488657" lon="-73.5702756"/>
      <trkpt lat="45.648972" lon="-73.5684522"/>
      <trkpt lat="45.6484522" lon="-73.5678929"/>
      <trkpt lat="45.6478528" lon="-73.5672623"/>
      <trkpt lat="45.6477736" lon="-73.5671736"/>
      <trkpt lat="45.6487734" lon="-73.5652301"/>
      <trkpt lat="45.6491032" lon="-73.5645825"/>
      <trkpt lat="45.6493289" lon="-73.5637964"/>
      <trkpt lat="45.649715" lon="-73.5630304"/>
      <trkpt lat="45.6470889" lon="-73.5602843"/>
      <trkpt lat="45.6476575" lon="-73.5592085"/>
      <trkpt lat="45.6479748" lon="-73.5586077"/>
      <trkpt lat="45.6477266" lon="-73.5583497"/>
      <trkpt lat="45.6456109" lon="-73.5561263"/>
      <trkpt lat="45.6439162" lon="-73.5543615"/>
      <trkpt lat="45.6436067" lon="-73.5540292"/>
      <trkpt lat="45.6426264" lon="-73.5555847"/>
      <trkpt lat="45.6421704" lon="-73.5562897"/>
      <trkpt lat="45.641782" lon="-73.55689"/>
      <trkpt lat="45.6413766" lon="-73.5574714"/>
      <trkpt lat="45.6397913" lon="-73.559963"/>
      <trkpt lat="45.6363378" lon="-73.5652179"/>
      <trkpt lat="45.6371141" lon="-73.5661059"/>
      <trkpt lat="45.6413778" lon="-73.5706657"/>
      <trkpt lat="45.6417864" lon="-73.5710868"/>
      <trkpt lat="45.6424497" lon="-73.5716725"/>
      <trkpt lat="45.6438878" lon="-73.5730623"/>
      <trkpt lat="45.6439841" lon="-73.5731497"/>
      <trkpt lat="45.6461427" lon="-73.5754703"/>
      <trkpt lat="45.6460684" lon="-73.5755826"/>
      <trkpt lat="45.6461427" lon="-73.5754703"/>
      <trkpt lat="45.6465832" lon="-73.574643"/>
      <trkpt lat="45.6469283" lon="-73.5739882"/>
      <trkpt lat="45.6476211" lon="-73.5726347"/>
      <trkpt lat="45.6480367" lon="-73.571822"/>
      <trkpt lat="45.6484704" lon="-73.5710375"/>
      <trkpt lat="45.6488657" lon="-73.5702756"/>
      <trkpt lat="45.648972" lon="-73.5684522"/>
      <trkpt lat="45.6484522" lon="-73.5678929"/>
      <trkpt lat="45.6478528" lon="-73.5672623"/>
      <trkpt lat="45.6477736" lon="-73.5671736"/>
      <trkpt lat="45.6487734" lon="-73.5652301"/>
      <trkpt lat="45.6491032" lon="-73.5645825"/>
      <trkpt lat="45.6493289" lon="-73.5637964"/>
      <trkpt lat="45.649715" lon="-73.5630304"/>
      <trkpt lat="45.6470889" lon="-73.5602843"/>
      <trkpt lat="45.6476575" lon="-73.5592085"/>
      <trkpt lat="45.6479748" lon="-73.5586077"/>
      <trkpt lat="45.6477266" lon="-73.5583497"/>
      <trkpt lat="45.6456109" lon="-73.5561263"/>
      <trkpt lat="45.6439162" lon="-73.5543615"/>
      <trkpt lat="45.6436067" lon="-73.5540292"/>
      <trkpt lat="45.6439162" lon="-73.5543615"/>
      <trkpt lat="45.6456109" lon="-73.5561263"/>
      <trkpt lat="45.6477266" lon="-73.5583497"/>
      <trkpt lat="45.648158" lon="-73.5582615"/>
      <trkpt lat="45.6483749" lon="-73.5578372"/>
      <trkpt lat="45.6510661" lon="-73.5607"/>
      <trkpt lat="45.6514791" lon="-73.5598867"/>
      <trkpt lat="45.6519366" lon="-73.5589937"/>
      <trkpt lat="45.6523647" lon="-73.5581599"/>
      <trkpt lat="45.6535337" lon="-73.5558381"/>
      <trkpt lat="45.6540634" lon="-73.5544116"/>
      <trkpt lat="45.654408" lon="-73.5533954"/>
      <trkpt lat="45.6547295" lon="-73.5524579"/>
      <trkpt lat="45.6554072" lon="-73.5509033"/>
      <trkpt lat="45.6584611" lon="-73.5432986"/>
      <trkpt lat="45.6592327" lon="-73.5418747"/>
      <trkpt lat="45.6577648" lon="-73.5401786"/>
      <trkpt lat="45.6539572" lon="-73.5374045"/>
      <trkpt lat="45.6523755" lon="-73.5363328"/>
      <trkpt lat="45.6499574" lon="-73.5413441"/>
      <trkpt lat="45.6464945" lon="-73.5484808"/>
      <trkpt lat="45.6444619" lon="-73.5525018"/>
      <trkpt lat="45.6440444" lon="-73.5532533"/>
      <trkpt lat="45.643819" lon="-73.5536384"/>
      <trkpt lat="45.6436067" lon="-73.5540292"/>
      <trkpt lat="45.6426264" lon="-73.5555847"/>
      <trkpt lat="45.6421704" lon="-73.5562897"/>
      <trkpt lat="45.641782" lon="-73.55689"/>
      <trkpt lat="45.6413766" lon="-73.5574714"/>
      <trkpt lat="45.6397913" lon="-73.559963"/>
      <trkpt lat="45.6363378" lon="-73.5652179"/>
      <trkpt lat="45.6371141" lon="-73.5661059"/>
      <trkpt lat="45.6413778" lon="-73.5706657"/>
      <trkpt lat="45.6417864" lon="-73.5710868"/>
      <trkpt lat="45.6424497" lon="-73.5716725"/>
      <trkpt lat="45.6438878" lon="-73.5730623"/>
      <trkpt lat="45.6439841" lon="-73.5731497"/>
      <trkpt lat="45.6438957" lon="-73.5732561"/>
      <trkpt lat="45.6426625" lon="-73.5748755"/>
      <trkpt lat="45.6413563" lon="-73.5765901"/>
      <trkpt lat="45.6412741" lon="-73.5765025"/>
      <trkpt lat="45.6406587" lon="-73.575862"/>
      <trkpt lat="45.639257" lon="-73.5743712"/>
      <trkpt lat="45.6397276" lon="-73.5734521"/>
      <trkpt lat="45.6402722" lon="-73.5724045"/>
      <trkpt lat="45.6407199" lon="-73.571574"/>
      <trkpt lat="45.6411805" lon="-73.5706888"/>
      <trkpt lat="45.641136" lon="-73.5706399"/>
      <trkpt lat="45.6371603" lon="-73.5663743"/>
      <trkpt lat="45.636247" lon="-73.565362"/>
      <trkpt lat="45.6284209" lon="-73.5771459"/>
      <trkpt lat="45.6282774" lon="-73.5773812"/>
      <trkpt lat="45.6270392" lon="-73.579202"/>
      <trkpt lat="45.6254087" lon="-73.5815407"/>
      <trkpt lat="45.6262667" lon="-73.5827467"/>
      <trkpt lat="45.6264124" lon="-73.5830371"/>
      <trkpt lat="45.6291688" lon="-73.5867681"/>
      <trkpt lat="45.631474" lon="-73.5893893"/>
      <trkpt lat="45.6315664" lon="-73.589486"/>
      <trkpt lat="45.6331771" lon="-73.5911558"/>
      <trkpt lat="45.6330871" lon="-73.5913113"/>
      <trkpt lat="45.6326444" lon="-73.5921361"/>
      <trkpt lat="45.634268" lon="-73.5938859"/>
      <trkpt lat="45.6338655" lon="-73.594647"/>
      <trkpt lat="45.6335278" lon="-73.5952947"/>
      <trkpt lat="45.6332236" lon="-73.5962929"/>
      <trkpt lat="45.6329399" lon="-73.5972495"/>
      <trkpt lat="45.6325479" lon="-73.5980991"/>
      <trkpt lat="45.6321063" lon="-73.5989416"/>
      <trkpt lat="45.6316684" lon="-73.5997741"/>
      <trkpt lat="45.6297657" lon="-73.60323"/>
      <trkpt lat="45.6303486" lon="-73.6038398"/>
      <trkpt lat="45.6314481" lon="-73.6052876"/>
      <trkpt lat="45.6312922" lon="-73.6055349"/>
      <trkpt lat="45.6313624" lon="-73.607206"/>
      <trkpt lat="45.6309281" lon="-73.6077"/>
      <trkpt lat="45.6304892" lon="-73.6083503"/>
      <trkpt lat="45.6301618" lon="-73.6089719"/>
      <trkpt lat="45.6297553" lon="-73.6097541"/>
      <trkpt lat="45.6303968" lon="-73.6104345"/>
      <trkpt lat="45.6304925" lon="-73.6105405"/>
      <trkpt lat="45.6299862" lon="-73.6113365"/>
      <trkpt lat="45.6294844" lon="-73.6120632"/>
      <trkpt lat="45.6273809" lon="-73.6150407"/>
      <trkpt lat="45.6272863" lon="-73.6149442"/>
      <trkpt lat="45.6293653" lon="-73.6119377"/>
      <trkpt lat="45.6224987" lon="-73.6046345"/>
      <trkpt lat="45.622371" lon="-73.6044944"/>
      <trkpt lat="45.6227674" lon="-73.6037322"/>
      <trkpt lat="45.6229721" lon="-73.6033353"/>
      <trkpt lat="45.6236894" lon="-73.6021086"/>
      <trkpt lat="45.6240087" lon="-73.601493"/>
      <trkpt lat="45.62468" lon="-73.6002042"/>
      <trkpt lat="45.6253619" lon="-73.5988885"/>
      <trkpt lat="45.6261766" lon="-73.5973223"/>
      <trkpt lat="45.6271037" lon="-73.5955496"/>
      <trkpt lat="45.6278029" lon="-73.5942869"/>
      <trkpt lat="45.6285469" lon="-73.5932331"/>
      <trkpt lat="45.629347" lon="-73.5921829"/>
      <trkpt lat="45.6304573" lon="-73.590729"/>
      <trkpt lat="45.6307984" lon="-73.590276"/>
      <trkpt lat="45.6313788" lon="-73.5895073"/>
      <trkpt lat="45.631474" lon="-73.5893893"/>
      <trkpt lat="45.632717" lon="-73.5877735"/>
      <trkpt lat="45.6320984" lon="-73.5871234"/>
      <trkpt lat="45.6317936" lon="-73.5868041"/>
      <trkpt lat="45.6320984" lon="-73.5871234"/>
      <trkpt lat="45.6305126" lon="-73.5868337"/>
      <trkpt lat="45.6320984" lon="-73.5871234"/>
      <trkpt lat="45.6328332" lon="-73.5861451"/>
      <trkpt lat="45.633645" lon="-73.5850997"/>
      <trkpt lat="45.6341022" lon="-73.5844664"/>
      <trkpt lat="45.633645" lon="-73.5850997"/>
      <trkpt lat="45.6330615" lon="-73.5844833"/>
      <trkpt lat="45.633645" lon="-73.5850997"/>
      <trkpt lat="45.6328332" lon="-73.5861451"/>
      <trkpt lat="45.6330615" lon="-73.5844833"/>
      <trkpt lat="45.6328332" lon="-73.5861451"/>
      <trkpt lat="45.633645" lon="-73.5850997"/>
      <trkpt lat="45.6342386" lon="-73.585733"/>
      <trkpt lat="45.6363417" lon="-73.5829827"/>
      <trkpt lat="45.6385084" lon="-73.5801412"/>
      <trkpt lat="45.6412741" lon="-73.5765025"/>
      <trkpt lat="45.6425805" lon="-73.5747875"/>
      <trkpt lat="45.6438006" lon="-73.5731721"/>
      <trkpt lat="45.6438878" lon="-73.5730623"/>
      <trkpt lat="45.6462369" lon="-73.5699593"/>
      <trkpt lat="45.646728" lon="-73.5691834"/>
      <trkpt lat="45.6474242" lon="-73.5678563"/>
      <trkpt lat="45.6477736" lon="-73.5671736"/>
      <trkpt lat="45.6487734" lon="-73.5652301"/>
      <trkpt lat="45.6491032" lon="-73.5645825"/>
      <trkpt lat="45.6494476" lon="-73.5639211"/>
      <trkpt lat="45.649832" lon="-73.5631528"/>
      <trkpt lat="45.6507055" lon="-73.561447"/>
      <trkpt lat="45.6510661" lon="-73.5607"/>
      <trkpt lat="45.6514791" lon="-73.5598867"/>
      <trkpt lat="45.6519366" lon="-73.5589937"/>
      <trkpt lat="45.6523647" lon="-73.5581599"/>
      <trkpt lat="45.6535337" lon="-73.5558381"/>
      <trkpt lat="45.6540634" lon="-73.5544116"/>
      <trkpt lat="45.6541831" lon="-73.5544902"/>
      <trkpt lat="45.6544141" lon="-73.5546541"/>
      <trkpt lat="45.6572603" lon="-73.5566178"/>
      <trkpt lat="45.659863" lon="-73.5584191"/>
      <trkpt lat="45.6610964" lon="-73.5592899"/>
      <trkpt lat="45.6616048" lon="-73.5583689"/>
      <trkpt lat="45.6633196" lon="-73.5559715"/>
      <trkpt lat="45.663444" lon="-73.5560594"/>
      <trkpt lat="45.6617323" lon="-73.5584495"/>
      <trkpt lat="45.6612124" lon="-73.5593753"/>
      <trkpt lat="45.6590006" lon="-73.5636661"/>
      <trkpt lat="45.6586877" lon="-73.5642821"/>
      <trkpt lat="45.6583964" lon="-73.5648578"/>
      <trkpt lat="45.6580816" lon="-73.5654609"/>
      <trkpt lat="45.6576135" lon="-73.5663736"/>
      <trkpt lat="45.657229" lon="-73.567117"/>
      <trkpt lat="45.6568419" lon="-73.5678721"/>
      <trkpt lat="45.6565236" lon="-73.5684825"/>
      <trkpt lat="45.6559674" lon="-73.5695688"/>
      <trkpt lat="45.6555667" lon="-73.5703513"/>
      <trkpt lat="45.6552278" lon="-73.57101"/>
      <trkpt lat="45.6548876" lon="-73.5716687"/>
      <trkpt lat="45.6531032" lon="-73.5747394"/>
      <trkpt lat="45.6525222" lon="-73.5754275"/>
      <trkpt lat="45.6520445" lon="-73.5759832"/>
      <trkpt lat="45.6516672" lon="-73.5764266"/>
      <trkpt lat="45.6509057" lon="-73.577307"/>
      <trkpt lat="45.6502031" lon="-73.5781375"/>
      <trkpt lat="45.6494515" lon="-73.5790065"/>
      <trkpt lat="45.6493611" lon="-73.5791088"/>
      <trkpt lat="45.6485642" lon="-73.5800783"/>
      <trkpt lat="45.6480652" lon="-73.5806491"/>
      <trkpt lat="45.6467012" lon="-73.5822462"/>
      <trkpt lat="45.6461485" lon="-73.5828922"/>
      <trkpt lat="45.6441573" lon="-73.5860702"/>
      <trkpt lat="45.6424988" lon="-73.5893226"/>
      <trkpt lat="45.64204" lon="-73.5901968"/>
      <trkpt lat="45.6415761" lon="-73.5911134"/>
      <trkpt lat="45.6411224" lon="-73.5919816"/>
      <trkpt lat="45.6407807" lon="-73.5926381"/>
      <trkpt lat="45.6404223" lon="-73.5933392"/>
      <trkpt lat="45.6400921" lon="-73.5939595"/>
      <trkpt lat="45.6397019" lon="-73.5947409"/>
      <trkpt lat="45.6385595" lon="-73.5969406"/>
      <trkpt lat="45.6384761" lon="-73.5970947"/>
      <trkpt lat="45.6376478" lon="-73.5987149"/>
      <trkpt lat="45.636462" lon="-73.6010178"/>
      <trkpt lat="45.6360597" lon="-73.6018324"/>
      <trkpt lat="45.6356252" lon="-73.6026733"/>
      <trkpt lat="45.6351206" lon="-73.6036521"/>
      <trkpt lat="45.6338788" lon="-73.6056717"/>
      <trkpt lat="45.6337901" lon="-73.6055164"/>
      <trkpt lat="45.6350079" lon="-73.603538"/>
      <trkpt lat="45.6355117" lon="-73.6025576"/>
      <trkpt lat="45.6359419" lon="-73.601703"/>
      <trkpt lat="45.6363615" lon="-73.6008941"/>
      <trkpt lat="45.6375488" lon="-73.5985888"/>
      <trkpt lat="45.6383798" lon="-73.5969832"/>
      <trkpt lat="45.6384632" lon="-73.5968322"/>
      <trkpt lat="45.6399934" lon="-73.5938553"/>
      <trkpt lat="45.6403147" lon="-73.5932233"/>
      <trkpt lat="45.6406741" lon="-73.5925262"/>
      <trkpt lat="45.6410191" lon="-73.591874"/>
      <trkpt lat="45.6423868" lon="-73.5892068"/>
      <trkpt lat="45.644059" lon="-73.5859622"/>
      <trkpt lat="45.6460393" lon="-73.5827782"/>
      <trkpt lat="45.6461485" lon="-73.5828922"/>
      <trkpt lat="45.6441573" lon="-73.5860702"/>
      <trkpt lat="45.6424988" lon="-73.5893226"/>
      <trkpt lat="45.64204" lon="-73.5901968"/>
      <trkpt lat="45.6415761" lon="-73.5911134"/>
      <trkpt lat="45.6411224" lon="-73.5919816"/>
      <trkpt lat="45.6407807" lon="-73.5926381"/>
      <trkpt lat="45.6404223" lon="-73.5933392"/>
      <trkpt lat="45.6400921" lon="-73.5939595"/>
      <trkpt lat="45.6397019" lon="-73.5947409"/>
      <trkpt lat="45.6385595" lon="-73.5969406"/>
      <trkpt lat="45.6384761" lon="-73.5970947"/>
      <trkpt lat="45.6376478" lon="-73.5987149"/>
      <trkpt lat="45.636462" lon="-73.6010178"/>
      <trkpt lat="45.6360597" lon="-73.6018324"/>
      <trkpt lat="45.6356252" lon="-73.6026733"/>
      <trkpt lat="45.6351206" lon="-73.6036521"/>
      <trkpt lat="45.6338788" lon="-73.6056717"/>
      <trkpt lat="45.6337901" lon="-73.6055164"/>
      <trkpt lat="45.6350079" lon="-73.603538"/>
      <trkpt lat="45.6355117" lon="-73.6025576"/>
      <trkpt lat="45.6359419" lon="-73.601703"/>
      <trkpt lat="45.6363615" lon="-73.6008941"/>
      <trkpt lat="45.6375488" lon="-73.5985888"/>
      <trkpt lat="45.6383798" lon="-73.5969832"/>
      <trkpt lat="45.6384632" lon="-73.5968322"/>
      <trkpt lat="45.6399934" lon="-73.5938553"/>
      <trkpt lat="45.6403147" lon="-73.5932233"/>
      <trkpt lat="45.6406741" lon="-73.5925262"/>
      <trkpt lat="45.6410191" lon="-73.591874"/>
      <trkpt lat="45.6403834" lon="-73.5911913"/>
      <trkpt lat="45.6408224" lon="-73.5903037"/>
      <trkpt lat="45.6412908" lon="-73.589409"/>
      <trkpt lat="45.6417332" lon="-73.5885219"/>
      <trkpt lat="45.6421471" lon="-73.5877145"/>
      <trkpt lat="45.6425785" lon="-73.5868857"/>
      <trkpt lat="45.6429862" lon="-73.5860881"/>
      <trkpt lat="45.6434038" lon="-73.5852795"/>
      <trkpt lat="45.6438901" lon="-73.5843392"/>
      <trkpt lat="45.6433306" lon="-73.5837322"/>
      <trkpt lat="45.6437984" lon="-73.5827979"/>
      <trkpt lat="45.6442243" lon="-73.58199"/>
      <trkpt lat="45.6434202" lon="-73.5811563"/>
      <trkpt lat="45.6423017" lon="-73.5799552"/>
      <trkpt lat="45.6426733" lon="-73.5792356"/>
      <trkpt lat="45.6430953" lon="-73.5784448"/>
      <trkpt lat="45.6419586" lon="-73.5772319"/>
      <trkpt lat="45.6413563" lon="-73.5765901"/>
      <trkpt lat="45.6385947" lon="-73.5802261"/>
      <trkpt lat="45.6364276" lon="-73.5830685"/>
      <trkpt lat="45.6353177" lon="-73.5845364"/>
      <trkpt lat="45.6343394" lon="-73.5858406"/>
      <trkpt lat="45.6342386" lon="-73.585733"/>
      <trkpt lat="45.6343394" lon="-73.5858406"/>
      <trkpt lat="45.6349428" lon="-73.5864707"/>
      <trkpt lat="45.6344893" lon="-73.5870577"/>
      <trkpt lat="45.6351988" lon="-73.5886936"/>
      <trkpt lat="45.6344893" lon="-73.5870577"/>
      <trkpt lat="45.6349428" lon="-73.5864707"/>
      <trkpt lat="45.6343394" lon="-73.5858406"/>
      <trkpt lat="45.6328086" lon="-73.5878658"/>
      <trkpt lat="45.6333946" lon="-73.5884985"/>
      <trkpt lat="45.6328086" lon="-73.5878658"/>
      <trkpt lat="45.6315664" lon="-73.589486"/>
      <trkpt lat="45.6331771" lon="-73.5911558"/>
      <trkpt lat="45.6330871" lon="-73.5913113"/>
      <trkpt lat="45.6326444" lon="-73.5921361"/>
      <trkpt lat="45.634268" lon="-73.5938859"/>
      <trkpt lat="45.6338655" lon="-73.594647"/>
      <trkpt lat="45.6335278" lon="-73.5952947"/>
      <trkpt lat="45.6332236" lon="-73.5962929"/>
      <trkpt lat="45.6329399" lon="-73.5972495"/>
      <trkpt lat="45.6325479" lon="-73.5980991"/>
      <trkpt lat="45.6321063" lon="-73.5989416"/>
      <trkpt lat="45.6316684" lon="-73.5997741"/>
      <trkpt lat="45.6297657" lon="-73.60323"/>
      <trkpt lat="45.6303486" lon="-73.6038398"/>
      <trkpt lat="45.6314481" lon="-73.6052876"/>
      <trkpt lat="45.6312922" lon="-73.6055349"/>
      <trkpt lat="45.6313624" lon="-73.607206"/>
      <trkpt lat="45.6309281" lon="-73.6077"/>
      <trkpt lat="45.6304892" lon="-73.6083503"/>
      <trkpt lat="45.6301618" lon="-73.6089719"/>
      <trkpt lat="45.6297553" lon="-73.6097541"/>
      <trkpt lat="45.6303968" lon="-73.6104345"/>
      <trkpt lat="45.6304925" lon="-73.6105405"/>
      <trkpt lat="45.6299862" lon="-73.6113365"/>
      <trkpt lat="45.6294844" lon="-73.6120632"/>
      <trkpt lat="45.6293653" lon="-73.6119377"/>
      <trkpt lat="45.6224987" lon="-73.6046345"/>
      <trkpt lat="45.622371" lon="-73.6044944"/>
      <trkpt lat="45.6227674" lon="-73.6037322"/>
      <trkpt lat="45.6229721" lon="-73.6033353"/>
      <trkpt lat="45.6236894" lon="-73.6021086"/>
      <trkpt lat="45.6240087" lon="-73.601493"/>
      <trkpt lat="45.62468" lon="-73.6002042"/>
      <trkpt lat="45.6253619" lon="-73.5988885"/>
      <trkpt lat="45.6261766" lon="-73.5973223"/>
      <trkpt lat="45.6271037" lon="-73.5955496"/>
      <trkpt lat="45.6278029" lon="-73.5942869"/>
      <trkpt lat="45.6285469" lon="-73.5932331"/>
      <trkpt lat="45.629347" lon="-73.5921829"/>
      <trkpt lat="45.6304573" lon="-73.590729"/>
      <trkpt lat="45.6307984" lon="-73.590276"/>
      <trkpt lat="45.6313788" lon="-73.5895073"/>
      <trkpt lat="45.631474" lon="-73.5893893"/>
      <trkpt lat="45.632717" lon="-73.5877735"/>
      <trkpt lat="45.6342386" lon="-73.585733"/>
      <trkpt lat="45.6363417" lon="-73.5829827"/>
      <trkpt lat="45.6385084" lon="-73.5801412"/>
      <trkpt lat="45.6412741" lon="-73.5765025"/>
      <trkpt lat="45.6406587" lon="-73.575862"/>
      <trkpt lat="45.639257" lon="-73.5743712"/>
      <trkpt lat="45.6397276" lon="-73.5734521"/>
      <trkpt lat="45.6402722" lon="-73.5724045"/>
      <trkpt lat="45.6407199" lon="-73.571574"/>
      <trkpt lat="45.6411805" lon="-73.5706888"/>
      <trkpt lat="45.641136" lon="-73.5706399"/>
      <trkpt lat="45.6371603" lon="-73.5663743"/>
      <trkpt lat="45.636247" lon="-73.565362"/>
      <trkpt lat="45.6284209" lon="-73.5771459"/>
      <trkpt lat="45.6282774" lon="-73.5773812"/>
      <trkpt lat="45.6270392" lon="-73.579202"/>
      <trkpt lat="45.6254087" lon="-73.5815407"/>
      <trkpt lat="45.6253271" lon="-73.5816786"/>
      <trkpt lat="45.6235836" lon="-73.5842192"/>
      <trkpt lat="45.62188" lon="-73.5867295"/>
      <trkpt lat="45.6207701" lon="-73.5883526"/>
      <trkpt lat="45.6194942" lon="-73.5902168"/>
      <trkpt lat="45.6181588" lon="-73.5921843"/>
      <trkpt lat="45.6169319" lon="-73.5939824"/>
      <trkpt lat="45.6166351" lon="-73.5944088"/>
      <trkpt lat="45.6170941" lon="-73.5975924"/>
      <trkpt lat="45.6184988" lon="-73.5993999"/>
      <trkpt lat="45.6198963" lon="-73.6008283"/>
      <trkpt lat="45.6223639" lon="-73.6033218"/>
      <trkpt lat="45.6227674" lon="-73.6037322"/>
      <trkpt lat="45.6228957" lon="-73.6038705"/>
      <trkpt lat="45.629872" lon="-73.6112268"/>
      <trkpt lat="45.6299862" lon="-73.6113365"/>
      <trkpt lat="45.6294844" lon="-73.6120632"/>
      <trkpt lat="45.6293653" lon="-73.6119377"/>
      <trkpt lat="45.629872" lon="-73.6112268"/>
      <trkpt lat="45.6303968" lon="-73.6104345"/>
      <trkpt lat="45.6308549" lon="-73.6097112"/>
      <trkpt lat="45.63125" lon="-73.6091531"/>
      <trkpt lat="45.6317115" lon="-73.6085188"/>
      <trkpt lat="45.6327376" lon="-73.6070436"/>
      <trkpt lat="45.6337901" lon="-73.6055164"/>
      <trkpt lat="45.6350079" lon="-73.603538"/>
      <trkpt lat="45.6355117" lon="-73.6025576"/>
      <trkpt lat="45.6359419" lon="-73.601703"/>
      <trkpt lat="45.6363615" lon="-73.6008941"/>
      <trkpt lat="45.6375488" lon="-73.5985888"/>
      <trkpt lat="45.6383798" lon="-73.5969832"/>
      <trkpt lat="45.6384632" lon="-73.5968322"/>
      <trkpt lat="45.6399934" lon="-73.5938553"/>
      <trkpt lat="45.6403147" lon="-73.5932233"/>
      <trkpt lat="45.6406741" lon="-73.5925262"/>
      <trkpt lat="45.6410191" lon="-73.591874"/>
      <trkpt lat="45.6423868" lon="-73.5892068"/>
      <trkpt lat="45.644059" lon="-73.5859622"/>
    </trkseg>
  </trk>
</gpx>
