<?xml version="1.0" ?>
<gpx xmlns="http://www.topografix.com/GPX/1/1" version="1.1" creator="ERO1">
  <trk>
    <name>outremont — economique — zone 0</name>
    <trkseg>
      <trkpt lat="45.5146708" lon="-73.6089907"/>
      <trkpt lat="45.5148055" lon="-73.6084948"/>
      <trkpt lat="45.5152892" lon="-73.6063294"/>
      <trkpt lat="45.5148055" lon="-73.6084948"/>
      <trkpt lat="45.5146708" lon="-73.6089907"/>
      <trkpt lat="45.5162515" lon="-73.6121529"/>
      <trkpt lat="45.5170725" lon="-73.613968"/>
      <trkpt lat="45.5183439" lon="-73.6168034"/>
      <trkpt lat="45.5190181" lon="-73.616205"/>
      <trkpt lat="45.5183439" lon="-73.6168034"/>
      <trkpt lat="45.5191664" lon="-73.6186355"/>
      <trkpt lat="45.5199414" lon="-73.6203285"/>
      <trkpt lat="45.5198148" lon="-73.6206074"/>
      <trkpt lat="45.5192935" lon="-73.6209981"/>
      <trkpt lat="45.5185047" lon="-73.6192337"/>
      <trkpt lat="45.5176783" lon="-73.6174017"/>
      <trkpt lat="45.5170145" lon="-73.617995"/>
      <trkpt lat="45.5176783" lon="-73.6174017"/>
      <trkpt lat="45.5183439" lon="-73.6168034"/>
      <trkpt lat="45.5190181" lon="-73.616205"/>
      <trkpt lat="45.519684" lon="-73.6156104"/>
      <trkpt lat="45.5190181" lon="-73.616205"/>
      <trkpt lat="45.519684" lon="-73.6156104"/>
      <trkpt lat="45.520371" lon="-73.6149963"/>
      <trkpt lat="45.519684" lon="-73.6156104"/>
      <trkpt lat="45.520371" lon="-73.6149963"/>
      <trkpt lat="45.5213102" lon="-73.6141634"/>
      <trkpt lat="45.5219691" lon="-73.613579"/>
      <trkpt lat="45.5226189" lon="-73.6129941"/>
      <trkpt lat="45.5219691" lon="-73.613579"/>
      <trkpt lat="45.5213102" lon="-73.6141634"/>
      <trkpt lat="45.520371" lon="-73.6149963"/>
      <trkpt lat="45.5213102" lon="-73.6141634"/>
      <trkpt lat="45.5219691" lon="-73.613579"/>
      <trkpt lat="45.5226189" lon="-73.6129941"/>
      <trkpt lat="45.5232536" lon="-73.6124254"/>
      <trkpt lat="45.5237835" lon="-73.6119538"/>
      <trkpt lat="45.5243631" lon="-73.6114318"/>
      <trkpt lat="45.525022" lon="-73.6108413"/>
      <trkpt lat="45.5243631" lon="-73.6114318"/>
      <trkpt lat="45.5237835" lon="-73.6119538"/>
      <trkpt lat="45.5232536" lon="-73.6124254"/>
      <trkpt lat="45.5240671" lon="-73.6142835"/>
      <trkpt lat="45.52344" lon="-73.6148427"/>
      <trkpt lat="45.522795" lon="-73.6154163"/>
      <trkpt lat="45.5232554" lon="-73.6164309"/>
      <trkpt lat="45.5237839" lon="-73.6176328"/>
      <trkpt lat="45.5231294" lon="-73.6182257"/>
      <trkpt lat="45.5201783" lon="-73.6208883"/>
      <trkpt lat="45.5200778" lon="-73.6206345"/>
      <trkpt lat="45.5201783" lon="-73.6208883"/>
      <trkpt lat="45.520411" lon="-73.6214133"/>
      <trkpt lat="45.5191312" lon="-73.6229407"/>
      <trkpt lat="45.5189458" lon="-73.6222801"/>
      <trkpt lat="45.5186232" lon="-73.6216251"/>
      <trkpt lat="45.5185851" lon="-73.6215153"/>
      <trkpt lat="45.5178321" lon="-73.6198309"/>
      <trkpt lat="45.5171594" lon="-73.620438"/>
      <trkpt lat="45.516518" lon="-73.6210048"/>
      <trkpt lat="45.515696" lon="-73.6191698"/>
      <trkpt lat="45.5163438" lon="-73.6185917"/>
      <trkpt lat="45.5150753" lon="-73.6157759"/>
      <trkpt lat="45.5157404" lon="-73.6151581"/>
      <trkpt lat="45.5149245" lon="-73.6133375"/>
      <trkpt lat="45.5139592" lon="-73.6114035"/>
      <trkpt lat="45.5142015" lon="-73.6107074"/>
      <trkpt lat="45.5145825" lon="-73.6093183"/>
      <trkpt lat="45.5146708" lon="-73.6089907"/>
      <trkpt lat="45.5162515" lon="-73.6121529"/>
      <trkpt lat="45.5170725" lon="-73.613968"/>
      <trkpt lat="45.5183439" lon="-73.6168034"/>
      <trkpt lat="45.5191664" lon="-73.6186355"/>
      <trkpt lat="45.5199414" lon="-73.6203285"/>
      <trkpt lat="45.5200778" lon="-73.6206345"/>
      <trkpt lat="45.5201783" lon="-73.6208883"/>
      <trkpt lat="45.520411" lon="-73.6214133"/>
      <trkpt lat="45.5191312" lon="-73.6229407"/>
      <trkpt lat="45.520411" lon="-73.6214133"/>
      <trkpt lat="45.5191312" lon="-73.6229407"/>
      <trkpt lat="45.5189458" lon="-73.6222801"/>
      <trkpt lat="45.5191312" lon="-73.6229407"/>
      <trkpt lat="45.5189458" lon="-73.6222801"/>
      <trkpt lat="45.5186232" lon="-73.6216251"/>
      <trkpt lat="45.5185851" lon="-73.6215153"/>
      <trkpt lat="45.5178321" lon="-73.6198309"/>
      <trkpt lat="45.5171594" lon="-73.620438"/>
      <trkpt lat="45.516518" lon="-73.6210048"/>
      <trkpt lat="45.515696" lon="-73.6191698"/>
      <trkpt lat="45.5149885" lon="-73.6198045"/>
      <trkpt lat="45.5142831" lon="-73.6204361"/>
      <trkpt lat="45.5149885" lon="-73.6198045"/>
      <trkpt lat="45.515696" lon="-73.6191698"/>
      <trkpt lat="45.5163438" lon="-73.6185917"/>
      <trkpt lat="45.515696" lon="-73.6191698"/>
      <trkpt lat="45.5163438" lon="-73.6185917"/>
      <trkpt lat="45.5150753" lon="-73.6157759"/>
      <trkpt lat="45.5157404" lon="-73.6151581"/>
      <trkpt lat="45.5149245" lon="-73.6133375"/>
      <trkpt lat="45.5139592" lon="-73.6114035"/>
      <trkpt lat="45.5142015" lon="-73.6107074"/>
      <trkpt lat="45.5145825" lon="-73.6093183"/>
      <trkpt lat="45.5146708" lon="-73.6089907"/>
      <trkpt lat="45.5162515" lon="-73.6121529"/>
      <trkpt lat="45.5170725" lon="-73.613968"/>
      <trkpt lat="45.5183439" lon="-73.6168034"/>
      <trkpt lat="45.5191664" lon="-73.6186355"/>
      <trkpt lat="45.5185047" lon="-73.6192337"/>
      <trkpt lat="45.5176783" lon="-73.6174017"/>
      <trkpt lat="45.5170145" lon="-73.617995"/>
      <trkpt lat="45.5163438" lon="-73.6185917"/>
      <trkpt lat="45.5150753" lon="-73.6157759"/>
      <trkpt lat="45.5157404" lon="-73.6151581"/>
      <trkpt lat="45.5149245" lon="-73.6133375"/>
      <trkpt lat="45.5139592" lon="-73.6114035"/>
      <trkpt lat="45.5135449" lon="-73.6121351"/>
      <trkpt lat="45.5139592" lon="-73.6114035"/>
      <trkpt lat="45.5142015" lon="-73.6107074"/>
      <trkpt lat="45.5145825" lon="-73.6093183"/>
      <trkpt lat="45.5146708" lon="-73.6089907"/>
      <trkpt lat="45.5148055" lon="-73.6084948"/>
      <trkpt lat="45.5152892" lon="-73.6063294"/>
      <trkpt lat="45.5155011" lon="-73.6052538"/>
      <trkpt lat="45.5152892" lon="-73.6063294"/>
      <trkpt lat="45.5155011" lon="-73.6052538"/>
      <trkpt lat="45.5158251" lon="-73.602091"/>
      <trkpt lat="45.5158853" lon="-73.6011137"/>
      <trkpt lat="45.5159063" lon="-73.6006812"/>
      <trkpt lat="45.5158853" lon="-73.6011137"/>
      <trkpt lat="45.5158251" lon="-73.602091"/>
      <trkpt lat="45.5155011" lon="-73.6052538"/>
      <trkpt lat="45.5158251" lon="-73.602091"/>
      <trkpt lat="45.5158853" lon="-73.6011137"/>
      <trkpt lat="45.5159063" lon="-73.6006812"/>
      <trkpt lat="45.5160659" lon="-73.5987386"/>
      <trkpt lat="45.5159063" lon="-73.6006812"/>
      <trkpt lat="45.5160659" lon="-73.5987386"/>
      <trkpt lat="45.5161351" lon="-73.5968218"/>
      <trkpt lat="45.5158884" lon="-73.5944049"/>
      <trkpt lat="45.5158219" lon="-73.5939384"/>
      <trkpt lat="45.5158884" lon="-73.5944049"/>
      <trkpt lat="45.5161351" lon="-73.5968218"/>
      <trkpt lat="45.5163084" lon="-73.5967568"/>
      <trkpt lat="45.5168319" lon="-73.5963052"/>
      <trkpt lat="45.5163084" lon="-73.5967568"/>
      <trkpt lat="45.5168319" lon="-73.5963052"/>
      <trkpt lat="45.5170957" lon="-73.5960742"/>
      <trkpt lat="45.5177078" lon="-73.5955344"/>
      <trkpt lat="45.5180138" lon="-73.5952668"/>
      <trkpt lat="45.5177078" lon="-73.5955344"/>
      <trkpt lat="45.5180138" lon="-73.5952668"/>
      <trkpt lat="45.5182946" lon="-73.5959257"/>
      <trkpt lat="45.5186331" lon="-73.5966936"/>
      <trkpt lat="45.5187197" lon="-73.5966188"/>
      <trkpt lat="45.5186331" lon="-73.5966936"/>
      <trkpt lat="45.5180617" lon="-73.5971871"/>
      <trkpt lat="45.5174549" lon="-73.5977167"/>
      <trkpt lat="45.5169131" lon="-73.5981773"/>
      <trkpt lat="45.5163648" lon="-73.5986381"/>
      <trkpt lat="45.5169131" lon="-73.5981773"/>
      <trkpt lat="45.5163648" lon="-73.5986381"/>
      <trkpt lat="45.5160659" lon="-73.5987386"/>
      <trkpt lat="45.5163648" lon="-73.5986381"/>
      <trkpt lat="45.5160659" lon="-73.5987386"/>
      <trkpt lat="45.5161351" lon="-73.5968218"/>
      <trkpt lat="45.5160659" lon="-73.5987386"/>
      <trkpt lat="45.5161351" lon="-73.5968218"/>
      <trkpt lat="45.5163084" lon="-73.5967568"/>
      <trkpt lat="45.5161351" lon="-73.5968218"/>
      <trkpt lat="45.5158884" lon="-73.5944049"/>
      <trkpt lat="45.5158219" lon="-73.5939384"/>
      <trkpt lat="45.5157397" lon="-73.5931958"/>
      <trkpt lat="45.5160787" lon="-73.5918987"/>
      <trkpt lat="45.5157881" lon="-73.5902655"/>
      <trkpt lat="45.5160787" lon="-73.5918987"/>
      <trkpt lat="45.5157881" lon="-73.5902655"/>
      <trkpt lat="45.5154069" lon="-73.5907566"/>
      <trkpt lat="45.5148172" lon="-73.5912848"/>
      <trkpt lat="45.5145981" lon="-73.5923946"/>
      <trkpt lat="45.514697" lon="-73.5950458"/>
      <trkpt lat="45.5136001" lon="-73.5986134"/>
      <trkpt lat="45.5140981" lon="-73.5997141"/>
      <trkpt lat="45.5144271" lon="-73.6005349"/>
      <trkpt lat="45.513641" lon="-73.6023407"/>
      <trkpt lat="45.5135299" lon="-73.602749"/>
      <trkpt lat="45.5133897" lon="-73.6044619"/>
      <trkpt lat="45.5127859" lon="-73.6058914"/>
      <trkpt lat="45.5119973" lon="-73.6066111"/>
      <trkpt lat="45.511528" lon="-73.6078628"/>
      <trkpt lat="45.5111271" lon="-73.6091075"/>
      <trkpt lat="45.5099713" lon="-73.6117161"/>
      <trkpt lat="45.5101943" lon="-73.6122236"/>
      <trkpt lat="45.5105597" lon="-73.6130166"/>
      <trkpt lat="45.5101943" lon="-73.6122236"/>
      <trkpt lat="45.5105597" lon="-73.6130166"/>
      <trkpt lat="45.5106675" lon="-73.6132355"/>
      <trkpt lat="45.5108032" lon="-73.6134882"/>
      <trkpt lat="45.5109291" lon="-73.6138181"/>
      <trkpt lat="45.5107668" lon="-73.6135199"/>
      <trkpt lat="45.5106675" lon="-73.6132355"/>
      <trkpt lat="45.5108032" lon="-73.6134882"/>
      <trkpt lat="45.5109291" lon="-73.6138181"/>
      <trkpt lat="45.5117204" lon="-73.6155322"/>
      <trkpt lat="45.5124292" lon="-73.6141684"/>
      <trkpt lat="45.5129989" lon="-73.6131074"/>
      <trkpt lat="45.5133226" lon="-73.6125329"/>
      <trkpt lat="45.5129989" lon="-73.6131074"/>
      <trkpt lat="45.5124292" lon="-73.6141684"/>
      <trkpt lat="45.5117204" lon="-73.6155322"/>
      <trkpt lat="45.511346" lon="-73.6159805"/>
      <trkpt lat="45.5110056" lon="-73.6162905"/>
      <trkpt lat="45.5104142" lon="-73.6168235"/>
      <trkpt lat="45.5110056" lon="-73.6162905"/>
      <trkpt lat="45.511346" lon="-73.6159805"/>
      <trkpt lat="45.5117204" lon="-73.6155322"/>
      <trkpt lat="45.5124292" lon="-73.6141684"/>
      <trkpt lat="45.5129989" lon="-73.6131074"/>
      <trkpt lat="45.5133226" lon="-73.6125329"/>
      <trkpt lat="45.5135449" lon="-73.6121351"/>
      <trkpt lat="45.5139592" lon="-73.6114035"/>
      <trkpt lat="45.5142015" lon="-73.6107074"/>
      <trkpt lat="45.5145825" lon="-73.6093183"/>
      <trkpt lat="45.5146708" lon="-73.6089907"/>
      <trkpt lat="45.5162515" lon="-73.6121529"/>
      <trkpt lat="45.5170725" lon="-73.613968"/>
      <trkpt lat="45.5183439" lon="-73.6168034"/>
      <trkpt lat="45.5191664" lon="-73.6186355"/>
      <trkpt lat="45.5185047" lon="-73.6192337"/>
      <trkpt lat="45.5176783" lon="-73.6174017"/>
      <trkpt lat="45.5164072" lon="-73.6145623"/>
      <trkpt lat="45.5155872" lon="-73.6127444"/>
      <trkpt lat="45.5142015" lon="-73.6107074"/>
      <trkpt lat="45.5145825" lon="-73.6093183"/>
      <trkpt lat="45.5142015" lon="-73.6107074"/>
      <trkpt lat="45.5145825" lon="-73.6093183"/>
      <trkpt lat="45.5146708" lon="-73.6089907"/>
      <trkpt lat="45.5145825" lon="-73.6093183"/>
      <trkpt lat="45.5146708" lon="-73.6089907"/>
    </trkseg>
  </trk>
</gpx>
