{
"type": "FeatureCollection",
"name": "infrastructures_secours",
"crs": { "type": "name", "properties": { "name": "urn:ogc:def:crs:OGC:1.3:CRS84" } },
"features": [
{ "type": "Feature", "properties": { "name": "Pharmaprix", "type": "infrastructure_secours", "marker-symbol": "marker", "marker-color": "#7f8c8d", "marker-size": "medium", "stroke": "#7f8c8d", "stroke-width": 2, "quartier": "outremont" }, "geometry": { "type": "Point", "coordinates": [ -73.6162732, 45.5192217 ] } },
{ "type": "Feature", "properties": { "name": "Poste de quartier 24", "type": "police", "marker-symbol": "police", "marker-color": "#2980b9", "marker-size": "medium", "stroke": "#2980b9", "stroke-width": 2, "quartier": "outremont" }, "geometry": { "type": "Point", "coordinates": [ -73.6155576, 45.5200543 ] } },
{ "type": "Feature", "properties": { "name": "CLSC Côte-des-Neiges", "type": "clinic", "marker-symbol": "hospital", "marker-color": "#e74c3c", "marker-size": "medium", "stroke": "#e74c3c", "stroke-width": 2, "quartier": "outremont" }, "geometry": { "type": "Point", "coordinates": [ -73.6139336, 45.5219065 ] } },
{ "type": "Feature", "properties": { "name": "Résidence L'image d'Outremont", "type": "senior_home", "marker-symbol": "home", "marker-color": "#a0522d", "marker-size": "medium", "stroke": "#a0522d", "stroke-width": 2, "quartier": "outremont" }, "geometry": { "type": "Point", "coordinates": [ -73.6222374, 45.5186256 ] } },
{ "type": "Feature", "properties": { "name": "Résidence Outremont", "type": "senior_home", "marker-symbol": "home", "marker-color": "#a0522d", "marker-size": "medium", "stroke": "#a0522d", "stroke-width": 2, "quartier": "outremont" }, "geometry": { "type": "Point", "coordinates": [ -73.6090261, 45.5192252 ] } },
{ "type": "Feature", "properties": { "name": "Familiprix", "type": "infrastructure_secours", "marker-symbol": "marker", "marker-color": "#7f8c8d", "marker-size": "medium", "stroke": "#7f8c8d", "stroke-width": 2, "quartier": "outremont" }, "geometry": { "type": "Point", "coordinates": [ -73.6147586, 45.5111828 ] } },
{ "type": "Feature", "properties": { "name": "medix", "type": "clinic", "marker-symbol": "hospital", "marker-color": "#e74c3c", "marker-size": "medium", "stroke": "#e74c3c", "stroke-width": 2, "quartier": "outremont" }, "geometry": { "type": "Point", "coordinates": [ -73.6088642, 45.5204964 ] } },
{ "type": "Feature", "properties": { "name": "École du SAS, édifice Outremont", "type": "school", "marker-symbol": "school", "marker-color": "#3498db", "marker-size": "medium", "stroke": "#3498db", "stroke-width": 2, "quartier": "outremont" }, "geometry": { "type": "Point", "coordinates": [ -73.6103217, 45.5169327 ] } },
{ "type": "Feature", "properties": { "name": "Jean Coutu", "type": "pmr_facility", "marker-symbol": "wheelchair", "marker-color": "#9b59b6", "marker-size": "medium", "stroke": "#9b59b6", "stroke-width": 2, "quartier": "verdun" }, "geometry": { "type": "Point", "coordinates": [ -73.5671292, 45.4630639 ] } },
{ "type": "Feature", "properties": { "name": "Pharmaprix", "type": "pmr_facility", "marker-symbol": "wheelchair", "marker-color": "#9b59b6", "marker-size": "medium", "stroke": "#9b59b6", "stroke-width": 2, "quartier": "verdun" }, "geometry": { "type": "Point", "coordinates": [ -73.5670154, 45.4612269 ] } },
{ "type": "Feature", "properties": { "name": "Familiprix", "type": "infrastructure_secours", "marker-symbol": "marker", "marker-color": "#7f8c8d", "marker-size": "medium", "stroke": "#7f8c8d", "stroke-width": 2, "quartier": "verdun" }, "geometry": { "type": "Point", "coordinates": [ -73.5669248, 45.4621384 ] } },
{ "type": "Feature", "properties": { "name": "Poste de quartier 16", "type": "police", "marker-symbol": "police", "marker-color": "#2980b9", "marker-size": "medium", "stroke": "#2980b9", "stroke-width": 2, "quartier": "verdun" }, "geometry": { "type": "Point", "coordinates": [ -73.5737031, 45.4591217 ] } },
{ "type": "Feature", "properties": { "name": "Shoppers Drug Mart", "type": "infrastructure_secours", "marker-symbol": "marker", "marker-color": "#7f8c8d", "marker-size": "medium", "stroke": "#7f8c8d", "stroke-width": 2, "quartier": "verdun" }, "geometry": { "type": "Point", "coordinates": [ -73.5411117, 45.4675831 ] } },
{ "type": "Feature", "properties": { "name": "Urgence - lnstitut Douglas", "type": "infrastructure_secours", "marker-symbol": "marker", "marker-color": "#7f8c8d", "marker-size": "medium", "stroke": "#7f8c8d", "stroke-width": 2, "quartier": "verdun" }, "geometry": { "type": "Point", "coordinates": [ -73.5847574, 45.4429913 ] } },
{ "type": "Feature", "properties": { "name": "Chiro Centre Verdun", "type": "infrastructure_secours", "marker-symbol": "marker", "marker-color": "#7f8c8d", "marker-size": "medium", "stroke": "#7f8c8d", "stroke-width": 2, "quartier": "verdun" }, "geometry": { "type": "Point", "coordinates": [ -73.5665896, 45.4658788 ] } },
{ "type": "Feature", "properties": { "name": "Podiatre Dr Darrell Bevacqua", "type": "clinic", "marker-symbol": "hospital", "marker-color": "#e74c3c", "marker-size": "medium", "stroke": "#e74c3c", "stroke-width": 2, "quartier": "verdun" }, "geometry": { "type": "Point", "coordinates": [ -73.5667227, 45.464291 ] } },
{ "type": "Feature", "properties": { "name": "Centre social d'aide aux immigrants", "type": "infrastructure_secours", "marker-symbol": "marker", "marker-color": "#7f8c8d", "marker-size": "medium", "stroke": "#7f8c8d", "stroke-width": 2, "quartier": "verdun" }, "geometry": { "type": "Point", "coordinates": [ -73.5665518, 45.4660893 ] } },
{ "type": "Feature", "properties": { "name": "Uniprix", "type": "pmr_facility", "marker-symbol": "wheelchair", "marker-color": "#9b59b6", "marker-size": "medium", "stroke": "#9b59b6", "stroke-width": 2, "quartier": "verdun" }, "geometry": { "type": "Point", "coordinates": [ -73.5674448, 45.4594683 ] } },
{ "type": "Feature", "properties": { "name": "Clinique podiatrique du Sud-Ouest", "type": "clinic", "marker-symbol": "hospital", "marker-color": "#e74c3c", "marker-size": "medium", "stroke": "#e74c3c", "stroke-width": 2, "quartier": "verdun" }, "geometry": { "type": "Point", "coordinates": [ -73.576152, 45.4599985 ] } },
{ "type": "Feature", "properties": { "name": "Clinique de radiologie de l'ouest", "type": "clinic", "marker-symbol": "hospital", "marker-color": "#e74c3c", "marker-size": "medium", "stroke": "#e74c3c", "stroke-width": 2, "quartier": "verdun" }, "geometry": { "type": "Point", "coordinates": [ -73.5761538, 45.4601343 ] } },
{ "type": "Feature", "properties": { "name": "Centre de formation professionnelle de Verdun - édifice Galt", "type": "school", "marker-symbol": "school", "marker-color": "#3498db", "marker-size": "medium", "stroke": "#3498db", "stroke-width": 2, "quartier": "verdun" }, "geometry": { "type": "Point", "coordinates": [ -73.5786792, 45.4621303 ] } },
{ "type": "Feature", "properties": { "name": "Jean Coutu", "type": "pmr_facility", "marker-symbol": "wheelchair", "marker-color": "#9b59b6", "marker-size": "medium", "stroke": "#9b59b6", "stroke-width": 2, "quartier": "verdun" }, "geometry": { "type": "Point", "coordinates": [ -73.5763078, 45.4601465 ] } },
{ "type": "Feature", "properties": { "name": "Clinique médicale du Sud-Ouest", "type": "clinic", "marker-symbol": "hospital", "marker-color": "#e74c3c", "marker-size": "medium", "stroke": "#e74c3c", "stroke-width": 2, "quartier": "verdun" }, "geometry": { "type": "Point", "coordinates": [ -73.5761585, 45.460073 ] } },
{ "type": "Feature", "properties": { "name": "Pharmaprix", "type": "infrastructure_secours", "marker-symbol": "marker", "marker-color": "#7f8c8d", "marker-size": "medium", "stroke": "#7f8c8d", "stroke-width": 2, "quartier": "verdun" }, "geometry": { "type": "Point", "coordinates": [ -73.5728976, 45.4474756 ] } },
{ "type": "Feature", "properties": { "name": "Clinique dentaire Matthew", "type": "clinic", "marker-symbol": "hospital", "marker-color": "#e74c3c", "marker-size": "medium", "stroke": "#e74c3c", "stroke-width": 2, "quartier": "verdun" }, "geometry": { "type": "Point", "coordinates": [ -73.5723549, 45.4525639 ] } },
{ "type": "Feature", "properties": { "name": "Clinique Dentaire Cartier", "type": "clinic", "marker-symbol": "hospital", "marker-color": "#e74c3c", "marker-size": "medium", "stroke": "#e74c3c", "stroke-width": 2, "quartier": "verdun" }, "geometry": { "type": "Point", "coordinates": [ -73.5720986, 45.456028 ] } },
{ "type": "Feature", "properties": { "name": "Toujours Ensemble", "type": "pmr_facility", "marker-symbol": "wheelchair", "marker-color": "#9b59b6", "marker-size": "medium", "stroke": "#9b59b6", "stroke-width": 2, "quartier": "verdun" }, "geometry": { "type": "Point", "coordinates": [ -73.5717733, 45.4566087 ] } },
{ "type": "Feature", "properties": { "name": "Physiothérapie & ostéopathie Hickson", "type": "infrastructure_secours", "marker-symbol": "marker", "marker-color": "#7f8c8d", "marker-size": "medium", "stroke": "#7f8c8d", "stroke-width": 2, "quartier": "verdun" }, "geometry": { "type": "Point", "coordinates": [ -73.5675308, 45.4568895 ] } },
{ "type": "Feature", "properties": { "name": "Centre dentaire Messier & Martin", "type": "infrastructure_secours", "marker-symbol": "marker", "marker-color": "#7f8c8d", "marker-size": "medium", "stroke": "#7f8c8d", "stroke-width": 2, "quartier": "verdun" }, "geometry": { "type": "Point", "coordinates": [ -73.5672203, 45.4573697 ] } },
{ "type": "Feature", "properties": { "name": "S.O.S. Sourire", "type": "pmr_facility", "marker-symbol": "wheelchair", "marker-color": "#9b59b6", "marker-size": "medium", "stroke": "#9b59b6", "stroke-width": 2, "quartier": "verdun" }, "geometry": { "type": "Point", "coordinates": [ -73.5677341, 45.4563269 ] } },
{ "type": "Feature", "properties": { "name": "Acupuncture Familiale Verdun", "type": "infrastructure_secours", "marker-symbol": "marker", "marker-color": "#7f8c8d", "marker-size": "medium", "stroke": "#7f8c8d", "stroke-width": 2, "quartier": "verdun" }, "geometry": { "type": "Point", "coordinates": [ -73.5678033, 45.4554938 ] } },
{ "type": "Feature", "properties": { "name": "Clinique Médico-chirurgicale de Verdun", "type": "clinic", "marker-symbol": "hospital", "marker-color": "#e74c3c", "marker-size": "medium", "stroke": "#e74c3c", "stroke-width": 2, "quartier": "verdun" }, "geometry": { "type": "Point", "coordinates": [ -73.5645142, 45.46278 ] } },
{ "type": "Feature", "properties": { "name": "Clinique universitaire de médecine familiale du CIUSSS", "type": "clinic", "marker-symbol": "hospital", "marker-color": "#e74c3c", "marker-size": "medium", "stroke": "#e74c3c", "stroke-width": 2, "quartier": "verdun" }, "geometry": { "type": "Point", "coordinates": [ -73.5641022, 45.4637974 ] } },
{ "type": "Feature", "properties": { "name": "Jean Coutu", "type": "infrastructure_secours", "marker-symbol": "marker", "marker-color": "#7f8c8d", "marker-size": "medium", "stroke": "#7f8c8d", "stroke-width": 2, "quartier": "verdun" }, "geometry": { "type": "Point", "coordinates": [ -73.5401483, 45.4672989 ] } },
{ "type": "Feature", "properties": { "name": "Physiothérapie Solution Active Verdun", "type": "infrastructure_secours", "marker-symbol": "marker", "marker-color": "#7f8c8d", "marker-size": "medium", "stroke": "#7f8c8d", "stroke-width": 2, "quartier": "verdun" }, "geometry": { "type": "Point", "coordinates": [ -73.5761032, 45.4604454 ] } },
{ "type": "Feature", "properties": { "name": "Maison l'Étincelle", "type": "senior_home", "marker-symbol": "home", "marker-color": "#a0522d", "marker-size": "medium", "stroke": "#a0522d", "stroke-width": 2, "quartier": "verdun" }, "geometry": { "type": "Point", "coordinates": [ -73.5678099, 45.4690408 ] } },
{ "type": "Feature", "properties": { "name": "Résidence Les Jardins Gordon", "type": "senior_home", "marker-symbol": "home", "marker-color": "#a0522d", "marker-size": "medium", "stroke": "#a0522d", "stroke-width": 2, "quartier": "verdun" }, "geometry": { "type": "Point", "coordinates": [ -73.5777408, 45.4612199 ] } },
{ "type": "Feature", "properties": { "name": "Le Sommet de la Rive", "type": "senior_home", "marker-symbol": "home", "marker-color": "#a0522d", "marker-size": "medium", "stroke": "#a0522d", "stroke-width": 2, "quartier": "verdun" }, "geometry": { "type": "Point", "coordinates": [ -73.5634069, 45.4687378 ] } },
{ "type": "Feature", "properties": { "name": "Centre dentaire et d’implantologie Bayat", "type": "infrastructure_secours", "marker-symbol": "marker", "marker-color": "#7f8c8d", "marker-size": "medium", "stroke": "#7f8c8d", "stroke-width": 2, "quartier": "verdun" }, "geometry": { "type": "Point", "coordinates": [ -73.5761327, 45.4606567 ] } },
{ "type": "Feature", "properties": { "name": "Centre de santé sourire", "type": "infrastructure_secours", "marker-symbol": "marker", "marker-color": "#7f8c8d", "marker-size": "medium", "stroke": "#7f8c8d", "stroke-width": 2, "quartier": "verdun" }, "geometry": { "type": "Point", "coordinates": [ -73.5770872, 45.4497779 ] } },
{ "type": "Feature", "properties": { "name": "Chiropratique Optimum", "type": "infrastructure_secours", "marker-symbol": "marker", "marker-color": "#7f8c8d", "marker-size": "medium", "stroke": "#7f8c8d", "stroke-width": 2, "quartier": "verdun" }, "geometry": { "type": "Point", "coordinates": [ -73.5766067, 45.4550656 ] } },
{ "type": "Feature", "properties": { "name": "Centre de formation professionnelle de Verdun - édifice Gaétan-Laberge", "type": "school", "marker-symbol": "school", "marker-color": "#3498db", "marker-size": "medium", "stroke": "#3498db", "stroke-width": 2, "quartier": "verdun" }, "geometry": { "type": "Point", "coordinates": [ -73.560592, 45.4701432 ] } },
{ "type": "Feature", "properties": { "name": "Mobikine", "type": "infrastructure_secours", "marker-symbol": "marker", "marker-color": "#7f8c8d", "marker-size": "medium", "stroke": "#7f8c8d", "stroke-width": 2, "quartier": "verdun" }, "geometry": { "type": "Point", "coordinates": [ -73.5389168, 45.4725841 ] } },
{ "type": "Feature", "properties": { "name": "Caserne 67", "type": "fire_station", "marker-symbol": "fire-station", "marker-color": "#e67e22", "marker-size": "medium", "stroke": "#e67e22", "stroke-width": 2, "quartier": "verdun" }, "geometry": { "type": "Point", "coordinates": [ -73.5344201, 45.4693053 ] } },
{ "type": "Feature", "properties": { "name": "Kinatex Sports Physio", "type": "infrastructure_secours", "marker-symbol": "marker", "marker-color": "#7f8c8d", "marker-size": "medium", "stroke": "#7f8c8d", "stroke-width": 2, "quartier": "verdun" }, "geometry": { "type": "Point", "coordinates": [ -73.5493977, 45.4675392 ] } },
{ "type": "Feature", "properties": { "name": "Centre visuel Île-des-Soeurs", "type": "infrastructure_secours", "marker-symbol": "marker", "marker-color": "#7f8c8d", "marker-size": "medium", "stroke": "#7f8c8d", "stroke-width": 2, "quartier": "verdun" }, "geometry": { "type": "Point", "coordinates": [ -73.5493549, 45.4675447 ] } },
{ "type": "Feature", "properties": { "name": "Ostéo-Forme Valérie", "type": "infrastructure_secours", "marker-symbol": "marker", "marker-color": "#7f8c8d", "marker-size": "medium", "stroke": "#7f8c8d", "stroke-width": 2, "quartier": "verdun" }, "geometry": { "type": "Point", "coordinates": [ -73.5512155, 45.4666275 ] } },
{ "type": "Feature", "properties": { "name": "Uniprix", "type": "infrastructure_secours", "marker-symbol": "marker", "marker-color": "#7f8c8d", "marker-size": "medium", "stroke": "#7f8c8d", "stroke-width": 2, "quartier": "verdun" }, "geometry": { "type": "Point", "coordinates": [ -73.5768102, 45.4528089 ] } },
{ "type": "Feature", "properties": { "name": "ACUITIS", "type": "pmr_facility", "marker-symbol": "wheelchair", "marker-color": "#9b59b6", "marker-size": "medium", "stroke": "#9b59b6", "stroke-width": 2, "quartier": "verdun" }, "geometry": { "type": "Point", "coordinates": [ -73.5669264, 45.4652103 ] } },
{ "type": "Feature", "properties": { "name": "Point de service local Verdun", "type": "infrastructure_secours", "marker-symbol": "marker", "marker-color": "#7f8c8d", "marker-size": "medium", "stroke": "#7f8c8d", "stroke-width": 2, "quartier": "verdun" }, "geometry": { "type": "Point", "coordinates": [ -73.5676061, 45.4626972 ] } },
{ "type": "Feature", "properties": { "name": "CLSC de Verdun", "type": "clinic", "marker-symbol": "hospital", "marker-color": "#e74c3c", "marker-size": "medium", "stroke": "#e74c3c", "stroke-width": 2, "quartier": "verdun" }, "geometry": { "type": "Point", "coordinates": [ -73.5691148, 45.4627389 ] } },
{ "type": "Feature", "properties": { "name": "Summum", "type": "pmr_facility", "marker-symbol": "wheelchair", "marker-color": "#9b59b6", "marker-size": "medium", "stroke": "#9b59b6", "stroke-width": 2, "quartier": "verdun" }, "geometry": { "type": "Point", "coordinates": [ -73.5667468, 45.4641079 ] } },
{ "type": "Feature", "properties": { "name": "La Maison Blue", "type": "infrastructure_secours", "marker-symbol": "marker", "marker-color": "#7f8c8d", "marker-size": "medium", "stroke": "#7f8c8d", "stroke-width": 2, "quartier": "verdun" }, "geometry": { "type": "Point", "coordinates": [ -73.5717633, 45.4565467 ] } },
{ "type": "Feature", "properties": { "name": "Familiprix", "type": "infrastructure_secours", "marker-symbol": "marker", "marker-color": "#7f8c8d", "marker-size": "medium", "stroke": "#7f8c8d", "stroke-width": 2, "quartier": "verdun" }, "geometry": { "type": "Point", "coordinates": [ -73.5721083, 45.4559582 ] } },
{ "type": "Feature", "properties": { "name": "Clinique Dentaire Cartier - Verdun", "type": "hospital", "marker-symbol": "hospital", "marker-color": "#e74c3c", "marker-size": "medium", "stroke": "#e74c3c", "stroke-width": 2, "quartier": "verdun" }, "geometry": { "type": "Point", "coordinates": [ -73.572119, 45.4560135 ] } },
{ "type": "Feature", "properties": { "name": "Le Sélection Île des Sœurs", "type": "senior_home", "marker-symbol": "home", "marker-color": "#a0522d", "marker-size": "medium", "stroke": "#a0522d", "stroke-width": 2, "quartier": "verdun" }, "geometry": { "type": "Point", "coordinates": [ -73.5561101, 45.4488361 ] } },
{ "type": "Feature", "properties": { "name": "Neuro-concept", "type": "infrastructure_secours", "marker-symbol": "marker", "marker-color": "#7f8c8d", "marker-size": "medium", "stroke": "#7f8c8d", "stroke-width": 2, "quartier": "verdun" }, "geometry": { "type": "Point", "coordinates": [ -73.5728709, 45.4480178 ] } },
{ "type": "Feature", "properties": { "name": "Centre Implantologie et Art dentaire île-des-soeurs", "type": "infrastructure_secours", "marker-symbol": "marker", "marker-color": "#7f8c8d", "marker-size": "medium", "stroke": "#7f8c8d", "stroke-width": 2, "quartier": "verdun" }, "geometry": { "type": "Point", "coordinates": [ -73.5424423, 45.4686682 ] } },
{ "type": "Feature", "properties": { "name": "Shoppers Drug Mart", "type": "infrastructure_secours", "marker-symbol": "marker", "marker-color": "#7f8c8d", "marker-size": "medium", "stroke": "#7f8c8d", "stroke-width": 2, "quartier": "verdun" }, "geometry": { "type": "Point", "coordinates": [ -73.5411117, 45.4675831 ] } },
{ "type": "Feature", "properties": { "name": "Jean Coutu", "type": "infrastructure_secours", "marker-symbol": "marker", "marker-color": "#7f8c8d", "marker-size": "medium", "stroke": "#7f8c8d", "stroke-width": 2, "quartier": "verdun" }, "geometry": { "type": "Point", "coordinates": [ -73.5401483, 45.4672989 ] } },
{ "type": "Feature", "properties": { "name": "Mobikine", "type": "infrastructure_secours", "marker-symbol": "marker", "marker-color": "#7f8c8d", "marker-size": "medium", "stroke": "#7f8c8d", "stroke-width": 2, "quartier": "verdun" }, "geometry": { "type": "Point", "coordinates": [ -73.5389168, 45.4725841 ] } },
{ "type": "Feature", "properties": { "name": "Caserne 67", "type": "fire_station", "marker-symbol": "fire-station", "marker-color": "#e67e22", "marker-size": "medium", "stroke": "#e67e22", "stroke-width": 2, "quartier": "verdun" }, "geometry": { "type": "Point", "coordinates": [ -73.5344201, 45.4693053 ] } },
{ "type": "Feature", "properties": { "name": "Kinatex Sports Physio", "type": "infrastructure_secours", "marker-symbol": "marker", "marker-color": "#7f8c8d", "marker-size": "medium", "stroke": "#7f8c8d", "stroke-width": 2, "quartier": "verdun" }, "geometry": { "type": "Point", "coordinates": [ -73.5493977, 45.4675392 ] } },
{ "type": "Feature", "properties": { "name": "Centre visuel Île-des-Soeurs", "type": "infrastructure_secours", "marker-symbol": "marker", "marker-color": "#7f8c8d", "marker-size": "medium", "stroke": "#7f8c8d", "stroke-width": 2, "quartier": "verdun" }, "geometry": { "type": "Point", "coordinates": [ -73.5493549, 45.4675447 ] } },
{ "type": "Feature", "properties": { "name": "Ostéo-Forme Valérie", "type": "infrastructure_secours", "marker-symbol": "marker", "marker-color": "#7f8c8d", "marker-size": "medium", "stroke": "#7f8c8d", "stroke-width": 2, "quartier": "verdun" }, "geometry": { "type": "Point", "coordinates": [ -73.5512155, 45.4666275 ] } },
{ "type": "Feature", "properties": { "name": "Le Sélection Île des Sœurs", "type": "senior_home", "marker-symbol": "home", "marker-color": "#a0522d", "marker-size": "medium", "stroke": "#a0522d", "stroke-width": 2, "quartier": "verdun" }, "geometry": { "type": "Point", "coordinates": [ -73.5561101, 45.4488361 ] } },
{ "type": "Feature", "properties": { "name": "Centre Implantologie et Art dentaire île-des-soeurs", "type": "infrastructure_secours", "marker-symbol": "marker", "marker-color": "#7f8c8d", "marker-size": "medium", "stroke": "#7f8c8d", "stroke-width": 2, "quartier": "verdun" }, "geometry": { "type": "Point", "coordinates": [ -73.5424423, 45.4686682 ] } },
{ "type": "Feature", "properties": { "name": "Brunet", "type": "infrastructure_secours", "marker-symbol": "marker", "marker-color": "#7f8c8d", "marker-size": "medium", "stroke": "#7f8c8d", "stroke-width": 2, "quartier": "anjou" }, "geometry": { "type": "Point", "coordinates": [ -73.5849121, 45.6067135 ] } },
{ "type": "Feature", "properties": { "name": "Poste de quartier n°46", "type": "police", "marker-symbol": "police", "marker-color": "#2980b9", "marker-size": "medium", "stroke": "#2980b9", "stroke-width": 2, "quartier": "anjou" }, "geometry": { "type": "Point", "coordinates": [ -73.5531598, 45.6050477 ] } },
{ "type": "Feature", "properties": { "name": "Uniprix", "type": "infrastructure_secours", "marker-symbol": "marker", "marker-color": "#7f8c8d", "marker-size": "medium", "stroke": "#7f8c8d", "stroke-width": 2, "quartier": "anjou" }, "geometry": { "type": "Point", "coordinates": [ -73.5526852, 45.6046656 ] } },
{ "type": "Feature", "properties": { "name": "Clinique Dentaire Geneviève Rompré", "type": "clinic", "marker-symbol": "hospital", "marker-color": "#e74c3c", "marker-size": "medium", "stroke": "#e74c3c", "stroke-width": 2, "quartier": "anjou" }, "geometry": { "type": "Point", "coordinates": [ -73.5591352, 45.6123514 ] } },
{ "type": "Feature", "properties": { "name": "Résidence Anjou", "type": "senior_home", "marker-symbol": "home", "marker-color": "#a0522d", "marker-size": "medium", "stroke": "#a0522d", "stroke-width": 2, "quartier": "anjou" }, "geometry": { "type": "Point", "coordinates": [ -73.547456, 45.6044719 ] } },
{ "type": "Feature", "properties": { "name": "Résidence Anjou sur le Lac", "type": "senior_home", "marker-symbol": "home", "marker-color": "#a0522d", "marker-size": "medium", "stroke": "#a0522d", "stroke-width": 2, "quartier": "anjou" }, "geometry": { "type": "Point", "coordinates": [ -73.5887727, 45.6060612 ] } },
{ "type": "Feature", "properties": { "name": "École secondaire Irma-Levasseur", "type": "school", "marker-symbol": "school", "marker-color": "#3498db", "marker-size": "medium", "stroke": "#3498db", "stroke-width": 2, "quartier": "anjou" }, "geometry": { "type": "Point", "coordinates": [ -73.5508773, 45.6200714 ] } },
{ "type": "Feature", "properties": { "name": "Pharmacie Jean-Coutu", "type": "infrastructure_secours", "marker-symbol": "marker", "marker-color": "#7f8c8d", "marker-size": "medium", "stroke": "#7f8c8d", "stroke-width": 2, "quartier": "anjou" }, "geometry": { "type": "Point", "coordinates": [ -73.5548945, 45.6119058 ] } },
{ "type": "Feature", "properties": { "name": "Pharmacie Costco", "type": "infrastructure_secours", "marker-symbol": "marker", "marker-color": "#7f8c8d", "marker-size": "medium", "stroke": "#7f8c8d", "stroke-width": 2, "quartier": "anjou" }, "geometry": { "type": "Point", "coordinates": [ -73.5578338, 45.623035 ] } },
{ "type": "Feature", "properties": { "name": "CLSC de l'Est-de-Montréal", "type": "clinic", "marker-symbol": "hospital", "marker-color": "#e74c3c", "marker-size": "medium", "stroke": "#e74c3c", "stroke-width": 2, "quartier": "riviere_des_prairies" }, "geometry": { "type": "Point", "coordinates": [ -73.4934196, 45.6664093 ] } },
{ "type": "Feature", "properties": { "name": "Centre d'Hébergement François-Séguenot", "type": "senior_home", "marker-symbol": "home", "marker-color": "#a0522d", "marker-size": "medium", "stroke": "#a0522d", "stroke-width": 2, "quartier": "riviere_des_prairies" }, "geometry": { "type": "Point", "coordinates": [ -73.4934991, 45.6669077 ] } },
{ "type": "Feature", "properties": { "name": "Poste de quartier n°49", "type": "police", "marker-symbol": "police", "marker-color": "#2980b9", "marker-size": "medium", "stroke": "#2980b9", "stroke-width": 2, "quartier": "riviere_des_prairies" }, "geometry": { "type": "Point", "coordinates": [ -73.505428, 45.641606 ] } },
{ "type": "Feature", "properties": { "name": "Poste de quartier n°45", "type": "police", "marker-symbol": "police", "marker-color": "#2980b9", "marker-size": "medium", "stroke": "#2980b9", "stroke-width": 2, "quartier": "riviere_des_prairies" }, "geometry": { "type": "Point", "coordinates": [ -73.5866387, 45.6333373 ] } },
{ "type": "Feature", "properties": { "name": "Caserne 32", "type": "fire_station", "marker-symbol": "fire-station", "marker-color": "#e67e22", "marker-size": "medium", "stroke": "#e67e22", "stroke-width": 2, "quartier": "riviere_des_prairies" }, "geometry": { "type": "Point", "coordinates": [ -73.4930199, 45.6970026 ] } },
{ "type": "Feature", "properties": { "name": "Phamiliprix", "type": "infrastructure_secours", "marker-symbol": "marker", "marker-color": "#7f8c8d", "marker-size": "medium", "stroke": "#7f8c8d", "stroke-width": 2, "quartier": "riviere_des_prairies" }, "geometry": { "type": "Point", "coordinates": [ -73.488928, 45.6899667 ] } },
{ "type": "Feature", "properties": { "name": "Jean Coutu", "type": "pmr_facility", "marker-symbol": "wheelchair", "marker-color": "#9b59b6", "marker-size": "medium", "stroke": "#9b59b6", "stroke-width": 2, "quartier": "riviere_des_prairies" }, "geometry": { "type": "Point", "coordinates": [ -73.5125612, 45.6549465 ] } },
{ "type": "Feature", "properties": { "name": "Habitations Sainte-Germaine-Cousin", "type": "senior_home", "marker-symbol": "home", "marker-color": "#a0522d", "marker-size": "medium", "stroke": "#a0522d", "stroke-width": 2, "quartier": "riviere_des_prairies" }, "geometry": { "type": "Point", "coordinates": [ -73.4945685, 45.6713507 ] } },
{ "type": "Feature", "properties": { "name": "Centre Le Cardinal", "type": "senior_home", "marker-symbol": "home", "marker-color": "#a0522d", "marker-size": "medium", "stroke": "#a0522d", "stroke-width": 2, "quartier": "riviere_des_prairies" }, "geometry": { "type": "Point", "coordinates": [ -73.4884323, 45.6524839 ] } },
{ "type": "Feature", "properties": { "name": "Résidence des Trembles", "type": "senior_home", "marker-symbol": "home", "marker-color": "#a0522d", "marker-size": "medium", "stroke": "#a0522d", "stroke-width": 2, "quartier": "riviere_des_prairies" }, "geometry": { "type": "Point", "coordinates": [ -73.4895289, 45.6537069 ] } },
{ "type": "Feature", "properties": { "name": "Résidence Cité Rive", "type": "senior_home", "marker-symbol": "home", "marker-color": "#a0522d", "marker-size": "medium", "stroke": "#a0522d", "stroke-width": 2, "quartier": "riviere_des_prairies" }, "geometry": { "type": "Point", "coordinates": [ -73.6177808, 45.6306091 ] } },
{ "type": "Feature", "properties": { "name": "Résidence Bellerive", "type": "senior_home", "marker-symbol": "home", "marker-color": "#a0522d", "marker-size": "medium", "stroke": "#a0522d", "stroke-width": 2, "quartier": "riviere_des_prairies" }, "geometry": { "type": "Point", "coordinates": [ -73.4924653, 45.6748356 ] } },
{ "type": "Feature", "properties": { "name": "Résidence au Fil de l’Eau", "type": "senior_home", "marker-symbol": "home", "marker-color": "#a0522d", "marker-size": "medium", "stroke": "#a0522d", "stroke-width": 2, "quartier": "riviere_des_prairies" }, "geometry": { "type": "Point", "coordinates": [ -73.619547, 45.6300398 ] } },
{ "type": "Feature", "properties": { "name": "Centre d’hébergement de la Marée", "type": "infrastructure_secours", "marker-symbol": "marker", "marker-color": "#7f8c8d", "marker-size": "medium", "stroke": "#7f8c8d", "stroke-width": 2, "quartier": "riviere_des_prairies" }, "geometry": { "type": "Point", "coordinates": [ -73.61913, 45.6301195 ] } },
{ "type": "Feature", "properties": { "name": "Les Résidences Soleil Pointe-aux-Trembles", "type": "senior_home", "marker-symbol": "home", "marker-color": "#a0522d", "marker-size": "medium", "stroke": "#a0522d", "stroke-width": 2, "quartier": "riviere_des_prairies" }, "geometry": { "type": "Point", "coordinates": [ -73.4925994, 45.6654248 ] } },
{ "type": "Feature", "properties": { "name": "CSH-HCN Lessee (Pointe-aux-Trembles)", "type": "senior_home", "marker-symbol": "home", "marker-color": "#a0522d", "marker-size": "medium", "stroke": "#a0522d", "stroke-width": 2, "quartier": "riviere_des_prairies" }, "geometry": { "type": "Point", "coordinates": [ -73.5121702, 45.6582367 ] } },
{ "type": "Feature", "properties": { "name": "Résidence Lionel-Bourdon", "type": "senior_home", "marker-symbol": "home", "marker-color": "#a0522d", "marker-size": "medium", "stroke": "#a0522d", "stroke-width": 2, "quartier": "riviere_des_prairies" }, "geometry": { "type": "Point", "coordinates": [ -73.5747314, 45.6448714 ] } },
{ "type": "Feature", "properties": { "name": "Collège Saint-Jean-Vianney", "type": "school", "marker-symbol": "school", "marker-color": "#3498db", "marker-size": "medium", "stroke": "#3498db", "stroke-width": 2, "quartier": "riviere_des_prairies" }, "geometry": { "type": "Point", "coordinates": [ -73.520176, 45.6926432 ] } }
]
}
