<?xml version="1.0" ?>
<gpx xmlns="http://www.topografix.com/GPX/1/1" version="1.1" creator="ERO1">
  <trk>
    <name>anjou — economique — zone 0</name>
    <trkseg>
      <trkpt lat="45.6082308" lon="-73.5635835"/>
      <trkpt lat="45.6072908" lon="-73.5648333"/>
      <trkpt lat="45.6074205" lon="-73.5710517"/>
      <trkpt lat="45.6094216" lon="-73.5760225"/>
      <trkpt lat="45.6107919" lon="-73.5802213"/>
      <trkpt lat="45.6122524" lon="-73.5839552"/>
      <trkpt lat="45.6135567" lon="-73.587957"/>
      <trkpt lat="45.6129753" lon="-73.5883504"/>
      <trkpt lat="45.6118001" lon="-73.5847394"/>
      <trkpt lat="45.6112114" lon="-73.5829331"/>
      <trkpt lat="45.6096026" lon="-73.5843326"/>
      <trkpt lat="45.6120495" lon="-73.5911853"/>
      <trkpt lat="45.6124235" lon="-73.5967777"/>
      <trkpt lat="45.6120495" lon="-73.5911853"/>
      <trkpt lat="45.6124235" lon="-73.5967777"/>
      <trkpt lat="45.6132339" lon="-73.5984338"/>
      <trkpt lat="45.6132987" lon="-73.5985137"/>
      <trkpt lat="45.6133975" lon="-73.5986143"/>
      <trkpt lat="45.6137722" lon="-73.598997"/>
      <trkpt lat="45.613895" lon="-73.5987325"/>
      <trkpt lat="45.6145696" lon="-73.5973412"/>
      <trkpt lat="45.6151011" lon="-73.5964109"/>
      <trkpt lat="45.6166037" lon="-73.594192"/>
      <trkpt lat="45.6168539" lon="-73.5938325"/>
      <trkpt lat="45.6180448" lon="-73.5920757"/>
      <trkpt lat="45.6193929" lon="-73.5901166"/>
      <trkpt lat="45.6206874" lon="-73.5882291"/>
      <trkpt lat="45.6218391" lon="-73.5865549"/>
      <trkpt lat="45.6234968" lon="-73.5841234"/>
      <trkpt lat="45.6252407" lon="-73.5815792"/>
      <trkpt lat="45.6236517" lon="-73.5784172"/>
      <trkpt lat="45.6235199" lon="-73.5781138"/>
      <trkpt lat="45.6226596" lon="-73.576107"/>
      <trkpt lat="45.6216387" lon="-73.5737392"/>
      <trkpt lat="45.6214648" lon="-73.5733251"/>
      <trkpt lat="45.6215824" lon="-73.5732211"/>
      <trkpt lat="45.621759" lon="-73.5736295"/>
      <trkpt lat="45.6216387" lon="-73.5737392"/>
      <trkpt lat="45.6214648" lon="-73.5733251"/>
      <trkpt lat="45.6215824" lon="-73.5732211"/>
      <trkpt lat="45.621759" lon="-73.5736295"/>
      <trkpt lat="45.6227588" lon="-73.5759619"/>
      <trkpt lat="45.623644" lon="-73.5780104"/>
      <trkpt lat="45.6237756" lon="-73.5783111"/>
      <trkpt lat="45.6253276" lon="-73.5814243"/>
      <trkpt lat="45.6269459" lon="-73.5790836"/>
      <trkpt lat="45.6281988" lon="-73.5772391"/>
      <trkpt lat="45.6272476" lon="-73.5746799"/>
      <trkpt lat="45.6249756" lon="-73.569176"/>
      <trkpt lat="45.6272476" lon="-73.5746799"/>
      <trkpt lat="45.6249756" lon="-73.569176"/>
      <trkpt lat="45.6243106" lon="-73.563523"/>
      <trkpt lat="45.6219256" lon="-73.5579996"/>
      <trkpt lat="45.6211647" lon="-73.5563154"/>
      <trkpt lat="45.6211004" lon="-73.5562016"/>
      <trkpt lat="45.6211931" lon="-73.5561221"/>
      <trkpt lat="45.6219476" lon="-73.5555265"/>
      <trkpt lat="45.6253888" lon="-73.552517"/>
      <trkpt lat="45.626201" lon="-73.5501834"/>
      <trkpt lat="45.6261368" lon="-73.5500707"/>
      <trkpt lat="45.6261541" lon="-73.5500554"/>
      <trkpt lat="45.626201" lon="-73.5501834"/>
      <trkpt lat="45.6253888" lon="-73.552517"/>
      <trkpt lat="45.6219476" lon="-73.5555265"/>
      <trkpt lat="45.621251" lon="-73.5562346"/>
      <trkpt lat="45.6219256" lon="-73.5579996"/>
      <trkpt lat="45.6243106" lon="-73.563523"/>
      <trkpt lat="45.622231" lon="-73.56534"/>
      <trkpt lat="45.6192996" lon="-73.5679072"/>
      <trkpt lat="45.6199905" lon="-73.5695194"/>
      <trkpt lat="45.620291" lon="-73.5702169"/>
      <trkpt lat="45.6215824" lon="-73.5732211"/>
      <trkpt lat="45.621759" lon="-73.5736295"/>
      <trkpt lat="45.6227588" lon="-73.5759619"/>
      <trkpt lat="45.623644" lon="-73.5780104"/>
      <trkpt lat="45.6237756" lon="-73.5783111"/>
      <trkpt lat="45.6236517" lon="-73.5784172"/>
      <trkpt lat="45.6235199" lon="-73.5781138"/>
      <trkpt lat="45.6226596" lon="-73.576107"/>
      <trkpt lat="45.6216387" lon="-73.5737392"/>
      <trkpt lat="45.6190003" lon="-73.5760661"/>
      <trkpt lat="45.6184045" lon="-73.5747967"/>
      <trkpt lat="45.6172401" lon="-73.5758312"/>
      <trkpt lat="45.6170631" lon="-73.5759826"/>
      <trkpt lat="45.6147059" lon="-73.5780578"/>
      <trkpt lat="45.6128805" lon="-73.5796523"/>
      <trkpt lat="45.6113329" lon="-73.5811084"/>
      <trkpt lat="45.6117587" lon="-73.5824241"/>
      <trkpt lat="45.6122524" lon="-73.5839552"/>
      <trkpt lat="45.6135567" lon="-73.587957"/>
      <trkpt lat="45.6129753" lon="-73.5883504"/>
      <trkpt lat="45.6118001" lon="-73.5847394"/>
      <trkpt lat="45.6112114" lon="-73.5829331"/>
      <trkpt lat="45.6096026" lon="-73.5843326"/>
      <trkpt lat="45.6120495" lon="-73.5911853"/>
      <trkpt lat="45.6096026" lon="-73.5843326"/>
      <trkpt lat="45.6112114" lon="-73.5829331"/>
      <trkpt lat="45.6107746" lon="-73.5815938"/>
      <trkpt lat="45.6092802" lon="-73.5828216"/>
      <trkpt lat="45.6090409" lon="-73.583039"/>
      <trkpt lat="45.6085509" lon="-73.5834631"/>
      <trkpt lat="45.608324" lon="-73.5829388"/>
      <trkpt lat="45.6077516" lon="-73.5834307"/>
      <trkpt lat="45.608324" lon="-73.5829388"/>
      <trkpt lat="45.6085509" lon="-73.5834631"/>
      <trkpt lat="45.6067393" lon="-73.5864065"/>
      <trkpt lat="45.6074394" lon="-73.5882084"/>
      <trkpt lat="45.6066596" lon="-73.5865458"/>
      <trkpt lat="45.6063032" lon="-73.5857412"/>
      <trkpt lat="45.6058883" lon="-73.5847632"/>
      <trkpt lat="45.6060016" lon="-73.5846653"/>
      <trkpt lat="45.6067393" lon="-73.5864065"/>
      <trkpt lat="45.6066596" lon="-73.5865458"/>
      <trkpt lat="45.6063032" lon="-73.5857412"/>
      <trkpt lat="45.6058883" lon="-73.5847632"/>
      <trkpt lat="45.6060016" lon="-73.5846653"/>
      <trkpt lat="45.6067393" lon="-73.5864065"/>
      <trkpt lat="45.6085509" lon="-73.5834631"/>
      <trkpt lat="45.6090409" lon="-73.583039"/>
      <trkpt lat="45.6096026" lon="-73.5843326"/>
      <trkpt lat="45.6120495" lon="-73.5911853"/>
      <trkpt lat="45.6124235" lon="-73.5967777"/>
      <trkpt lat="45.6132339" lon="-73.5984338"/>
      <trkpt lat="45.6132987" lon="-73.5985137"/>
      <trkpt lat="45.6133975" lon="-73.5986143"/>
      <trkpt lat="45.6137722" lon="-73.598997"/>
      <trkpt lat="45.613895" lon="-73.5987325"/>
      <trkpt lat="45.6145696" lon="-73.5973412"/>
      <trkpt lat="45.6151011" lon="-73.5964109"/>
      <trkpt lat="45.6166037" lon="-73.594192"/>
      <trkpt lat="45.6168539" lon="-73.5938325"/>
      <trkpt lat="45.6180448" lon="-73.5920757"/>
      <trkpt lat="45.6193929" lon="-73.5901166"/>
      <trkpt lat="45.6206874" lon="-73.5882291"/>
      <trkpt lat="45.6218391" lon="-73.5865549"/>
      <trkpt lat="45.6234968" lon="-73.5841234"/>
      <trkpt lat="45.6252407" lon="-73.5815792"/>
      <trkpt lat="45.6236517" lon="-73.5784172"/>
      <trkpt lat="45.6235199" lon="-73.5781138"/>
      <trkpt lat="45.6226596" lon="-73.576107"/>
      <trkpt lat="45.6216387" lon="-73.5737392"/>
      <trkpt lat="45.6214648" lon="-73.5733251"/>
      <trkpt lat="45.6201708" lon="-73.5703232"/>
      <trkpt lat="45.6174948" lon="-73.5726656"/>
      <trkpt lat="45.6184045" lon="-73.5747967"/>
      <trkpt lat="45.6172401" lon="-73.5758312"/>
      <trkpt lat="45.6184045" lon="-73.5747967"/>
      <trkpt lat="45.6172401" lon="-73.5758312"/>
      <trkpt lat="45.6170631" lon="-73.5759826"/>
      <trkpt lat="45.6172401" lon="-73.5758312"/>
      <trkpt lat="45.6170631" lon="-73.5759826"/>
      <trkpt lat="45.6147059" lon="-73.5780578"/>
      <trkpt lat="45.6170631" lon="-73.5759826"/>
      <trkpt lat="45.6147059" lon="-73.5780578"/>
      <trkpt lat="45.6128805" lon="-73.5796523"/>
      <trkpt lat="45.6147059" lon="-73.5780578"/>
      <trkpt lat="45.6128805" lon="-73.5796523"/>
      <trkpt lat="45.6113329" lon="-73.5811084"/>
      <trkpt lat="45.6107746" lon="-73.5815938"/>
      <trkpt lat="45.6092802" lon="-73.5828216"/>
      <trkpt lat="45.6090409" lon="-73.583039"/>
      <trkpt lat="45.6096026" lon="-73.5843326"/>
      <trkpt lat="45.6120495" lon="-73.5911853"/>
      <trkpt lat="45.6124235" lon="-73.5967777"/>
      <trkpt lat="45.6132339" lon="-73.5984338"/>
      <trkpt lat="45.6132987" lon="-73.5985137"/>
      <trkpt lat="45.6132368" lon="-73.5986382"/>
      <trkpt lat="45.613169" lon="-73.5985545"/>
      <trkpt lat="45.6124235" lon="-73.5967777"/>
      <trkpt lat="45.6132339" lon="-73.5984338"/>
      <trkpt lat="45.6132987" lon="-73.5985137"/>
      <trkpt lat="45.6132368" lon="-73.5986382"/>
      <trkpt lat="45.6129616" lon="-73.5990909"/>
      <trkpt lat="45.6128018" lon="-73.5994667"/>
      <trkpt lat="45.6129616" lon="-73.5990909"/>
      <trkpt lat="45.613169" lon="-73.5985545"/>
      <trkpt lat="45.6132339" lon="-73.5984338"/>
      <trkpt lat="45.6132987" lon="-73.5985137"/>
      <trkpt lat="45.6133975" lon="-73.5986143"/>
      <trkpt lat="45.6137722" lon="-73.598997"/>
      <trkpt lat="45.613895" lon="-73.5987325"/>
      <trkpt lat="45.6145696" lon="-73.5973412"/>
      <trkpt lat="45.6151011" lon="-73.5964109"/>
      <trkpt lat="45.6166037" lon="-73.594192"/>
      <trkpt lat="45.6168539" lon="-73.5938325"/>
      <trkpt lat="45.6180448" lon="-73.5920757"/>
      <trkpt lat="45.6193929" lon="-73.5901166"/>
      <trkpt lat="45.6206874" lon="-73.5882291"/>
      <trkpt lat="45.6218391" lon="-73.5865549"/>
      <trkpt lat="45.6234968" lon="-73.5841234"/>
      <trkpt lat="45.6252407" lon="-73.5815792"/>
      <trkpt lat="45.6253276" lon="-73.5814243"/>
      <trkpt lat="45.6269459" lon="-73.5790836"/>
      <trkpt lat="45.6281988" lon="-73.5772391"/>
      <trkpt lat="45.6272476" lon="-73.5746799"/>
      <trkpt lat="45.6249756" lon="-73.569176"/>
      <trkpt lat="45.6243106" lon="-73.563523"/>
      <trkpt lat="45.6219256" lon="-73.5579996"/>
      <trkpt lat="45.6211647" lon="-73.5563154"/>
      <trkpt lat="45.6211004" lon="-73.5562016"/>
      <trkpt lat="45.6211931" lon="-73.5561221"/>
      <trkpt lat="45.621251" lon="-73.5562346"/>
      <trkpt lat="45.6211647" lon="-73.5563154"/>
      <trkpt lat="45.6191144" lon="-73.5581165"/>
      <trkpt lat="45.6173171" lon="-73.5595961"/>
      <trkpt lat="45.6190488" lon="-73.5579626"/>
      <trkpt lat="45.6211004" lon="-73.5562016"/>
      <trkpt lat="45.6211931" lon="-73.5561221"/>
      <trkpt lat="45.6219476" lon="-73.5555265"/>
      <trkpt lat="45.6253888" lon="-73.552517"/>
      <trkpt lat="45.6241996" lon="-73.5497752"/>
      <trkpt lat="45.6221883" lon="-73.5515943"/>
      <trkpt lat="45.6200521" lon="-73.5534233"/>
      <trkpt lat="45.6199591" lon="-73.553504"/>
      <trkpt lat="45.617011" lon="-73.5561601"/>
      <trkpt lat="45.6152375" lon="-73.5576912"/>
      <trkpt lat="45.6155869" lon="-73.5594437"/>
      <trkpt lat="45.6161204" lon="-73.5605984"/>
      <trkpt lat="45.6173171" lon="-73.5595961"/>
      <trkpt lat="45.6161204" lon="-73.5605984"/>
      <trkpt lat="45.6160464" lon="-73.5606346"/>
      <trkpt lat="45.6161204" lon="-73.5605984"/>
      <trkpt lat="45.6168873" lon="-73.5623079"/>
      <trkpt lat="45.6167691" lon="-73.5624237"/>
      <trkpt lat="45.6164187" lon="-73.5615915"/>
      <trkpt lat="45.6160464" lon="-73.5606346"/>
      <trkpt lat="45.6155286" lon="-73.5594972"/>
      <trkpt lat="45.6148756" lon="-73.5579778"/>
      <trkpt lat="45.6144508" lon="-73.5583827"/>
      <trkpt lat="45.6134612" lon="-73.5592594"/>
      <trkpt lat="45.6133502" lon="-73.5593623"/>
      <trkpt lat="45.614156" lon="-73.5595144"/>
      <trkpt lat="45.6132749" lon="-73.5574937"/>
      <trkpt lat="45.6126196" lon="-73.5559856"/>
      <trkpt lat="45.6123234" lon="-73.5553021"/>
      <trkpt lat="45.6122913" lon="-73.5552316"/>
      <trkpt lat="45.6108304" lon="-73.5518433"/>
      <trkpt lat="45.6103588" lon="-73.5507515"/>
      <trkpt lat="45.6092891" lon="-73.5482986"/>
      <trkpt lat="45.6077397" lon="-73.5447433"/>
      <trkpt lat="45.6076972" lon="-73.5446511"/>
      <trkpt lat="45.60735" lon="-73.543872"/>
      <trkpt lat="45.6070437" lon="-73.5431268"/>
      <trkpt lat="45.6068677" lon="-73.5427559"/>
      <trkpt lat="45.6067157" lon="-73.5423781"/>
      <trkpt lat="45.6064119" lon="-73.5416007"/>
      <trkpt lat="45.6059018" lon="-73.5404213"/>
      <trkpt lat="45.6059883" lon="-73.5403509"/>
      <trkpt lat="45.6064901" lon="-73.5415347"/>
      <trkpt lat="45.6068147" lon="-73.5423003"/>
      <trkpt lat="45.6067157" lon="-73.5423781"/>
      <trkpt lat="45.6055592" lon="-73.5432002"/>
      <trkpt lat="45.6050974" lon="-73.5434141"/>
      <trkpt lat="45.6041251" lon="-73.5436733"/>
      <trkpt lat="45.6040083" lon="-73.5436891"/>
      <trkpt lat="45.6034687" lon="-73.5437287"/>
      <trkpt lat="45.602672" lon="-73.5440699"/>
      <trkpt lat="45.6021869" lon="-73.5448519"/>
      <trkpt lat="45.6001337" lon="-73.5455593"/>
      <trkpt lat="45.6002892" lon="-73.5463884"/>
      <trkpt lat="45.6004531" lon="-73.5472432"/>
      <trkpt lat="45.6002892" lon="-73.5463884"/>
      <trkpt lat="45.6001337" lon="-73.5455593"/>
      <trkpt lat="45.5984448" lon="-73.5464488"/>
      <trkpt lat="45.5981919" lon="-73.5456732"/>
      <trkpt lat="45.5976382" lon="-73.5460209"/>
      <trkpt lat="45.5972833" lon="-73.5449186"/>
      <trkpt lat="45.5967461" lon="-73.5452529"/>
      <trkpt lat="45.5959141" lon="-73.5453273"/>
      <trkpt lat="45.5965774" lon="-73.5468832"/>
      <trkpt lat="45.5968824" lon="-73.5475984"/>
      <trkpt lat="45.5972074" lon="-73.5483648"/>
      <trkpt lat="45.5975319" lon="-73.5491276"/>
      <trkpt lat="45.5975702" lon="-73.5492153"/>
      <trkpt lat="45.597125" lon="-73.5496339"/>
      <trkpt lat="45.5970758" lon="-73.5495214"/>
      <trkpt lat="45.5975319" lon="-73.5491276"/>
      <trkpt lat="45.5975702" lon="-73.5492153"/>
      <trkpt lat="45.5979031" lon="-73.5499787"/>
      <trkpt lat="45.5982351" lon="-73.5507227"/>
      <trkpt lat="45.5987127" lon="-73.5517832"/>
      <trkpt lat="45.5992293" lon="-73.552928"/>
      <trkpt lat="45.5996859" lon="-73.5539499"/>
      <trkpt lat="45.6002189" lon="-73.5556821"/>
      <trkpt lat="45.6026226" lon="-73.5611518"/>
      <trkpt lat="45.6038866" lon="-73.5632079"/>
      <trkpt lat="45.6065854" lon="-73.5687378"/>
      <trkpt lat="45.6074205" lon="-73.5710517"/>
      <trkpt lat="45.6094216" lon="-73.5760225"/>
      <trkpt lat="45.6103465" lon="-73.5781649"/>
      <trkpt lat="45.6108514" lon="-73.5796389"/>
      <trkpt lat="45.6112814" lon="-73.5809465"/>
      <trkpt lat="45.6128805" lon="-73.5796523"/>
      <trkpt lat="45.6113329" lon="-73.5811084"/>
      <trkpt lat="45.6107746" lon="-73.5815938"/>
      <trkpt lat="45.6107224" lon="-73.5814371"/>
      <trkpt lat="45.6103054" lon="-73.5801402"/>
      <trkpt lat="45.6097701" lon="-73.5784967"/>
      <trkpt lat="45.609169" lon="-73.5758523"/>
      <trkpt lat="45.6065435" lon="-73.5699162"/>
      <trkpt lat="45.6055397" lon="-73.5687015"/>
      <trkpt lat="45.6031214" lon="-73.5631421"/>
      <trkpt lat="45.6002654" lon="-73.5562438"/>
      <trkpt lat="45.5993465" lon="-73.5546089"/>
      <trkpt lat="45.5987937" lon="-73.5533796"/>
      <trkpt lat="45.5987233" lon="-73.553218"/>
      <trkpt lat="45.597125" lon="-73.5496339"/>
      <trkpt lat="45.5966102" lon="-73.5501508"/>
      <trkpt lat="45.5964497" lon="-73.5502963"/>
      <trkpt lat="45.5959443" lon="-73.5507748"/>
      <trkpt lat="45.59549" lon="-73.5512455"/>
      <trkpt lat="45.5964023" lon="-73.5540084"/>
      <trkpt lat="45.5963025" lon="-73.5540973"/>
      <trkpt lat="45.5953878" lon="-73.5511789"/>
      <trkpt lat="45.5958872" lon="-73.5506581"/>
      <trkpt lat="45.5953029" lon="-73.5491665"/>
      <trkpt lat="45.5944714" lon="-73.5489006"/>
      <trkpt lat="45.5940383" lon="-73.5495603"/>
      <trkpt lat="45.5934626" lon="-73.5512035"/>
      <trkpt lat="45.5940383" lon="-73.5495603"/>
      <trkpt lat="45.5944714" lon="-73.5489006"/>
      <trkpt lat="45.5945657" lon="-73.5487798"/>
      <trkpt lat="45.5944714" lon="-73.5489006"/>
      <trkpt lat="45.5945657" lon="-73.5487798"/>
      <trkpt lat="45.5949604" lon="-73.5483843"/>
      <trkpt lat="45.5945657" lon="-73.5487798"/>
      <trkpt lat="45.5949604" lon="-73.5483843"/>
      <trkpt lat="45.5954515" lon="-73.5479019"/>
      <trkpt lat="45.5949604" lon="-73.5483843"/>
      <trkpt lat="45.5954515" lon="-73.5479019"/>
      <trkpt lat="45.5963998" lon="-73.5501861"/>
      <trkpt lat="45.5965598" lon="-73.5500351"/>
      <trkpt lat="45.5970758" lon="-73.5495214"/>
      <trkpt lat="45.5961128" lon="-73.5472536"/>
      <trkpt lat="45.5954515" lon="-73.5479019"/>
      <trkpt lat="45.5963998" lon="-73.5501861"/>
      <trkpt lat="45.5965598" lon="-73.5500351"/>
      <trkpt lat="45.5970758" lon="-73.5495214"/>
      <trkpt lat="45.5975319" lon="-73.5491276"/>
      <trkpt lat="45.5975702" lon="-73.5492153"/>
      <trkpt lat="45.5979031" lon="-73.5499787"/>
      <trkpt lat="45.5982351" lon="-73.5507227"/>
      <trkpt lat="45.5987127" lon="-73.5517832"/>
      <trkpt lat="45.5992293" lon="-73.552928"/>
      <trkpt lat="45.5996859" lon="-73.5539499"/>
      <trkpt lat="45.6002189" lon="-73.5556821"/>
      <trkpt lat="45.6026226" lon="-73.5611518"/>
      <trkpt lat="45.6038866" lon="-73.5632079"/>
      <trkpt lat="45.6068379" lon="-73.5643626"/>
      <trkpt lat="45.6115883" lon="-73.5603742"/>
      <trkpt lat="45.6136803" lon="-73.558321"/>
      <trkpt lat="45.6140011" lon="-73.5580446"/>
      <trkpt lat="45.6142782" lon="-73.557804"/>
      <trkpt lat="45.6147287" lon="-73.5574125"/>
      <trkpt lat="45.6152535" lon="-73.5569455"/>
      <trkpt lat="45.615837" lon="-73.5563683"/>
      <trkpt lat="45.6162928" lon="-73.5559682"/>
      <trkpt lat="45.6167054" lon="-73.5556081"/>
      <trkpt lat="45.6171199" lon="-73.5552478"/>
      <trkpt lat="45.6175489" lon="-73.5548975"/>
      <trkpt lat="45.6198797" lon="-73.5528928"/>
      <trkpt lat="45.619081" lon="-73.551787"/>
      <trkpt lat="45.6183493" lon="-73.5500791"/>
      <trkpt lat="45.617741" lon="-73.550639"/>
      <trkpt lat="45.616261" lon="-73.551901"/>
      <trkpt lat="45.6158353" lon="-73.5522893"/>
      <trkpt lat="45.6154241" lon="-73.5526475"/>
      <trkpt lat="45.6150129" lon="-73.553063"/>
      <trkpt lat="45.6145559" lon="-73.5534696"/>
      <trkpt lat="45.6139596" lon="-73.5540002"/>
      <trkpt lat="45.6124389" lon="-73.5504335"/>
      <trkpt lat="45.6139596" lon="-73.5540002"/>
      <trkpt lat="45.6134358" lon="-73.5544662"/>
      <trkpt lat="45.6129774" lon="-73.5548427"/>
      <trkpt lat="45.6124356" lon="-73.5552613"/>
      <trkpt lat="45.6131519" lon="-73.5569021"/>
      <trkpt lat="45.6133533" lon="-73.5574034"/>
      <trkpt lat="45.613396" lon="-73.5575026"/>
      <trkpt lat="45.6135401" lon="-73.5577946"/>
      <trkpt lat="45.6142944" lon="-73.5595028"/>
      <trkpt lat="45.6160464" lon="-73.5606346"/>
      <trkpt lat="45.6161204" lon="-73.5605984"/>
      <trkpt lat="45.6173171" lon="-73.5595961"/>
      <trkpt lat="45.6190488" lon="-73.5579626"/>
      <trkpt lat="45.6211004" lon="-73.5562016"/>
      <trkpt lat="45.6211931" lon="-73.5561221"/>
      <trkpt lat="45.6219476" lon="-73.5555265"/>
      <trkpt lat="45.6253888" lon="-73.552517"/>
      <trkpt lat="45.6241996" lon="-73.5497752"/>
      <trkpt lat="45.6221883" lon="-73.5515943"/>
      <trkpt lat="45.6200521" lon="-73.5534233"/>
      <trkpt lat="45.6211931" lon="-73.5561221"/>
      <trkpt lat="45.6219476" lon="-73.5555265"/>
      <trkpt lat="45.6253888" lon="-73.552517"/>
      <trkpt lat="45.6241996" lon="-73.5497752"/>
      <trkpt lat="45.6221883" lon="-73.5515943"/>
      <trkpt lat="45.6200521" lon="-73.5534233"/>
      <trkpt lat="45.6199591" lon="-73.553504"/>
      <trkpt lat="45.617011" lon="-73.5561601"/>
      <trkpt lat="45.6152375" lon="-73.5576912"/>
      <trkpt lat="45.6148756" lon="-73.5579778"/>
      <trkpt lat="45.6144508" lon="-73.5583827"/>
      <trkpt lat="45.6134612" lon="-73.5592594"/>
      <trkpt lat="45.6133502" lon="-73.5593623"/>
      <trkpt lat="45.6125813" lon="-73.5599883"/>
      <trkpt lat="45.6121908" lon="-73.5603219"/>
      <trkpt lat="45.6110624" lon="-73.5613086"/>
      <trkpt lat="45.6122583" lon="-73.5640928"/>
      <trkpt lat="45.613388" lon="-73.5631101"/>
      <trkpt lat="45.6140955" lon="-73.564759"/>
      <trkpt lat="45.6167691" lon="-73.5624237"/>
      <trkpt lat="45.6140955" lon="-73.564759"/>
      <trkpt lat="45.6115651" lon="-73.5669763"/>
      <trkpt lat="45.6099331" lon="-73.5684044"/>
      <trkpt lat="45.6090419" lon="-73.5691777"/>
      <trkpt lat="45.6099331" lon="-73.5684044"/>
      <trkpt lat="45.6090419" lon="-73.5691777"/>
      <trkpt lat="45.6077779" lon="-73.5702756"/>
      <trkpt lat="45.6090419" lon="-73.5691777"/>
      <trkpt lat="45.6077779" lon="-73.5702756"/>
      <trkpt lat="45.6076118" lon="-73.5707617"/>
      <trkpt lat="45.6081011" lon="-73.5719002"/>
      <trkpt lat="45.6093455" lon="-73.5750706"/>
      <trkpt lat="45.6103465" lon="-73.5781649"/>
      <trkpt lat="45.6108514" lon="-73.5796389"/>
      <trkpt lat="45.6112814" lon="-73.5809465"/>
      <trkpt lat="45.6113329" lon="-73.5811084"/>
      <trkpt lat="45.6107746" lon="-73.5815938"/>
      <trkpt lat="45.6092802" lon="-73.5828216"/>
      <trkpt lat="45.6090409" lon="-73.583039"/>
      <trkpt lat="45.6085509" lon="-73.5834631"/>
      <trkpt lat="45.608324" lon="-73.5829388"/>
      <trkpt lat="45.6077516" lon="-73.5834307"/>
      <trkpt lat="45.6067227" lon="-73.5811251"/>
      <trkpt lat="45.6063448" lon="-73.5802682"/>
      <trkpt lat="45.6052351" lon="-73.5812167"/>
      <trkpt lat="45.604687" lon="-73.5816184"/>
      <trkpt lat="45.6052543" lon="-73.582897"/>
      <trkpt lat="45.6057647" lon="-73.5841147"/>
      <trkpt lat="45.6056524" lon="-73.5842156"/>
      <trkpt lat="45.6051302" lon="-73.5830008"/>
      <trkpt lat="45.6045776" lon="-73.581675"/>
      <trkpt lat="45.6036242" lon="-73.5794585"/>
      <trkpt lat="45.6032196" lon="-73.5785055"/>
      <trkpt lat="45.6023341" lon="-73.5764461"/>
      <trkpt lat="45.6019096" lon="-73.5754605"/>
      <trkpt lat="45.6007148" lon="-73.5726776"/>
      <trkpt lat="45.5991388" lon="-73.569017"/>
      <trkpt lat="45.5986218" lon="-73.5692957"/>
      <trkpt lat="45.5975259" lon="-73.5702479"/>
      <trkpt lat="45.5971463" lon="-73.570584"/>
      <trkpt lat="45.5976411" lon="-73.5723637"/>
      <trkpt lat="45.5986817" lon="-73.5714333"/>
      <trkpt lat="45.600405" lon="-73.5698807"/>
      <trkpt lat="45.6002227" lon="-73.5691286"/>
      <trkpt lat="45.5994992" lon="-73.5688332"/>
      <trkpt lat="45.5992256" lon="-73.5689474"/>
      <trkpt lat="45.5993215" lon="-73.5691761"/>
      <trkpt lat="45.6007982" lon="-73.5725998"/>
      <trkpt lat="45.6019966" lon="-73.5753847"/>
      <trkpt lat="45.6025269" lon="-73.5749196"/>
      <trkpt lat="45.6019966" lon="-73.5753847"/>
      <trkpt lat="45.6024205" lon="-73.5763704"/>
      <trkpt lat="45.6023341" lon="-73.5764461"/>
      <trkpt lat="45.6019096" lon="-73.5754605"/>
      <trkpt lat="45.6007148" lon="-73.5726776"/>
      <trkpt lat="45.5991388" lon="-73.569017"/>
      <trkpt lat="45.5990845" lon="-73.5688943"/>
      <trkpt lat="45.5971559" lon="-73.5632423"/>
      <trkpt lat="45.5972521" lon="-73.5631797"/>
      <trkpt lat="45.5971559" lon="-73.5632423"/>
      <trkpt lat="45.5972521" lon="-73.5631797"/>
      <trkpt lat="45.5991846" lon="-73.5688473"/>
      <trkpt lat="45.6003997" lon="-73.5690428"/>
      <trkpt lat="45.6008948" lon="-73.569431"/>
      <trkpt lat="45.602648" lon="-73.5669999"/>
      <trkpt lat="45.6052672" lon="-73.5639469"/>
      <trkpt lat="45.6058916" lon="-73.5641707"/>
      <trkpt lat="45.6113126" lon="-73.5604006"/>
      <trkpt lat="45.6121509" lon="-73.5596015"/>
      <trkpt lat="45.6129563" lon="-73.5588542"/>
      <trkpt lat="45.6136803" lon="-73.558321"/>
      <trkpt lat="45.6140011" lon="-73.5580446"/>
      <trkpt lat="45.6142782" lon="-73.557804"/>
      <trkpt lat="45.6147287" lon="-73.5574125"/>
      <trkpt lat="45.6152535" lon="-73.5569455"/>
      <trkpt lat="45.6139596" lon="-73.5540002"/>
      <trkpt lat="45.6134358" lon="-73.5544662"/>
      <trkpt lat="45.6129774" lon="-73.5548427"/>
      <trkpt lat="45.6124356" lon="-73.5552613"/>
      <trkpt lat="45.6131519" lon="-73.5569021"/>
      <trkpt lat="45.6135794" lon="-73.5569561"/>
      <trkpt lat="45.6139073" lon="-73.5569549"/>
      <trkpt lat="45.6142782" lon="-73.557804"/>
      <trkpt lat="45.6147287" lon="-73.5574125"/>
      <trkpt lat="45.6152535" lon="-73.5569455"/>
      <trkpt lat="45.6139596" lon="-73.5540002"/>
      <trkpt lat="45.6124389" lon="-73.5504335"/>
      <trkpt lat="45.6108798" lon="-73.5468362"/>
      <trkpt lat="45.6093978" lon="-73.5434356"/>
      <trkpt lat="45.6090354" lon="-73.5426356"/>
      <trkpt lat="45.6093978" lon="-73.5434356"/>
      <trkpt lat="45.6108798" lon="-73.5468362"/>
      <trkpt lat="45.6093978" lon="-73.5434356"/>
      <trkpt lat="45.6093421" lon="-73.543463"/>
      <trkpt lat="45.6088062" lon="-73.5438036"/>
      <trkpt lat="45.6087702" lon="-73.5437198"/>
      <trkpt lat="45.6093421" lon="-73.543463"/>
      <trkpt lat="45.6088062" lon="-73.5438036"/>
      <trkpt lat="45.6083352" lon="-73.5441927"/>
      <trkpt lat="45.6078253" lon="-73.5446649"/>
      <trkpt lat="45.6093646" lon="-73.5482295"/>
      <trkpt lat="45.6104328" lon="-73.5506932"/>
      <trkpt lat="45.6109126" lon="-73.5517712"/>
      <trkpt lat="45.6124356" lon="-73.5552613"/>
      <trkpt lat="45.6131519" lon="-73.5569021"/>
      <trkpt lat="45.6133533" lon="-73.5574034"/>
      <trkpt lat="45.613396" lon="-73.5575026"/>
      <trkpt lat="45.6135401" lon="-73.5577946"/>
      <trkpt lat="45.6142944" lon="-73.5595028"/>
      <trkpt lat="45.6160464" lon="-73.5606346"/>
      <trkpt lat="45.6161204" lon="-73.5605984"/>
      <trkpt lat="45.6168873" lon="-73.5623079"/>
      <trkpt lat="45.6174197" lon="-73.5635456"/>
      <trkpt lat="45.6172996" lon="-73.5636583"/>
      <trkpt lat="45.6167691" lon="-73.5624237"/>
      <trkpt lat="45.6168873" lon="-73.5623079"/>
      <trkpt lat="45.6174197" lon="-73.5635456"/>
      <trkpt lat="45.6178567" lon="-73.5645573"/>
      <trkpt lat="45.6183056" lon="-73.5655963"/>
      <trkpt lat="45.6188169" lon="-73.5667898"/>
      <trkpt lat="45.6192996" lon="-73.5679072"/>
      <trkpt lat="45.6199905" lon="-73.5695194"/>
      <trkpt lat="45.620291" lon="-73.5702169"/>
      <trkpt lat="45.6201708" lon="-73.5703232"/>
      <trkpt lat="45.6198685" lon="-73.5696263"/>
      <trkpt lat="45.6191781" lon="-73.5680131"/>
      <trkpt lat="45.6186943" lon="-73.5669037"/>
      <trkpt lat="45.6181817" lon="-73.5657073"/>
      <trkpt lat="45.6177384" lon="-73.5646629"/>
      <trkpt lat="45.6172996" lon="-73.5636583"/>
      <trkpt lat="45.6167691" lon="-73.5624237"/>
      <trkpt lat="45.6164187" lon="-73.5615915"/>
      <trkpt lat="45.6152808" lon="-73.560902"/>
      <trkpt lat="45.614156" lon="-73.5595144"/>
      <trkpt lat="45.6132749" lon="-73.5574937"/>
      <trkpt lat="45.6126196" lon="-73.5559856"/>
      <trkpt lat="45.6123234" lon="-73.5553021"/>
      <trkpt lat="45.6122913" lon="-73.5552316"/>
      <trkpt lat="45.6108304" lon="-73.5518433"/>
      <trkpt lat="45.6103588" lon="-73.5507515"/>
      <trkpt lat="45.6092891" lon="-73.5482986"/>
      <trkpt lat="45.6077397" lon="-73.5447433"/>
      <trkpt lat="45.6076972" lon="-73.5446511"/>
      <trkpt lat="45.60735" lon="-73.543872"/>
      <trkpt lat="45.6070437" lon="-73.5431268"/>
      <trkpt lat="45.6068677" lon="-73.5427559"/>
      <trkpt lat="45.6067157" lon="-73.5423781"/>
      <trkpt lat="45.6064119" lon="-73.5416007"/>
      <trkpt lat="45.6059018" lon="-73.5404213"/>
      <trkpt lat="45.6055189" lon="-73.5395475"/>
      <trkpt lat="45.6034668" lon="-73.5377912"/>
      <trkpt lat="45.6028553" lon="-73.5381481"/>
      <trkpt lat="45.6032499" lon="-73.5390751"/>
      <trkpt lat="45.6036468" lon="-73.5400072"/>
      <trkpt lat="45.604012" lon="-73.5408647"/>
      <trkpt lat="45.6044158" lon="-73.5418133"/>
      <trkpt lat="45.6047628" lon="-73.5426283"/>
      <trkpt lat="45.6050974" lon="-73.5434141"/>
      <trkpt lat="45.6041251" lon="-73.5436733"/>
      <trkpt lat="45.6040083" lon="-73.5436891"/>
      <trkpt lat="45.6034687" lon="-73.5437287"/>
      <trkpt lat="45.602672" lon="-73.5440699"/>
      <trkpt lat="45.6021869" lon="-73.5448519"/>
      <trkpt lat="45.6023128" lon="-73.5456893"/>
      <trkpt lat="45.6024325" lon="-73.5465599"/>
      <trkpt lat="45.6034566" lon="-73.546378"/>
      <trkpt lat="45.6045092" lon="-73.5462764"/>
      <trkpt lat="45.604644" lon="-73.5462516"/>
      <trkpt lat="45.6046646" lon="-73.5463857"/>
      <trkpt lat="45.6045295" lon="-73.5464045"/>
      <trkpt lat="45.6045092" lon="-73.5462764"/>
      <trkpt lat="45.604644" lon="-73.5462516"/>
      <trkpt lat="45.6054166" lon="-73.5460362"/>
      <trkpt lat="45.6061814" lon="-73.5456901"/>
      <trkpt lat="45.6066034" lon="-73.545483"/>
      <trkpt lat="45.6066333" lon="-73.5455811"/>
      <trkpt lat="45.60621" lon="-73.5458044"/>
      <trkpt lat="45.6054347" lon="-73.5461706"/>
      <trkpt lat="45.6046646" lon="-73.5463857"/>
      <trkpt lat="45.6049086" lon="-73.5481318"/>
      <trkpt lat="45.6051223" lon="-73.5498926"/>
      <trkpt lat="45.6052126" lon="-73.5507845"/>
      <trkpt lat="45.605297" lon="-73.5517501"/>
      <trkpt lat="45.6053543" lon="-73.5526382"/>
      <trkpt lat="45.6054073" lon="-73.5533661"/>
      <trkpt lat="45.6061831" lon="-73.5531938"/>
      <trkpt lat="45.6067981" lon="-73.5530127"/>
      <trkpt lat="45.6080128" lon="-73.5524825"/>
      <trkpt lat="45.6082548" lon="-73.5533408"/>
      <trkpt lat="45.6088633" lon="-73.5529489"/>
      <trkpt lat="45.6094855" lon="-73.5525503"/>
      <trkpt lat="45.6109528" lon="-73.5540866"/>
      <trkpt lat="45.611657" lon="-73.5557201"/>
      <trkpt lat="45.6122913" lon="-73.5552316"/>
      <trkpt lat="45.6108304" lon="-73.5518433"/>
      <trkpt lat="45.6103588" lon="-73.5507515"/>
      <trkpt lat="45.6092891" lon="-73.5482986"/>
      <trkpt lat="45.6077397" lon="-73.5447433"/>
      <trkpt lat="45.6076972" lon="-73.5446511"/>
      <trkpt lat="45.6077871" lon="-73.5445731"/>
      <trkpt lat="45.608298" lon="-73.5441039"/>
      <trkpt lat="45.6083352" lon="-73.5441927"/>
      <trkpt lat="45.6078253" lon="-73.5446649"/>
      <trkpt lat="45.6077397" lon="-73.5447433"/>
      <trkpt lat="45.6076972" lon="-73.5446511"/>
      <trkpt lat="45.6077871" lon="-73.5445731"/>
      <trkpt lat="45.6078253" lon="-73.5446649"/>
      <trkpt lat="45.6077397" lon="-73.5447433"/>
      <trkpt lat="45.6066333" lon="-73.5455811"/>
      <trkpt lat="45.60621" lon="-73.5458044"/>
      <trkpt lat="45.6054347" lon="-73.5461706"/>
      <trkpt lat="45.6046646" lon="-73.5463857"/>
      <trkpt lat="45.6049086" lon="-73.5481318"/>
      <trkpt lat="45.6051223" lon="-73.5498926"/>
      <trkpt lat="45.6052126" lon="-73.5507845"/>
      <trkpt lat="45.605297" lon="-73.5517501"/>
      <trkpt lat="45.6053543" lon="-73.5526382"/>
      <trkpt lat="45.6054073" lon="-73.5533661"/>
      <trkpt lat="45.6061831" lon="-73.5531938"/>
      <trkpt lat="45.6067981" lon="-73.5530127"/>
      <trkpt lat="45.6080128" lon="-73.5524825"/>
      <trkpt lat="45.6082548" lon="-73.5533408"/>
      <trkpt lat="45.6088633" lon="-73.5529489"/>
      <trkpt lat="45.6094855" lon="-73.5525503"/>
      <trkpt lat="45.6109528" lon="-73.5540866"/>
      <trkpt lat="45.611657" lon="-73.5557201"/>
      <trkpt lat="45.6122913" lon="-73.5552316"/>
      <trkpt lat="45.6124356" lon="-73.5552613"/>
      <trkpt lat="45.6131519" lon="-73.5569021"/>
      <trkpt lat="45.6133533" lon="-73.5574034"/>
      <trkpt lat="45.613396" lon="-73.5575026"/>
      <trkpt lat="45.6135401" lon="-73.5577946"/>
      <trkpt lat="45.6142944" lon="-73.5595028"/>
      <trkpt lat="45.6144508" lon="-73.5583827"/>
      <trkpt lat="45.6134612" lon="-73.5592594"/>
      <trkpt lat="45.6133502" lon="-73.5593623"/>
      <trkpt lat="45.6125813" lon="-73.5599883"/>
      <trkpt lat="45.6121908" lon="-73.5603219"/>
      <trkpt lat="45.6110624" lon="-73.5613086"/>
      <trkpt lat="45.6096679" lon="-73.5625743"/>
      <trkpt lat="45.6080571" lon="-73.5640442"/>
      <trkpt lat="45.606803" lon="-73.5673003"/>
      <trkpt lat="45.6074124" lon="-73.5702952"/>
      <trkpt lat="45.6077779" lon="-73.5702756"/>
      <trkpt lat="45.6076118" lon="-73.5707617"/>
      <trkpt lat="45.6081011" lon="-73.5719002"/>
      <trkpt lat="45.6093455" lon="-73.5750706"/>
      <trkpt lat="45.6103465" lon="-73.5781649"/>
      <trkpt lat="45.6108514" lon="-73.5796389"/>
      <trkpt lat="45.6112814" lon="-73.5809465"/>
      <trkpt lat="45.6113329" lon="-73.5811084"/>
      <trkpt lat="45.6107746" lon="-73.5815938"/>
      <trkpt lat="45.6092802" lon="-73.5828216"/>
      <trkpt lat="45.6090409" lon="-73.583039"/>
      <trkpt lat="45.6085509" lon="-73.5834631"/>
      <trkpt lat="45.608324" lon="-73.5829388"/>
      <trkpt lat="45.6077516" lon="-73.5834307"/>
      <trkpt lat="45.6067227" lon="-73.5811251"/>
      <trkpt lat="45.6077516" lon="-73.5834307"/>
      <trkpt lat="45.6067227" lon="-73.5811251"/>
      <trkpt lat="45.6063448" lon="-73.5802682"/>
      <trkpt lat="45.6067227" lon="-73.5811251"/>
      <trkpt lat="45.6063448" lon="-73.5802682"/>
      <trkpt lat="45.6052351" lon="-73.5812167"/>
      <trkpt lat="45.6063448" lon="-73.5802682"/>
      <trkpt lat="45.6052351" lon="-73.5812167"/>
      <trkpt lat="45.604687" lon="-73.5816184"/>
      <trkpt lat="45.6052351" lon="-73.5812167"/>
      <trkpt lat="45.604687" lon="-73.5816184"/>
      <trkpt lat="45.6045776" lon="-73.581675"/>
      <trkpt lat="45.6036242" lon="-73.5794585"/>
      <trkpt lat="45.6032196" lon="-73.5785055"/>
      <trkpt lat="45.6023341" lon="-73.5764461"/>
      <trkpt lat="45.6019096" lon="-73.5754605"/>
      <trkpt lat="45.6007148" lon="-73.5726776"/>
      <trkpt lat="45.5991388" lon="-73.569017"/>
      <trkpt lat="45.5986218" lon="-73.5692957"/>
      <trkpt lat="45.5975259" lon="-73.5702479"/>
      <trkpt lat="45.5955606" lon="-73.5644272"/>
      <trkpt lat="45.5959455" lon="-73.5640413"/>
      <trkpt lat="45.5955606" lon="-73.5644272"/>
      <trkpt lat="45.5959455" lon="-73.5640413"/>
      <trkpt lat="45.5971559" lon="-73.5632423"/>
      <trkpt lat="45.5961188" lon="-73.5595433"/>
      <trkpt lat="45.595117" lon="-73.5564896"/>
      <trkpt lat="45.5940566" lon="-73.5572195"/>
      <trkpt lat="45.5940091" lon="-73.55704"/>
      <trkpt lat="45.5950692" lon="-73.5563372"/>
      <trkpt lat="45.5951553" lon="-73.5562619"/>
      <trkpt lat="45.5952033" lon="-73.556415"/>
      <trkpt lat="45.5962127" lon="-73.5594814"/>
      <trkpt lat="45.5972521" lon="-73.5631797"/>
      <trkpt lat="45.5991846" lon="-73.5688473"/>
      <trkpt lat="45.6003997" lon="-73.5690428"/>
      <trkpt lat="45.6008948" lon="-73.569431"/>
      <trkpt lat="45.602648" lon="-73.5669999"/>
      <trkpt lat="45.6052672" lon="-73.5639469"/>
      <trkpt lat="45.6058916" lon="-73.5641707"/>
      <trkpt lat="45.6113126" lon="-73.5604006"/>
      <trkpt lat="45.61102" lon="-73.5597398"/>
      <trkpt lat="45.6106507" lon="-73.5588885"/>
      <trkpt lat="45.6102953" lon="-73.5580542"/>
      <trkpt lat="45.6099269" lon="-73.5572226"/>
      <trkpt lat="45.6092382" lon="-73.5575974"/>
      <trkpt lat="45.6085926" lon="-73.5579129"/>
      <trkpt lat="45.6072873" lon="-73.5584219"/>
      <trkpt lat="45.6068733" lon="-73.5585489"/>
      <trkpt lat="45.6062463" lon="-73.5587112"/>
      <trkpt lat="45.6054128" lon="-73.5588756"/>
      <trkpt lat="45.6053115" lon="-73.5588906"/>
      <trkpt lat="45.604528" lon="-73.5589835"/>
      <trkpt lat="45.6034774" lon="-73.559187"/>
      <trkpt lat="45.6032257" lon="-73.5592959"/>
      <trkpt lat="45.6030106" lon="-73.5593023"/>
      <trkpt lat="45.6031948" lon="-73.5591626"/>
      <trkpt lat="45.603455" lon="-73.5590678"/>
      <trkpt lat="45.6031845" lon="-73.5575136"/>
      <trkpt lat="45.6028841" lon="-73.5557137"/>
      <trkpt lat="45.6027276" lon="-73.5547825"/>
      <trkpt lat="45.6025729" lon="-73.553883"/>
      <trkpt lat="45.6019663" lon="-73.5541567"/>
      <trkpt lat="45.6025729" lon="-73.553883"/>
      <trkpt lat="45.6043069" lon="-73.5535296"/>
      <trkpt lat="45.605296" lon="-73.5533926"/>
      <trkpt lat="45.6054073" lon="-73.5533661"/>
      <trkpt lat="45.6061831" lon="-73.5531938"/>
      <trkpt lat="45.6067981" lon="-73.5530127"/>
      <trkpt lat="45.6080128" lon="-73.5524825"/>
      <trkpt lat="45.6082548" lon="-73.5533408"/>
      <trkpt lat="45.6088633" lon="-73.5529489"/>
      <trkpt lat="45.6094855" lon="-73.5525503"/>
      <trkpt lat="45.6109528" lon="-73.5540866"/>
      <trkpt lat="45.611657" lon="-73.5557201"/>
      <trkpt lat="45.6122913" lon="-73.5552316"/>
      <trkpt lat="45.6124356" lon="-73.5552613"/>
      <trkpt lat="45.6131519" lon="-73.5569021"/>
      <trkpt lat="45.6133533" lon="-73.5574034"/>
      <trkpt lat="45.613396" lon="-73.5575026"/>
      <trkpt lat="45.6135401" lon="-73.5577946"/>
      <trkpt lat="45.6142944" lon="-73.5595028"/>
      <trkpt lat="45.6144508" lon="-73.5583827"/>
      <trkpt lat="45.6134612" lon="-73.5592594"/>
      <trkpt lat="45.6133502" lon="-73.5593623"/>
      <trkpt lat="45.6125813" lon="-73.5599883"/>
      <trkpt lat="45.6121908" lon="-73.5603219"/>
      <trkpt lat="45.6110624" lon="-73.5613086"/>
      <trkpt lat="45.6096679" lon="-73.5625743"/>
      <trkpt lat="45.6080571" lon="-73.5640442"/>
      <trkpt lat="45.606803" lon="-73.5673003"/>
      <trkpt lat="45.6051134" lon="-73.5691855"/>
      <trkpt lat="45.6026492" lon="-73.5689935"/>
      <trkpt lat="45.6028927" lon="-73.5695909"/>
      <trkpt lat="45.6032687" lon="-73.570455"/>
      <trkpt lat="45.6036187" lon="-73.5712858"/>
      <trkpt lat="45.6044581" lon="-73.5732253"/>
      <trkpt lat="45.6050115" lon="-73.572748"/>
      <trkpt lat="45.6061123" lon="-73.5717859"/>
      <trkpt lat="45.606753" lon="-73.571229"/>
      <trkpt lat="45.6068383" lon="-73.5708344"/>
      <trkpt lat="45.6051134" lon="-73.5691855"/>
      <trkpt lat="45.6026492" lon="-73.5689935"/>
      <trkpt lat="45.6028927" lon="-73.5695909"/>
      <trkpt lat="45.6032687" lon="-73.570455"/>
      <trkpt lat="45.6036187" lon="-73.5712858"/>
      <trkpt lat="45.6044581" lon="-73.5732253"/>
      <trkpt lat="45.6043848" lon="-73.5732869"/>
      <trkpt lat="45.603614" lon="-73.5739764"/>
      <trkpt lat="45.6043848" lon="-73.5732869"/>
      <trkpt lat="45.6044581" lon="-73.5732253"/>
      <trkpt lat="45.6050115" lon="-73.572748"/>
      <trkpt lat="45.6044581" lon="-73.5732253"/>
      <trkpt lat="45.6043848" lon="-73.5732869"/>
      <trkpt lat="45.603614" lon="-73.5739764"/>
      <trkpt lat="45.6039689" lon="-73.5747936"/>
      <trkpt lat="45.6049254" lon="-73.5770195"/>
      <trkpt lat="45.6038402" lon="-73.5779598"/>
      <trkpt lat="45.6033094" lon="-73.578425"/>
      <trkpt lat="45.6037135" lon="-73.5793759"/>
      <trkpt lat="45.604687" lon="-73.5816184"/>
      <trkpt lat="45.6045776" lon="-73.581675"/>
      <trkpt lat="45.6036242" lon="-73.5794585"/>
      <trkpt lat="45.6032196" lon="-73.5785055"/>
      <trkpt lat="45.6023341" lon="-73.5764461"/>
      <trkpt lat="45.6019096" lon="-73.5754605"/>
      <trkpt lat="45.6019966" lon="-73.5753847"/>
      <trkpt lat="45.6025269" lon="-73.5749196"/>
      <trkpt lat="45.603614" lon="-73.5739764"/>
      <trkpt lat="45.6039689" lon="-73.5747936"/>
      <trkpt lat="45.6049254" lon="-73.5770195"/>
      <trkpt lat="45.6038402" lon="-73.5779598"/>
      <trkpt lat="45.6033094" lon="-73.578425"/>
      <trkpt lat="45.6037135" lon="-73.5793759"/>
      <trkpt lat="45.604687" lon="-73.5816184"/>
      <trkpt lat="45.6045776" lon="-73.581675"/>
      <trkpt lat="45.6036242" lon="-73.5794585"/>
      <trkpt lat="45.6032196" lon="-73.5785055"/>
      <trkpt lat="45.6023341" lon="-73.5764461"/>
      <trkpt lat="45.6019096" lon="-73.5754605"/>
      <trkpt lat="45.6019966" lon="-73.5753847"/>
      <trkpt lat="45.6024205" lon="-73.5763704"/>
      <trkpt lat="45.6033094" lon="-73.578425"/>
      <trkpt lat="45.6037135" lon="-73.5793759"/>
      <trkpt lat="45.604687" lon="-73.5816184"/>
      <trkpt lat="45.6045776" lon="-73.581675"/>
      <trkpt lat="45.6036242" lon="-73.5794585"/>
      <trkpt lat="45.6032196" lon="-73.5785055"/>
      <trkpt lat="45.6023341" lon="-73.5764461"/>
      <trkpt lat="45.6019096" lon="-73.5754605"/>
      <trkpt lat="45.6019966" lon="-73.5753847"/>
      <trkpt lat="45.6019096" lon="-73.5754605"/>
      <trkpt lat="45.6007148" lon="-73.5726776"/>
      <trkpt lat="45.5991388" lon="-73.569017"/>
      <trkpt lat="45.5986218" lon="-73.5692957"/>
      <trkpt lat="45.5990845" lon="-73.5688943"/>
      <trkpt lat="45.5991846" lon="-73.5688473"/>
      <trkpt lat="45.5992256" lon="-73.5689474"/>
      <trkpt lat="45.5993215" lon="-73.5691761"/>
      <trkpt lat="45.6007982" lon="-73.5725998"/>
      <trkpt lat="45.6013267" lon="-73.5721488"/>
      <trkpt lat="45.6006079" lon="-73.5704602"/>
      <trkpt lat="45.5988989" lon="-73.5719082"/>
      <trkpt lat="45.5991688" lon="-73.5725181"/>
      <trkpt lat="45.5996658" lon="-73.573708"/>
      <trkpt lat="45.6008444" lon="-73.576392"/>
      <trkpt lat="45.5996658" lon="-73.573708"/>
      <trkpt lat="45.5986311" lon="-73.5746329"/>
      <trkpt lat="45.5989127" lon="-73.575296"/>
      <trkpt lat="45.5993616" lon="-73.5775151"/>
      <trkpt lat="45.6001175" lon="-73.5770301"/>
      <trkpt lat="45.6008444" lon="-73.576392"/>
      <trkpt lat="45.6001175" lon="-73.5770301"/>
      <trkpt lat="45.6008444" lon="-73.576392"/>
      <trkpt lat="45.6019096" lon="-73.5754605"/>
      <trkpt lat="45.6008444" lon="-73.576392"/>
      <trkpt lat="45.6019096" lon="-73.5754605"/>
      <trkpt lat="45.6007148" lon="-73.5726776"/>
      <trkpt lat="45.5991388" lon="-73.569017"/>
      <trkpt lat="45.5986218" lon="-73.5692957"/>
      <trkpt lat="45.5975259" lon="-73.5702479"/>
      <trkpt lat="45.5986218" lon="-73.5692957"/>
      <trkpt lat="45.5975259" lon="-73.5702479"/>
      <trkpt lat="45.5971463" lon="-73.570584"/>
      <trkpt lat="45.5975259" lon="-73.5702479"/>
      <trkpt lat="45.5955606" lon="-73.5644272"/>
      <trkpt lat="45.5975259" lon="-73.5702479"/>
      <trkpt lat="45.5971463" lon="-73.570584"/>
      <trkpt lat="45.5976411" lon="-73.5723637"/>
      <trkpt lat="45.5986817" lon="-73.5714333"/>
      <trkpt lat="45.600405" lon="-73.5698807"/>
      <trkpt lat="45.6008948" lon="-73.569431"/>
      <trkpt lat="45.602648" lon="-73.5669999"/>
      <trkpt lat="45.6052672" lon="-73.5639469"/>
      <trkpt lat="45.6058916" lon="-73.5641707"/>
      <trkpt lat="45.6113126" lon="-73.5604006"/>
      <trkpt lat="45.61102" lon="-73.5597398"/>
      <trkpt lat="45.6106507" lon="-73.5588885"/>
      <trkpt lat="45.6102953" lon="-73.5580542"/>
      <trkpt lat="45.6099269" lon="-73.5572226"/>
      <trkpt lat="45.6098844" lon="-73.5571154"/>
      <trkpt lat="45.6105032" lon="-73.5567267"/>
      <trkpt lat="45.611657" lon="-73.5557201"/>
      <trkpt lat="45.6122913" lon="-73.5552316"/>
      <trkpt lat="45.6124356" lon="-73.5552613"/>
      <trkpt lat="45.6131519" lon="-73.5569021"/>
      <trkpt lat="45.6133533" lon="-73.5574034"/>
      <trkpt lat="45.613396" lon="-73.5575026"/>
      <trkpt lat="45.6135401" lon="-73.5577946"/>
      <trkpt lat="45.6142944" lon="-73.5595028"/>
      <trkpt lat="45.6144508" lon="-73.5583827"/>
      <trkpt lat="45.6134612" lon="-73.5592594"/>
      <trkpt lat="45.6133502" lon="-73.5593623"/>
      <trkpt lat="45.6125813" lon="-73.5599883"/>
      <trkpt lat="45.6121908" lon="-73.5603219"/>
      <trkpt lat="45.6110624" lon="-73.5613086"/>
      <trkpt lat="45.6096679" lon="-73.5625743"/>
      <trkpt lat="45.6080571" lon="-73.5640442"/>
      <trkpt lat="45.606803" lon="-73.5673003"/>
      <trkpt lat="45.6074124" lon="-73.5702952"/>
      <trkpt lat="45.6076118" lon="-73.5707617"/>
      <trkpt lat="45.6081011" lon="-73.5719002"/>
      <trkpt lat="45.6093455" lon="-73.5750706"/>
      <trkpt lat="45.6103465" lon="-73.5781649"/>
      <trkpt lat="45.6108514" lon="-73.5796389"/>
      <trkpt lat="45.6112814" lon="-73.5809465"/>
      <trkpt lat="45.6113329" lon="-73.5811084"/>
      <trkpt lat="45.6107746" lon="-73.5815938"/>
      <trkpt lat="45.6092802" lon="-73.5828216"/>
      <trkpt lat="45.6107224" lon="-73.5814371"/>
      <trkpt lat="45.6112814" lon="-73.5809465"/>
      <trkpt lat="45.6113329" lon="-73.5811084"/>
      <trkpt lat="45.6107746" lon="-73.5815938"/>
      <trkpt lat="45.6092802" lon="-73.5828216"/>
      <trkpt lat="45.6090409" lon="-73.583039"/>
      <trkpt lat="45.6092802" lon="-73.5828216"/>
      <trkpt lat="45.6090409" lon="-73.583039"/>
      <trkpt lat="45.6096026" lon="-73.5843326"/>
      <trkpt lat="45.6090409" lon="-73.583039"/>
      <trkpt lat="45.6096026" lon="-73.5843326"/>
      <trkpt lat="45.6120495" lon="-73.5911853"/>
      <trkpt lat="45.6135721" lon="-73.5901891"/>
      <trkpt lat="45.6129753" lon="-73.5883504"/>
      <trkpt lat="45.6118001" lon="-73.5847394"/>
      <trkpt lat="45.6107527" lon="-73.5808033"/>
      <trkpt lat="45.609169" lon="-73.5758523"/>
      <trkpt lat="45.6065435" lon="-73.5699162"/>
      <trkpt lat="45.6055397" lon="-73.5687015"/>
      <trkpt lat="45.6031214" lon="-73.5631421"/>
      <trkpt lat="45.6002654" lon="-73.5562438"/>
      <trkpt lat="45.5993465" lon="-73.5546089"/>
      <trkpt lat="45.5987937" lon="-73.5533796"/>
      <trkpt lat="45.598089" lon="-73.5539761"/>
      <trkpt lat="45.59677" lon="-73.5551241"/>
      <trkpt lat="45.5968104" lon="-73.5553538"/>
      <trkpt lat="45.5992263" lon="-73.5579153"/>
      <trkpt lat="45.6000481" lon="-73.5597929"/>
      <trkpt lat="45.6015009" lon="-73.5595141"/>
      <trkpt lat="45.6003632" lon="-73.5569108"/>
      <trkpt lat="45.5993465" lon="-73.5546089"/>
      <trkpt lat="45.5987937" lon="-73.5533796"/>
      <trkpt lat="45.5987233" lon="-73.553218"/>
      <trkpt lat="45.597125" lon="-73.5496339"/>
      <trkpt lat="45.5966102" lon="-73.5501508"/>
      <trkpt lat="45.596934" lon="-73.550996"/>
      <trkpt lat="45.597256" lon="-73.5518137"/>
      <trkpt lat="45.59737" lon="-73.5520983"/>
      <trkpt lat="45.5976837" lon="-73.5529292"/>
      <trkpt lat="45.5980223" lon="-73.5538145"/>
      <trkpt lat="45.5987233" lon="-73.553218"/>
      <trkpt lat="45.597125" lon="-73.5496339"/>
      <trkpt lat="45.5966102" lon="-73.5501508"/>
      <trkpt lat="45.5964497" lon="-73.5502963"/>
      <trkpt lat="45.5959443" lon="-73.5507748"/>
      <trkpt lat="45.59549" lon="-73.5512455"/>
      <trkpt lat="45.5964023" lon="-73.5540084"/>
      <trkpt lat="45.5967133" lon="-73.5549321"/>
      <trkpt lat="45.5980223" lon="-73.5538145"/>
      <trkpt lat="45.598089" lon="-73.5539761"/>
      <trkpt lat="45.59677" lon="-73.5551241"/>
      <trkpt lat="45.5966933" lon="-73.5551907"/>
      <trkpt lat="45.5952033" lon="-73.556415"/>
      <trkpt lat="45.595117" lon="-73.5564896"/>
      <trkpt lat="45.5950692" lon="-73.5563372"/>
      <trkpt lat="45.5951553" lon="-73.5562619"/>
      <trkpt lat="45.5966121" lon="-73.5550267"/>
      <trkpt lat="45.5963025" lon="-73.5540973"/>
      <trkpt lat="45.5958753" lon="-73.5544582"/>
      <trkpt lat="45.5948471" lon="-73.5553343"/>
      <trkpt lat="45.5947558" lon="-73.5554138"/>
      <trkpt lat="45.5939286" lon="-73.5529101"/>
      <trkpt lat="45.5933836" lon="-73.551291"/>
      <trkpt lat="45.592973" lon="-73.5501752"/>
      <trkpt lat="45.5920592" lon="-73.5492338"/>
      <trkpt lat="45.5921141" lon="-73.5491331"/>
      <trkpt lat="45.5930345" lon="-73.550074"/>
      <trkpt lat="45.5934626" lon="-73.5512035"/>
      <trkpt lat="45.5933836" lon="-73.551291"/>
      <trkpt lat="45.592973" lon="-73.5501752"/>
      <trkpt lat="45.5930345" lon="-73.550074"/>
      <trkpt lat="45.5934626" lon="-73.5512035"/>
      <trkpt lat="45.5940127" lon="-73.5528534"/>
      <trkpt lat="45.5948471" lon="-73.5553343"/>
      <trkpt lat="45.5951553" lon="-73.5562619"/>
      <trkpt lat="45.5966121" lon="-73.5550267"/>
      <trkpt lat="45.5967133" lon="-73.5549321"/>
      <trkpt lat="45.59677" lon="-73.5551241"/>
      <trkpt lat="45.5966933" lon="-73.5551907"/>
      <trkpt lat="45.5966121" lon="-73.5550267"/>
      <trkpt lat="45.5967133" lon="-73.5549321"/>
      <trkpt lat="45.5980223" lon="-73.5538145"/>
      <trkpt lat="45.5987233" lon="-73.553218"/>
      <trkpt lat="45.597125" lon="-73.5496339"/>
      <trkpt lat="45.5966102" lon="-73.5501508"/>
      <trkpt lat="45.5964497" lon="-73.5502963"/>
      <trkpt lat="45.5959443" lon="-73.5507748"/>
      <trkpt lat="45.5958872" lon="-73.5506581"/>
      <trkpt lat="45.5963998" lon="-73.5501861"/>
      <trkpt lat="45.5965598" lon="-73.5500351"/>
      <trkpt lat="45.5970758" lon="-73.5495214"/>
      <trkpt lat="45.5975319" lon="-73.5491276"/>
      <trkpt lat="45.5975702" lon="-73.5492153"/>
      <trkpt lat="45.5979031" lon="-73.5499787"/>
      <trkpt lat="45.5982351" lon="-73.5507227"/>
      <trkpt lat="45.5987127" lon="-73.5517832"/>
      <trkpt lat="45.5992293" lon="-73.552928"/>
      <trkpt lat="45.5996859" lon="-73.5539499"/>
      <trkpt lat="45.600248" lon="-73.5552019"/>
      <trkpt lat="45.6019663" lon="-73.5541567"/>
      <trkpt lat="45.6018269" lon="-73.5533095"/>
      <trkpt lat="45.601042" lon="-73.5524414"/>
      <trkpt lat="45.6009547" lon="-73.5524226"/>
      <trkpt lat="45.6004168" lon="-73.5520844"/>
      <trkpt lat="45.60026" lon="-73.5517194"/>
      <trkpt lat="45.6001119" lon="-73.5514594"/>
      <trkpt lat="45.5997796" lon="-73.5506884"/>
      <trkpt lat="45.5995137" lon="-73.549844"/>
      <trkpt lat="45.5992419" lon="-73.548967"/>
      <trkpt lat="45.5990016" lon="-73.5481946"/>
      <trkpt lat="45.5975702" lon="-73.5492153"/>
      <trkpt lat="45.5979031" lon="-73.5499787"/>
      <trkpt lat="45.5982351" lon="-73.5507227"/>
      <trkpt lat="45.5987127" lon="-73.5517832"/>
      <trkpt lat="45.5992293" lon="-73.552928"/>
      <trkpt lat="45.5996859" lon="-73.5539499"/>
      <trkpt lat="45.600248" lon="-73.5552019"/>
      <trkpt lat="45.6022265" lon="-73.5597343"/>
      <trkpt lat="45.6030106" lon="-73.5593023"/>
      <trkpt lat="45.6031948" lon="-73.5591626"/>
      <trkpt lat="45.603455" lon="-73.5590678"/>
      <trkpt lat="45.6045259" lon="-73.5588588"/>
      <trkpt lat="45.605307" lon="-73.5587709"/>
      <trkpt lat="45.6053388" lon="-73.5543705"/>
      <trkpt lat="45.605296" lon="-73.5533926"/>
      <trkpt lat="45.6054073" lon="-73.5533661"/>
      <trkpt lat="45.6054529" lon="-73.5543791"/>
      <trkpt lat="45.6054174" lon="-73.5587574"/>
      <trkpt lat="45.6054128" lon="-73.5588756"/>
      <trkpt lat="45.6053115" lon="-73.5588906"/>
      <trkpt lat="45.605307" lon="-73.5587709"/>
      <trkpt lat="45.6053388" lon="-73.5543705"/>
      <trkpt lat="45.605296" lon="-73.5533926"/>
      <trkpt lat="45.6052472" lon="-73.5526545"/>
      <trkpt lat="45.6051731" lon="-73.5517636"/>
      <trkpt lat="45.6050906" lon="-73.5508033"/>
      <trkpt lat="45.6049967" lon="-73.5499215"/>
      <trkpt lat="45.6047761" lon="-73.5481447"/>
      <trkpt lat="45.6045295" lon="-73.5464045"/>
      <trkpt lat="45.603465" lon="-73.546521"/>
      <trkpt lat="45.6024471" lon="-73.5466926"/>
      <trkpt lat="45.6013908" lon="-73.5469686"/>
      <trkpt lat="45.6004748" lon="-73.5473324"/>
      <trkpt lat="45.6004531" lon="-73.5472432"/>
      <trkpt lat="45.6013714" lon="-73.5468675"/>
      <trkpt lat="45.6024325" lon="-73.5465599"/>
      <trkpt lat="45.6034566" lon="-73.546378"/>
      <trkpt lat="45.603465" lon="-73.546521"/>
      <trkpt lat="45.6024471" lon="-73.5466926"/>
      <trkpt lat="45.6013908" lon="-73.5469686"/>
      <trkpt lat="45.6004748" lon="-73.5473324"/>
      <trkpt lat="45.6004531" lon="-73.5472432"/>
      <trkpt lat="45.6013714" lon="-73.5468675"/>
      <trkpt lat="45.6024325" lon="-73.5465599"/>
      <trkpt lat="45.6024471" lon="-73.5466926"/>
      <trkpt lat="45.6013908" lon="-73.5469686"/>
      <trkpt lat="45.6004748" lon="-73.5473324"/>
      <trkpt lat="45.6004531" lon="-73.5472432"/>
      <trkpt lat="45.6004748" lon="-73.5473324"/>
      <trkpt lat="45.5990016" lon="-73.5481946"/>
      <trkpt lat="45.5975702" lon="-73.5492153"/>
      <trkpt lat="45.5979031" lon="-73.5499787"/>
      <trkpt lat="45.5982351" lon="-73.5507227"/>
      <trkpt lat="45.5987127" lon="-73.5517832"/>
      <trkpt lat="45.5992293" lon="-73.552928"/>
      <trkpt lat="45.5996859" lon="-73.5539499"/>
      <trkpt lat="45.600248" lon="-73.5552019"/>
      <trkpt lat="45.6022265" lon="-73.5597343"/>
      <trkpt lat="45.6030106" lon="-73.5593023"/>
      <trkpt lat="45.6022265" lon="-73.5597343"/>
      <trkpt lat="45.6035571" lon="-73.5621989"/>
      <trkpt lat="45.6052672" lon="-73.5639469"/>
      <trkpt lat="45.6058916" lon="-73.5641707"/>
      <trkpt lat="45.6113126" lon="-73.5604006"/>
      <trkpt lat="45.61102" lon="-73.5597398"/>
      <trkpt lat="45.6106507" lon="-73.5588885"/>
      <trkpt lat="45.6102953" lon="-73.5580542"/>
      <trkpt lat="45.6099269" lon="-73.5572226"/>
      <trkpt lat="45.6098844" lon="-73.5571154"/>
      <trkpt lat="45.6105032" lon="-73.5567267"/>
      <trkpt lat="45.611657" lon="-73.5557201"/>
      <trkpt lat="45.6122913" lon="-73.5552316"/>
      <trkpt lat="45.6124356" lon="-73.5552613"/>
      <trkpt lat="45.6123234" lon="-73.5553021"/>
      <trkpt lat="45.611703" lon="-73.5558242"/>
      <trkpt lat="45.6105416" lon="-73.5568342"/>
      <trkpt lat="45.6099269" lon="-73.5572226"/>
      <trkpt lat="45.6092382" lon="-73.5575974"/>
      <trkpt lat="45.6085926" lon="-73.5579129"/>
      <trkpt lat="45.6072873" lon="-73.5584219"/>
      <trkpt lat="45.6068733" lon="-73.5585489"/>
      <trkpt lat="45.6062463" lon="-73.5587112"/>
      <trkpt lat="45.6062434" lon="-73.55859"/>
      <trkpt lat="45.606872" lon="-73.5584216"/>
      <trkpt lat="45.6072684" lon="-73.5583005"/>
      <trkpt lat="45.6085675" lon="-73.5577996"/>
      <trkpt lat="45.609211" lon="-73.5574893"/>
      <trkpt lat="45.6098844" lon="-73.5571154"/>
      <trkpt lat="45.6105032" lon="-73.5567267"/>
      <trkpt lat="45.611657" lon="-73.5557201"/>
      <trkpt lat="45.6122913" lon="-73.5552316"/>
      <trkpt lat="45.6124356" lon="-73.5552613"/>
      <trkpt lat="45.6131519" lon="-73.5569021"/>
      <trkpt lat="45.6133533" lon="-73.5574034"/>
      <trkpt lat="45.613396" lon="-73.5575026"/>
      <trkpt lat="45.6135401" lon="-73.5577946"/>
      <trkpt lat="45.6142944" lon="-73.5595028"/>
      <trkpt lat="45.6144508" lon="-73.5583827"/>
      <trkpt lat="45.6134612" lon="-73.5592594"/>
      <trkpt lat="45.6127145" lon="-73.5596323"/>
      <trkpt lat="45.6082308" lon="-73.5635835"/>
    </trkseg>
  </trk>
</gpx>
