<?xml version="1.0" ?>
<gpx xmlns="http://www.topografix.com/GPX/1/1" version="1.1" creator="ERO1">
  <trk>
    <name>riviere_des_prairies — baseline — zone 0</name>
    <trkseg>
      <trkpt lat="45.6865254" lon="-73.4924264"/>
      <trkpt lat="45.687279" lon="-73.4923561"/>
      <trkpt lat="45.6856472" lon="-73.4921765"/>
      <trkpt lat="45.6849718" lon="-73.4918594"/>
      <trkpt lat="45.6847707" lon="-73.4917844"/>
      <trkpt lat="45.6839251" lon="-73.4918257"/>
      <trkpt lat="45.6837463" lon="-73.4918704"/>
      <trkpt lat="45.6830819" lon="-73.4920532"/>
      <trkpt lat="45.6829016" lon="-73.4919728"/>
      <trkpt lat="45.6830819" lon="-73.4920532"/>
      <trkpt lat="45.6837463" lon="-73.4918704"/>
      <trkpt lat="45.6839251" lon="-73.4918257"/>
      <trkpt lat="45.6847707" lon="-73.4917844"/>
      <trkpt lat="45.6849037" lon="-73.4918322"/>
      <trkpt lat="45.6847707" lon="-73.4917844"/>
      <trkpt lat="45.6849037" lon="-73.4918322"/>
      <trkpt lat="45.6849718" lon="-73.4918594"/>
      <trkpt lat="45.6849037" lon="-73.4918322"/>
      <trkpt lat="45.6849027" lon="-73.4905846"/>
      <trkpt lat="45.6873057" lon="-73.4899213"/>
      <trkpt lat="45.6870582" lon="-73.4883079"/>
      <trkpt lat="45.6873057" lon="-73.4899213"/>
      <trkpt lat="45.6875249" lon="-73.4898581"/>
      <trkpt lat="45.6882452" lon="-73.4896589"/>
      <trkpt lat="45.6880148" lon="-73.488145"/>
      <trkpt lat="45.6876454" lon="-73.4882747"/>
      <trkpt lat="45.6880148" lon="-73.488145"/>
      <trkpt lat="45.6879485" lon="-73.4877032"/>
      <trkpt lat="45.6880148" lon="-73.488145"/>
      <trkpt lat="45.6882452" lon="-73.4896589"/>
      <trkpt lat="45.689027" lon="-73.4894494"/>
      <trkpt lat="45.6898077" lon="-73.4892309"/>
      <trkpt lat="45.6905225" lon="-73.4890304"/>
      <trkpt lat="45.6898077" lon="-73.4892309"/>
      <trkpt lat="45.689027" lon="-73.4894494"/>
      <trkpt lat="45.6896131" lon="-73.4929286"/>
      <trkpt lat="45.6895315" lon="-73.4929543"/>
      <trkpt lat="45.6896131" lon="-73.4929286"/>
      <trkpt lat="45.6903272" lon="-73.4927095"/>
      <trkpt lat="45.6918035" lon="-73.4922993"/>
      <trkpt lat="45.6933202" lon="-73.491834"/>
      <trkpt lat="45.6941575" lon="-73.4915734"/>
      <trkpt lat="45.6969452" lon="-73.489696"/>
      <trkpt lat="45.6971412" lon="-73.4907143"/>
      <trkpt lat="45.6969452" lon="-73.489696"/>
      <trkpt lat="45.6972971" lon="-73.4885096"/>
      <trkpt lat="45.6974687" lon="-73.4873029"/>
      <trkpt lat="45.6979856" lon="-73.4876709"/>
      <trkpt lat="45.6974687" lon="-73.4873029"/>
      <trkpt lat="45.6979856" lon="-73.4876709"/>
      <trkpt lat="45.6981194" lon="-73.4877635"/>
      <trkpt lat="45.6984543" lon="-73.4845941"/>
      <trkpt lat="45.6983856" lon="-73.4845086"/>
      <trkpt lat="45.6983659" lon="-73.4842578"/>
      <trkpt lat="45.6985622" lon="-73.4840939"/>
      <trkpt lat="45.6994088" lon="-73.4837824"/>
      <trkpt lat="45.6994284" lon="-73.4837739"/>
      <trkpt lat="45.6999559" lon="-73.4837377"/>
      <trkpt lat="45.7002008" lon="-73.4844159"/>
      <trkpt lat="45.7005499" lon="-73.4845531"/>
      <trkpt lat="45.7007152" lon="-73.4837382"/>
      <trkpt lat="45.7005499" lon="-73.4845531"/>
      <trkpt lat="45.7004876" lon="-73.4848971"/>
      <trkpt lat="45.7005499" lon="-73.4845531"/>
      <trkpt lat="45.7002008" lon="-73.4844159"/>
      <trkpt lat="45.6998389" lon="-73.483821"/>
      <trkpt lat="45.6993373" lon="-73.4840611"/>
      <trkpt lat="45.698559" lon="-73.4852737"/>
      <trkpt lat="45.6982502" lon="-73.4878427"/>
      <trkpt lat="45.6989924" lon="-73.4883349"/>
      <trkpt lat="45.6997371" lon="-73.48884"/>
      <trkpt lat="45.7001888" lon="-73.4891537"/>
      <trkpt lat="45.6997371" lon="-73.48884"/>
      <trkpt lat="45.6989924" lon="-73.4883349"/>
      <trkpt lat="45.6982502" lon="-73.4878427"/>
      <trkpt lat="45.6981194" lon="-73.4877635"/>
      <trkpt lat="45.6979856" lon="-73.4876709"/>
      <trkpt lat="45.6971412" lon="-73.4907143"/>
      <trkpt lat="45.6973357" lon="-73.4910089"/>
      <trkpt lat="45.6981194" lon="-73.4877635"/>
      <trkpt lat="45.6984543" lon="-73.4845941"/>
      <trkpt lat="45.6983856" lon="-73.4845086"/>
      <trkpt lat="45.6953901" lon="-73.4872394"/>
      <trkpt lat="45.6958146" lon="-73.4863599"/>
      <trkpt lat="45.6953914" lon="-73.4856035"/>
      <trkpt lat="45.6948121" lon="-73.4862801"/>
      <trkpt lat="45.6945401" lon="-73.4858352"/>
      <trkpt lat="45.694247" lon="-73.4849891"/>
      <trkpt lat="45.6941414" lon="-73.4843077"/>
      <trkpt lat="45.6931087" lon="-73.4869362"/>
      <trkpt lat="45.6924435" lon="-73.4827717"/>
      <trkpt lat="45.6931087" lon="-73.4869362"/>
      <trkpt lat="45.6941414" lon="-73.4843077"/>
      <trkpt lat="45.6939234" lon="-73.48293"/>
      <trkpt lat="45.6941414" lon="-73.4843077"/>
      <trkpt lat="45.694247" lon="-73.4849891"/>
      <trkpt lat="45.694617" lon="-73.4827081"/>
      <trkpt lat="45.6952989" lon="-73.4824891"/>
      <trkpt lat="45.6954616" lon="-73.4834977"/>
      <trkpt lat="45.6952989" lon="-73.4824891"/>
      <trkpt lat="45.6964446" lon="-73.4821335"/>
      <trkpt lat="45.6962376" lon="-73.4807435"/>
      <trkpt lat="45.6967951" lon="-73.4808392"/>
      <trkpt lat="45.6976184" lon="-73.481837"/>
      <trkpt lat="45.6969093" lon="-73.4820167"/>
      <trkpt lat="45.6969739" lon="-73.4827196"/>
      <trkpt lat="45.6969093" lon="-73.4820167"/>
      <trkpt lat="45.6976184" lon="-73.481837"/>
      <trkpt lat="45.6969093" lon="-73.4820167"/>
      <trkpt lat="45.6967951" lon="-73.4808392"/>
      <trkpt lat="45.6976184" lon="-73.481837"/>
      <trkpt lat="45.6989973" lon="-73.4813036"/>
      <trkpt lat="45.699419" lon="-73.4811163"/>
      <trkpt lat="45.7013193" lon="-73.4802513"/>
      <trkpt lat="45.7010902" lon="-73.4817119"/>
      <trkpt lat="45.6990154" lon="-73.4818521"/>
      <trkpt lat="45.7010902" lon="-73.4817119"/>
      <trkpt lat="45.6990624" lon="-73.483075"/>
      <trkpt lat="45.7010902" lon="-73.4817119"/>
      <trkpt lat="45.7013193" lon="-73.4802513"/>
      <trkpt lat="45.7017232" lon="-73.4795529"/>
      <trkpt lat="45.7017232" lon="-73.4795529"/>
      <trkpt lat="45.7013193" lon="-73.4802513"/>
      <trkpt lat="45.699419" lon="-73.4811163"/>
      <trkpt lat="45.6993708" lon="-73.4800457"/>
      <trkpt lat="45.699419" lon="-73.4811163"/>
      <trkpt lat="45.6989973" lon="-73.4813036"/>
      <trkpt lat="45.6990154" lon="-73.4818521"/>
      <trkpt lat="45.6990624" lon="-73.483075"/>
      <trkpt lat="45.6990154" lon="-73.4818521"/>
      <trkpt lat="45.6989973" lon="-73.4813036"/>
      <trkpt lat="45.6989519" lon="-73.4797192"/>
      <trkpt lat="45.6989973" lon="-73.4813036"/>
      <trkpt lat="45.6976184" lon="-73.481837"/>
      <trkpt lat="45.6969093" lon="-73.4820167"/>
      <trkpt lat="45.6964446" lon="-73.4821335"/>
      <trkpt lat="45.6969093" lon="-73.4820167"/>
      <trkpt lat="45.6964446" lon="-73.4821335"/>
      <trkpt lat="45.6962376" lon="-73.4807435"/>
      <trkpt lat="45.6964446" lon="-73.4821335"/>
      <trkpt lat="45.6952989" lon="-73.4824891"/>
      <trkpt lat="45.694617" lon="-73.4827081"/>
      <trkpt lat="45.6939234" lon="-73.48293"/>
      <trkpt lat="45.6962376" lon="-73.4807435"/>
      <trkpt lat="45.6939234" lon="-73.48293"/>
      <trkpt lat="45.694617" lon="-73.4827081"/>
      <trkpt lat="45.694247" lon="-73.4849891"/>
      <trkpt lat="45.6945401" lon="-73.4858352"/>
      <trkpt lat="45.6948121" lon="-73.4862801"/>
      <trkpt lat="45.6953914" lon="-73.4856035"/>
      <trkpt lat="45.6957553" lon="-73.4851955"/>
      <trkpt lat="45.6954616" lon="-73.4834977"/>
      <trkpt lat="45.6957553" lon="-73.4851955"/>
      <trkpt lat="45.6953914" lon="-73.4856035"/>
      <trkpt lat="45.6958146" lon="-73.4863599"/>
      <trkpt lat="45.6971908" lon="-73.4848611"/>
      <trkpt lat="45.6969739" lon="-73.4827196"/>
      <trkpt lat="45.6964446" lon="-73.4821335"/>
      <trkpt lat="45.6969739" lon="-73.4827196"/>
      <trkpt lat="45.6971908" lon="-73.4848611"/>
      <trkpt lat="45.6978703" lon="-73.4841194"/>
      <trkpt lat="45.6976184" lon="-73.481837"/>
      <trkpt lat="45.6978703" lon="-73.4841194"/>
      <trkpt lat="45.6990624" lon="-73.483075"/>
      <trkpt lat="45.6978703" lon="-73.4841194"/>
      <trkpt lat="45.6971908" lon="-73.4848611"/>
      <trkpt lat="45.6958146" lon="-73.4863599"/>
      <trkpt lat="45.6953901" lon="-73.4872394"/>
      <trkpt lat="45.6948121" lon="-73.4862801"/>
      <trkpt lat="45.6953901" lon="-73.4872394"/>
      <trkpt lat="45.6975437" lon="-73.4848259"/>
      <trkpt lat="45.6994088" lon="-73.4837824"/>
      <trkpt lat="45.6994284" lon="-73.4837739"/>
      <trkpt lat="45.7012533" lon="-73.4834701"/>
      <trkpt lat="45.6999559" lon="-73.4837377"/>
      <trkpt lat="45.6998389" lon="-73.483821"/>
      <trkpt lat="45.6993373" lon="-73.4840611"/>
      <trkpt lat="45.6986958" lon="-73.4844962"/>
      <trkpt lat="45.6984543" lon="-73.4845941"/>
      <trkpt lat="45.6983856" lon="-73.4845086"/>
      <trkpt lat="45.6953901" lon="-73.4872394"/>
      <trkpt lat="45.6933914" lon="-73.488243"/>
      <trkpt lat="45.6935314" lon="-73.4892593"/>
      <trkpt lat="45.6935314" lon="-73.4892593"/>
      <trkpt lat="45.6933914" lon="-73.488243"/>
      <trkpt lat="45.6925873" lon="-73.488462"/>
      <trkpt lat="45.6933914" lon="-73.488243"/>
      <trkpt lat="45.6953901" lon="-73.4872394"/>
      <trkpt lat="45.6975437" lon="-73.4848259"/>
      <trkpt lat="45.6983659" lon="-73.4842578"/>
      <trkpt lat="45.6985622" lon="-73.4840939"/>
      <trkpt lat="45.6986958" lon="-73.4844962"/>
      <trkpt lat="45.698559" lon="-73.4852737"/>
      <trkpt lat="45.6982502" lon="-73.4878427"/>
      <trkpt lat="45.6981124" lon="-73.4889203"/>
      <trkpt lat="45.6986847" lon="-73.4891892"/>
      <trkpt lat="45.6988289" lon="-73.4902833"/>
      <trkpt lat="45.6985662" lon="-73.4910942"/>
      <trkpt lat="45.6981194" lon="-73.4936121"/>
      <trkpt lat="45.6976124" lon="-73.4942831"/>
      <trkpt lat="45.6976892" lon="-73.4948018"/>
      <trkpt lat="45.6974271" lon="-73.4972317"/>
      <trkpt lat="45.6970078" lon="-73.4969336"/>
      <trkpt lat="45.6965021" lon="-73.497565"/>
      <trkpt lat="45.6960192" lon="-73.4995245"/>
      <trkpt lat="45.6958986" lon="-73.4969698"/>
      <trkpt lat="45.6960192" lon="-73.4995245"/>
      <trkpt lat="45.6967784" lon="-73.5002439"/>
      <trkpt lat="45.6989725" lon="-73.5084983"/>
      <trkpt lat="45.6987395" lon="-73.5096424"/>
      <trkpt lat="45.6943672" lon="-73.5097206"/>
      <trkpt lat="45.6680989" lon="-73.5190277"/>
      <trkpt lat="45.6556099" lon="-73.5217508"/>
      <trkpt lat="45.6545134" lon="-73.5230422"/>
      <trkpt lat="45.652018" lon="-73.5252436"/>
      <trkpt lat="45.6502931" lon="-73.5267474"/>
      <trkpt lat="45.6491289" lon="-73.5293242"/>
      <trkpt lat="45.648858" lon="-73.5295475"/>
      <trkpt lat="45.6487485" lon="-73.5296059"/>
      <trkpt lat="45.6475464" lon="-73.5268885"/>
      <trkpt lat="45.6476084" lon="-73.5267738"/>
      <trkpt lat="45.647957" lon="-73.5265096"/>
      <trkpt lat="45.6495002" lon="-73.5266649"/>
      <trkpt lat="45.6512179" lon="-73.5250935"/>
      <trkpt lat="45.6530332" lon="-73.5234912"/>
      <trkpt lat="45.6545164" lon="-73.5221872"/>
      <trkpt lat="45.6555652" lon="-73.5215732"/>
      <trkpt lat="45.6679046" lon="-73.5186951"/>
      <trkpt lat="45.693156" lon="-73.509964"/>
      <trkpt lat="45.6989725" lon="-73.5084983"/>
      <trkpt lat="45.6987395" lon="-73.5096424"/>
      <trkpt lat="45.6989725" lon="-73.5084983"/>
      <trkpt lat="45.6967784" lon="-73.5002439"/>
      <trkpt lat="45.6960192" lon="-73.4995245"/>
      <trkpt lat="45.6965021" lon="-73.497565"/>
      <trkpt lat="45.6971202" lon="-73.4981919"/>
      <trkpt lat="45.6965021" lon="-73.497565"/>
      <trkpt lat="45.6958986" lon="-73.4969698"/>
      <trkpt lat="45.6965021" lon="-73.497565"/>
      <trkpt lat="45.6970078" lon="-73.4969336"/>
      <trkpt lat="45.6958986" lon="-73.4969698"/>
      <trkpt lat="45.6970078" lon="-73.4969336"/>
      <trkpt lat="45.6974271" lon="-73.4972317"/>
      <trkpt lat="45.6971202" lon="-73.4981919"/>
      <trkpt lat="45.6967784" lon="-73.5002439"/>
      <trkpt lat="45.6971202" lon="-73.4981919"/>
      <trkpt lat="45.6974271" lon="-73.4972317"/>
      <trkpt lat="45.6976892" lon="-73.4948018"/>
      <trkpt lat="45.6966553" lon="-73.4952878"/>
      <trkpt lat="45.6976892" lon="-73.4948018"/>
      <trkpt lat="45.6976124" lon="-73.4942831"/>
      <trkpt lat="45.6981194" lon="-73.4936121"/>
      <trkpt lat="45.6985662" lon="-73.4910942"/>
      <trkpt lat="45.6988289" lon="-73.4902833"/>
      <trkpt lat="45.6986847" lon="-73.4891892"/>
      <trkpt lat="45.6981124" lon="-73.4889203"/>
      <trkpt lat="45.6975306" lon="-73.4909401"/>
      <trkpt lat="45.6974483" lon="-73.4911438"/>
      <trkpt lat="45.6973357" lon="-73.4910089"/>
      <trkpt lat="45.6971412" lon="-73.4907143"/>
      <trkpt lat="45.696526" lon="-73.4908688"/>
      <trkpt lat="45.6971412" lon="-73.4907143"/>
      <trkpt lat="45.6969452" lon="-73.489696"/>
      <trkpt lat="45.6967879" lon="-73.4886458"/>
      <trkpt lat="45.6969452" lon="-73.489696"/>
      <trkpt lat="45.6941575" lon="-73.4915734"/>
      <trkpt lat="45.6967879" lon="-73.4886458"/>
      <trkpt lat="45.696772" lon="-73.4885385"/>
      <trkpt lat="45.6967879" lon="-73.4886458"/>
      <trkpt lat="45.696772" lon="-73.4885385"/>
      <trkpt lat="45.6972971" lon="-73.4885096"/>
      <trkpt lat="45.696772" lon="-73.4885385"/>
      <trkpt lat="45.6965861" lon="-73.487305"/>
      <trkpt lat="45.696772" lon="-73.4885385"/>
      <trkpt lat="45.6972971" lon="-73.4885096"/>
      <trkpt lat="45.6974687" lon="-73.4873029"/>
      <trkpt lat="45.6965861" lon="-73.487305"/>
      <trkpt lat="45.6954619" lon="-73.4876829"/>
      <trkpt lat="45.6965861" lon="-73.487305"/>
      <trkpt lat="45.6974687" lon="-73.4873029"/>
      <trkpt lat="45.6972971" lon="-73.4885096"/>
      <trkpt lat="45.6969452" lon="-73.489696"/>
      <trkpt lat="45.6941575" lon="-73.4915734"/>
      <trkpt lat="45.6933202" lon="-73.491834"/>
      <trkpt lat="45.6937173" lon="-73.4944276"/>
      <trkpt lat="45.6933202" lon="-73.491834"/>
      <trkpt lat="45.6918035" lon="-73.4922993"/>
      <trkpt lat="45.691957" lon="-73.4932567"/>
      <trkpt lat="45.6922323" lon="-73.4949766"/>
      <trkpt lat="45.6915205" lon="-73.4952475"/>
      <trkpt lat="45.6922323" lon="-73.4949766"/>
      <trkpt lat="45.6929434" lon="-73.4947082"/>
      <trkpt lat="45.6922323" lon="-73.4949766"/>
      <trkpt lat="45.691957" lon="-73.4932567"/>
      <trkpt lat="45.6915205" lon="-73.4952475"/>
      <trkpt lat="45.6907741" lon="-73.4955165"/>
      <trkpt lat="45.6915205" lon="-73.4952475"/>
      <trkpt lat="45.691957" lon="-73.4932567"/>
      <trkpt lat="45.6929434" lon="-73.4947082"/>
      <trkpt lat="45.6937173" lon="-73.4944276"/>
      <trkpt lat="45.6933202" lon="-73.491834"/>
      <trkpt lat="45.6941575" lon="-73.4915734"/>
      <trkpt lat="45.6947589" lon="-73.4930576"/>
      <trkpt lat="45.6937173" lon="-73.4944276"/>
      <trkpt lat="45.6947589" lon="-73.4930576"/>
      <trkpt lat="45.696526" lon="-73.4908688"/>
      <trkpt lat="45.6968427" lon="-73.4915396"/>
      <trkpt lat="45.696526" lon="-73.4908688"/>
      <trkpt lat="45.6947589" lon="-73.4930576"/>
      <trkpt lat="45.6937173" lon="-73.4944276"/>
      <trkpt lat="45.6940736" lon="-73.4960764"/>
      <trkpt lat="45.6941425" lon="-73.4962779"/>
      <trkpt lat="45.6940736" lon="-73.4960764"/>
      <trkpt lat="45.6959153" lon="-73.4937746"/>
      <trkpt lat="45.6960372" lon="-73.4939131"/>
      <trkpt lat="45.6959153" lon="-73.4937746"/>
      <trkpt lat="45.6970076" lon="-73.4916877"/>
      <trkpt lat="45.6973357" lon="-73.4910089"/>
      <trkpt lat="45.6981194" lon="-73.4877635"/>
      <trkpt lat="45.6982502" lon="-73.4878427"/>
      <trkpt lat="45.6981124" lon="-73.4889203"/>
      <trkpt lat="45.6975306" lon="-73.4909401"/>
      <trkpt lat="45.6975148" lon="-73.491219"/>
      <trkpt lat="45.6972749" lon="-73.4921563"/>
      <trkpt lat="45.6971071" lon="-73.4918539"/>
      <trkpt lat="45.6970076" lon="-73.4916877"/>
      <trkpt lat="45.6973357" lon="-73.4910089"/>
      <trkpt lat="45.6974483" lon="-73.4911438"/>
      <trkpt lat="45.6975148" lon="-73.491219"/>
      <trkpt lat="45.6972749" lon="-73.4921563"/>
      <trkpt lat="45.6976124" lon="-73.4942831"/>
      <trkpt lat="45.6972749" lon="-73.4921563"/>
      <trkpt lat="45.6971071" lon="-73.4918539"/>
      <trkpt lat="45.6972749" lon="-73.4921563"/>
      <trkpt lat="45.6971071" lon="-73.4918539"/>
      <trkpt lat="45.6970076" lon="-73.4916877"/>
      <trkpt lat="45.6973357" lon="-73.4910089"/>
      <trkpt lat="45.6974483" lon="-73.4911438"/>
      <trkpt lat="45.6971071" lon="-73.4918539"/>
      <trkpt lat="45.6970076" lon="-73.4916877"/>
      <trkpt lat="45.6971071" lon="-73.4918539"/>
      <trkpt lat="45.6960372" lon="-73.4939131"/>
      <trkpt lat="45.6941425" lon="-73.4962779"/>
      <trkpt lat="45.6903543" lon="-73.4978486"/>
      <trkpt lat="45.6903166" lon="-73.4976412"/>
      <trkpt lat="45.6902028" lon="-73.4972958"/>
      <trkpt lat="45.6902837" lon="-73.4972666"/>
      <trkpt lat="45.6902028" lon="-73.4972958"/>
      <trkpt lat="45.6901439" lon="-73.4969111"/>
      <trkpt lat="45.6902252" lon="-73.4968881"/>
      <trkpt lat="45.6901439" lon="-73.4969111"/>
      <trkpt lat="45.6899667" lon="-73.4957707"/>
      <trkpt lat="45.6900478" lon="-73.4957508"/>
      <trkpt lat="45.6902252" lon="-73.4968881"/>
      <trkpt lat="45.6902837" lon="-73.4972666"/>
      <trkpt lat="45.6903166" lon="-73.4976412"/>
      <trkpt lat="45.6903543" lon="-73.4978486"/>
      <trkpt lat="45.6888278" lon="-73.498295"/>
      <trkpt lat="45.6840047" lon="-73.4999527"/>
      <trkpt lat="45.6810459" lon="-73.5009609"/>
      <trkpt lat="45.6790404" lon="-73.5016608"/>
      <trkpt lat="45.6790955" lon="-73.5019837"/>
      <trkpt lat="45.6792818" lon="-73.5030751"/>
      <trkpt lat="45.678876" lon="-73.5032157"/>
      <trkpt lat="45.6793307" lon="-73.5059052"/>
      <trkpt lat="45.680124" lon="-73.5056235"/>
      <trkpt lat="45.6796676" lon="-73.5029415"/>
      <trkpt lat="45.680124" lon="-73.5056235"/>
      <trkpt lat="45.6793307" lon="-73.5059052"/>
      <trkpt lat="45.6783482" lon="-73.5062541"/>
      <trkpt lat="45.6782041" lon="-73.5053871"/>
      <trkpt lat="45.6780262" lon="-73.5044365"/>
      <trkpt lat="45.6782041" lon="-73.5053871"/>
      <trkpt lat="45.6783482" lon="-73.5062541"/>
      <trkpt lat="45.6770119" lon="-73.5067233"/>
      <trkpt lat="45.6783482" lon="-73.5062541"/>
      <trkpt lat="45.6793307" lon="-73.5059052"/>
      <trkpt lat="45.678876" lon="-73.5032157"/>
      <trkpt lat="45.6778844" lon="-73.5035606"/>
      <trkpt lat="45.6780262" lon="-73.5044365"/>
      <trkpt lat="45.6778844" lon="-73.5035606"/>
      <trkpt lat="45.6772756" lon="-73.5037699"/>
      <trkpt lat="45.6778844" lon="-73.5035606"/>
      <trkpt lat="45.678876" lon="-73.5032157"/>
      <trkpt lat="45.6792818" lon="-73.5030751"/>
      <trkpt lat="45.6796676" lon="-73.5029415"/>
      <trkpt lat="45.6792818" lon="-73.5030751"/>
      <trkpt lat="45.6790955" lon="-73.5019837"/>
      <trkpt lat="45.6790404" lon="-73.5016608"/>
      <trkpt lat="45.6790259" lon="-73.5013955"/>
      <trkpt lat="45.6789843" lon="-73.5004591"/>
      <trkpt lat="45.6790259" lon="-73.5013955"/>
      <trkpt lat="45.6790404" lon="-73.5016608"/>
      <trkpt lat="45.6810459" lon="-73.5009609"/>
      <trkpt lat="45.6790404" lon="-73.5016608"/>
      <trkpt lat="45.6790259" lon="-73.5013955"/>
      <trkpt lat="45.6769499" lon="-73.5021297"/>
      <trkpt lat="45.6767779" lon="-73.5011864"/>
      <trkpt lat="45.676478" lon="-73.5012465"/>
      <trkpt lat="45.6763881" lon="-73.5013753"/>
      <trkpt lat="45.6763881" lon="-73.5013753"/>
      <trkpt lat="45.676478" lon="-73.5012465"/>
      <trkpt lat="45.6766614" lon="-73.4999981"/>
      <trkpt lat="45.6768886" lon="-73.4989822"/>
      <trkpt lat="45.6786783" lon="-73.4986328"/>
      <trkpt lat="45.6785357" lon="-73.4977407"/>
      <trkpt lat="45.6775064" lon="-73.4967035"/>
      <trkpt lat="45.6774323" lon="-73.4968869"/>
      <trkpt lat="45.6775064" lon="-73.4967035"/>
      <trkpt lat="45.6785357" lon="-73.4977407"/>
      <trkpt lat="45.6786783" lon="-73.4986328"/>
      <trkpt lat="45.6788368" lon="-73.4995112"/>
      <trkpt lat="45.6786783" lon="-73.4986328"/>
      <trkpt lat="45.6768886" lon="-73.4989822"/>
      <trkpt lat="45.6771239" lon="-73.4979299"/>
      <trkpt lat="45.6774323" lon="-73.4968869"/>
      <trkpt lat="45.6771239" lon="-73.4979299"/>
      <trkpt lat="45.6785357" lon="-73.4977407"/>
      <trkpt lat="45.6771239" lon="-73.4979299"/>
      <trkpt lat="45.6768886" lon="-73.4989822"/>
      <trkpt lat="45.6766614" lon="-73.4999981"/>
      <trkpt lat="45.6788368" lon="-73.4995112"/>
      <trkpt lat="45.6766614" lon="-73.4999981"/>
      <trkpt lat="45.676478" lon="-73.5012465"/>
      <trkpt lat="45.6767779" lon="-73.5011864"/>
      <trkpt lat="45.6789843" lon="-73.5004591"/>
      <trkpt lat="45.6788368" lon="-73.4995112"/>
      <trkpt lat="45.6789843" lon="-73.5004591"/>
      <trkpt lat="45.6767779" lon="-73.5011864"/>
      <trkpt lat="45.6769499" lon="-73.5021297"/>
      <trkpt lat="45.6769948" lon="-73.5023747"/>
      <trkpt lat="45.6769499" lon="-73.5021297"/>
      <trkpt lat="45.6769948" lon="-73.5023747"/>
      <trkpt lat="45.6790404" lon="-73.5016608"/>
      <trkpt lat="45.6769948" lon="-73.5023747"/>
      <trkpt lat="45.6790955" lon="-73.5019837"/>
      <trkpt lat="45.6810964" lon="-73.5012892"/>
      <trkpt lat="45.681263" lon="-73.502389"/>
      <trkpt lat="45.6802784" lon="-73.50273"/>
      <trkpt lat="45.6796676" lon="-73.5029415"/>
      <trkpt lat="45.6802784" lon="-73.50273"/>
      <trkpt lat="45.680423" lon="-73.5036027"/>
      <trkpt lat="45.6805821" lon="-73.5045629"/>
      <trkpt lat="45.680423" lon="-73.5036027"/>
      <trkpt lat="45.6802784" lon="-73.50273"/>
      <trkpt lat="45.681263" lon="-73.502389"/>
      <trkpt lat="45.6807226" lon="-73.5054109"/>
      <trkpt lat="45.680124" lon="-73.5056235"/>
      <trkpt lat="45.6807226" lon="-73.5054109"/>
      <trkpt lat="45.6805821" lon="-73.5045629"/>
      <trkpt lat="45.6807226" lon="-73.5054109"/>
      <trkpt lat="45.681263" lon="-73.502389"/>
      <trkpt lat="45.6810964" lon="-73.5012892"/>
      <trkpt lat="45.6810459" lon="-73.5009609"/>
      <trkpt lat="45.6810964" lon="-73.5012892"/>
      <trkpt lat="45.6810459" lon="-73.5009609"/>
      <trkpt lat="45.6840047" lon="-73.4999527"/>
      <trkpt lat="45.6845312" lon="-73.5034568"/>
      <trkpt lat="45.6856657" lon="-73.5109882"/>
      <trkpt lat="45.6856657" lon="-73.5109882"/>
      <trkpt lat="45.6845312" lon="-73.5034568"/>
      <trkpt lat="45.6852245" lon="-73.5032305"/>
      <trkpt lat="45.6850743" lon="-73.502254"/>
      <trkpt lat="45.6850047" lon="-73.5018007"/>
      <trkpt lat="45.6848695" lon="-73.5009211"/>
      <trkpt lat="45.6850047" lon="-73.5018007"/>
      <trkpt lat="45.6850743" lon="-73.502254"/>
      <trkpt lat="45.6852245" lon="-73.5032305"/>
      <trkpt lat="45.6853848" lon="-73.5031781"/>
      <trkpt lat="45.6857935" lon="-73.5030447"/>
      <trkpt lat="45.6853848" lon="-73.5031781"/>
      <trkpt lat="45.6852245" lon="-73.5032305"/>
      <trkpt lat="45.6845312" lon="-73.5034568"/>
      <trkpt lat="45.6840047" lon="-73.4999527"/>
      <trkpt lat="45.6888278" lon="-73.498295"/>
      <trkpt lat="45.6903166" lon="-73.4976412"/>
      <trkpt lat="45.6940736" lon="-73.4960764"/>
      <trkpt lat="45.6937173" lon="-73.4944276"/>
      <trkpt lat="45.6929434" lon="-73.4947082"/>
      <trkpt lat="45.691957" lon="-73.4932567"/>
      <trkpt lat="45.6918035" lon="-73.4922993"/>
      <trkpt lat="45.6903272" lon="-73.4927095"/>
      <trkpt lat="45.6896131" lon="-73.4929286"/>
      <trkpt lat="45.6897035" lon="-73.493519"/>
      <trkpt lat="45.6900478" lon="-73.4957508"/>
      <trkpt lat="45.6907741" lon="-73.4955165"/>
      <trkpt lat="45.6903272" lon="-73.4927095"/>
      <trkpt lat="45.6907741" lon="-73.4955165"/>
      <trkpt lat="45.6900478" lon="-73.4957508"/>
      <trkpt lat="45.6899667" lon="-73.4957707"/>
      <trkpt lat="45.6896231" lon="-73.493543"/>
      <trkpt lat="45.6899667" lon="-73.4957707"/>
      <trkpt lat="45.6896231" lon="-73.493543"/>
      <trkpt lat="45.6897035" lon="-73.493519"/>
      <trkpt lat="45.6896231" lon="-73.493543"/>
      <trkpt lat="45.6895315" lon="-73.4929543"/>
      <trkpt lat="45.689027" lon="-73.4894494"/>
      <trkpt lat="45.6898077" lon="-73.4892309"/>
      <trkpt lat="45.6905225" lon="-73.4890304"/>
      <trkpt lat="45.6906839" lon="-73.4900548"/>
      <trkpt lat="45.6922455" lon="-73.4902255"/>
      <trkpt lat="45.6925873" lon="-73.488462"/>
      <trkpt lat="45.6922455" lon="-73.4902255"/>
      <trkpt lat="45.6906839" lon="-73.4900548"/>
      <trkpt lat="45.6905225" lon="-73.4890304"/>
      <trkpt lat="45.6902137" lon="-73.4870081"/>
      <trkpt lat="45.6905225" lon="-73.4890304"/>
      <trkpt lat="45.6918602" lon="-73.4886641"/>
      <trkpt lat="45.6917486" lon="-73.4878506"/>
      <trkpt lat="45.6917486" lon="-73.4878506"/>
      <trkpt lat="45.6918602" lon="-73.4886641"/>
      <trkpt lat="45.6905225" lon="-73.4890304"/>
      <trkpt lat="45.6902137" lon="-73.4870081"/>
      <trkpt lat="45.6906467" lon="-73.4855694"/>
      <trkpt lat="45.6904849" lon="-73.4845043"/>
      <trkpt lat="45.6906467" lon="-73.4855694"/>
      <trkpt lat="45.6908386" lon="-73.4868253"/>
      <trkpt lat="45.6906467" lon="-73.4855694"/>
      <trkpt lat="45.6915453" lon="-73.4866198"/>
      <trkpt lat="45.6906467" lon="-73.4855694"/>
      <trkpt lat="45.6902137" lon="-73.4870081"/>
      <trkpt lat="45.6908386" lon="-73.4868253"/>
      <trkpt lat="45.6902137" lon="-73.4870081"/>
      <trkpt lat="45.6908386" lon="-73.4868253"/>
      <trkpt lat="45.6915453" lon="-73.4866198"/>
      <trkpt lat="45.6908386" lon="-73.4868253"/>
      <trkpt lat="45.6915453" lon="-73.4866198"/>
      <trkpt lat="45.6922498" lon="-73.4863875"/>
      <trkpt lat="45.6915453" lon="-73.4866198"/>
      <trkpt lat="45.6922498" lon="-73.4863875"/>
      <trkpt lat="45.6923773" lon="-73.4871802"/>
      <trkpt lat="45.6931087" lon="-73.4869362"/>
      <trkpt lat="45.6923773" lon="-73.4871802"/>
      <trkpt lat="45.6925873" lon="-73.488462"/>
      <trkpt lat="45.6918602" lon="-73.4886641"/>
      <trkpt lat="45.6925873" lon="-73.488462"/>
      <trkpt lat="45.6923773" lon="-73.4871802"/>
      <trkpt lat="45.6922498" lon="-73.4863875"/>
      <trkpt lat="45.6917574" lon="-73.4831977"/>
      <trkpt lat="45.6922498" lon="-73.4863875"/>
      <trkpt lat="45.6917574" lon="-73.4831977"/>
      <trkpt lat="45.6924435" lon="-73.4827717"/>
      <trkpt lat="45.6934232" lon="-73.4829635"/>
      <trkpt lat="45.6933164" lon="-73.4833316"/>
      <trkpt lat="45.6933164" lon="-73.4833316"/>
      <trkpt lat="45.6934232" lon="-73.4829635"/>
      <trkpt lat="45.6939234" lon="-73.48293"/>
      <trkpt lat="45.6934232" lon="-73.4829635"/>
      <trkpt lat="45.6924435" lon="-73.4827717"/>
      <trkpt lat="45.6917574" lon="-73.4831977"/>
      <trkpt lat="45.6904849" lon="-73.4845043"/>
      <trkpt lat="45.6892801" lon="-73.4857954"/>
      <trkpt lat="45.6898077" lon="-73.4892309"/>
      <trkpt lat="45.6902706" lon="-73.4922303"/>
      <trkpt lat="45.6898077" lon="-73.4892309"/>
      <trkpt lat="45.6892801" lon="-73.4857954"/>
      <trkpt lat="45.689027" lon="-73.4894494"/>
      <trkpt lat="45.6882452" lon="-73.4896589"/>
      <trkpt lat="45.6887245" lon="-73.4927527"/>
      <trkpt lat="45.6882452" lon="-73.4896589"/>
      <trkpt lat="45.6875249" lon="-73.4898581"/>
      <trkpt lat="45.6873057" lon="-73.4899213"/>
      <trkpt lat="45.6849027" lon="-73.4905846"/>
      <trkpt lat="45.6827707" lon="-73.4911627"/>
      <trkpt lat="45.6829016" lon="-73.4919728"/>
      <trkpt lat="45.6827707" lon="-73.4911627"/>
      <trkpt lat="45.6793352" lon="-73.4921006"/>
      <trkpt lat="45.6791164" lon="-73.4906261"/>
      <trkpt lat="45.6788728" lon="-73.4922057"/>
      <trkpt lat="45.6791164" lon="-73.4906261"/>
      <trkpt lat="45.6790678" lon="-73.4903148"/>
      <trkpt lat="45.6791164" lon="-73.4906261"/>
      <trkpt lat="45.6793352" lon="-73.4921006"/>
      <trkpt lat="45.6788728" lon="-73.4922057"/>
      <trkpt lat="45.6785985" lon="-73.4922523"/>
      <trkpt lat="45.6779724" lon="-73.4923697"/>
      <trkpt lat="45.6776937" lon="-73.4906696"/>
      <trkpt lat="45.6779724" lon="-73.4923697"/>
      <trkpt lat="45.6773508" lon="-73.492484"/>
      <trkpt lat="45.6770898" lon="-73.4925367"/>
      <trkpt lat="45.6764196" lon="-73.4926665"/>
      <trkpt lat="45.6761218" lon="-73.4927275"/>
      <trkpt lat="45.6760699" lon="-73.4927365"/>
      <trkpt lat="45.675856" lon="-73.4914896"/>
      <trkpt lat="45.675856" lon="-73.4914896"/>
      <trkpt lat="45.6760699" lon="-73.4927365"/>
      <trkpt lat="45.6754239" lon="-73.4928724"/>
      <trkpt lat="45.6745792" lon="-73.4930503"/>
      <trkpt lat="45.6744932" lon="-73.4940366"/>
      <trkpt lat="45.6745792" lon="-73.4930503"/>
      <trkpt lat="45.6737271" lon="-73.4932343"/>
      <trkpt lat="45.6735276" lon="-73.4920191"/>
      <trkpt lat="45.6737271" lon="-73.4932343"/>
      <trkpt lat="45.6731038" lon="-73.4933749"/>
      <trkpt lat="45.6723798" lon="-73.4935739"/>
      <trkpt lat="45.6726236" lon="-73.4950115"/>
      <trkpt lat="45.671623" lon="-73.4937635"/>
      <trkpt lat="45.6726236" lon="-73.4950115"/>
      <trkpt lat="45.6730282" lon="-73.494884"/>
      <trkpt lat="45.6726236" lon="-73.4950115"/>
      <trkpt lat="45.6723798" lon="-73.4935739"/>
      <trkpt lat="45.671623" lon="-73.4937635"/>
      <trkpt lat="45.6708572" lon="-73.493947"/>
      <trkpt lat="45.6705207" lon="-73.4919463"/>
      <trkpt lat="45.6708572" lon="-73.493947"/>
      <trkpt lat="45.6704631" lon="-73.494047"/>
      <trkpt lat="45.6707891" lon="-73.4960204"/>
      <trkpt lat="45.6704631" lon="-73.494047"/>
      <trkpt lat="45.669744" lon="-73.4942408"/>
      <trkpt lat="45.669913" lon="-73.491893"/>
      <trkpt lat="45.669744" lon="-73.4942408"/>
      <trkpt lat="45.6704631" lon="-73.494047"/>
      <trkpt lat="45.6708572" lon="-73.493947"/>
      <trkpt lat="45.671623" lon="-73.4937635"/>
      <trkpt lat="45.6713077" lon="-73.4919636"/>
      <trkpt lat="45.671623" lon="-73.4937635"/>
      <trkpt lat="45.6723798" lon="-73.4935739"/>
      <trkpt lat="45.6721898" lon="-73.49265"/>
      <trkpt lat="45.6721898" lon="-73.49265"/>
      <trkpt lat="45.6723798" lon="-73.4935739"/>
      <trkpt lat="45.6731038" lon="-73.4933749"/>
      <trkpt lat="45.6727989" lon="-73.491503"/>
      <trkpt lat="45.6731038" lon="-73.4933749"/>
      <trkpt lat="45.6737271" lon="-73.4932343"/>
      <trkpt lat="45.6745792" lon="-73.4930503"/>
      <trkpt lat="45.6754239" lon="-73.4928724"/>
      <trkpt lat="45.6751057" lon="-73.4910673"/>
      <trkpt lat="45.6754239" lon="-73.4928724"/>
      <trkpt lat="45.6760699" lon="-73.4927365"/>
      <trkpt lat="45.6761218" lon="-73.4927275"/>
      <trkpt lat="45.6764196" lon="-73.4926665"/>
      <trkpt lat="45.6770898" lon="-73.4925367"/>
      <trkpt lat="45.6773508" lon="-73.492484"/>
      <trkpt lat="45.6771178" lon="-73.4911805"/>
      <trkpt lat="45.6771178" lon="-73.4911805"/>
      <trkpt lat="45.6773508" lon="-73.492484"/>
      <trkpt lat="45.6779724" lon="-73.4923697"/>
      <trkpt lat="45.6785985" lon="-73.4922523"/>
      <trkpt lat="45.6782574" lon="-73.4903606"/>
      <trkpt lat="45.6785985" lon="-73.4922523"/>
      <trkpt lat="45.6788728" lon="-73.4922057"/>
      <trkpt lat="45.6793352" lon="-73.4921006"/>
      <trkpt lat="45.6794359" lon="-73.4927"/>
      <trkpt lat="45.6794359" lon="-73.4927"/>
      <trkpt lat="45.6793352" lon="-73.4921006"/>
      <trkpt lat="45.6827707" lon="-73.4911627"/>
      <trkpt lat="45.6849027" lon="-73.4905846"/>
      <trkpt lat="45.6849037" lon="-73.4918322"/>
      <trkpt lat="45.6849718" lon="-73.4918594"/>
      <trkpt lat="45.6856472" lon="-73.4921765"/>
      <trkpt lat="45.6863283" lon="-73.4923996"/>
      <trkpt lat="45.6856472" lon="-73.4921765"/>
      <trkpt lat="45.687279" lon="-73.4923561"/>
      <trkpt lat="45.6875249" lon="-73.4898581"/>
      <trkpt lat="45.687279" lon="-73.4923561"/>
      <trkpt lat="45.6865254" lon="-73.4924264"/>
      <trkpt lat="45.6863283" lon="-73.4923996"/>
      <trkpt lat="45.6865254" lon="-73.4924264"/>
    </trkseg>
  </trk>
</gpx>
