<?xml version="1.0" ?>
<gpx xmlns="http://www.topografix.com/GPX/1/1" version="1.1" creator="ERO1">
  <trk>
    <name>verdun — securite — zone 0</name>
    <trkseg>
      <trkpt lat="45.4578437" lon="-73.567454"/>
      <trkpt lat="45.4572638" lon="-73.5675115"/>
      <trkpt lat="45.456685" lon="-73.5675599"/>
      <trkpt lat="45.4560737" lon="-73.5676138"/>
      <trkpt lat="45.456685" lon="-73.5675599"/>
      <trkpt lat="45.4572638" lon="-73.5675115"/>
      <trkpt lat="45.4578437" lon="-73.567454"/>
      <trkpt lat="45.4580393" lon="-73.5717741"/>
      <trkpt lat="45.4574582" lon="-73.5718358"/>
      <trkpt lat="45.4568754" lon="-73.5718872"/>
      <trkpt lat="45.4574582" lon="-73.5718358"/>
      <trkpt lat="45.4568754" lon="-73.5718872"/>
      <trkpt lat="45.4562635" lon="-73.5719449"/>
      <trkpt lat="45.4555757" lon="-73.5720136"/>
      <trkpt lat="45.4548273" lon="-73.5720804"/>
      <trkpt lat="45.4546955" lon="-73.5720879"/>
      <trkpt lat="45.4538384" lon="-73.5721653"/>
      <trkpt lat="45.4530787" lon="-73.5722283"/>
      <trkpt lat="45.4525171" lon="-73.572274"/>
      <trkpt lat="45.4520121" lon="-73.5723256"/>
      <trkpt lat="45.451391" lon="-73.5723826"/>
      <trkpt lat="45.4520121" lon="-73.5723256"/>
      <trkpt lat="45.451391" lon="-73.5723826"/>
      <trkpt lat="45.4507575" lon="-73.5724422"/>
      <trkpt lat="45.4501109" lon="-73.5725016"/>
      <trkpt lat="45.4493413" lon="-73.5725748"/>
      <trkpt lat="45.4486018" lon="-73.5726412"/>
      <trkpt lat="45.4477649" lon="-73.5727115"/>
      <trkpt lat="45.4470538" lon="-73.5727753"/>
      <trkpt lat="45.4477649" lon="-73.5727115"/>
      <trkpt lat="45.4470538" lon="-73.5727753"/>
      <trkpt lat="45.4474999" lon="-73.5770967"/>
      <trkpt lat="45.4481765" lon="-73.5770361"/>
      <trkpt lat="45.4487901" lon="-73.5769745"/>
      <trkpt lat="45.4488731" lon="-73.5823746"/>
      <trkpt lat="45.4489478" lon="-73.5834501"/>
      <trkpt lat="45.4497825" lon="-73.5831785"/>
      <trkpt lat="45.4505393" lon="-73.5829372"/>
      <trkpt lat="45.4511759" lon="-73.5827406"/>
      <trkpt lat="45.4518201" lon="-73.5825415"/>
      <trkpt lat="45.4520334" lon="-73.5827755"/>
      <trkpt lat="45.4524397" lon="-73.582275"/>
      <trkpt lat="45.4529059" lon="-73.5820544"/>
      <trkpt lat="45.4534588" lon="-73.5818153"/>
      <trkpt lat="45.4542378" lon="-73.5813113"/>
      <trkpt lat="45.4548453" lon="-73.5807256"/>
      <trkpt lat="45.455659" lon="-73.5802215"/>
      <trkpt lat="45.4548453" lon="-73.5807256"/>
      <trkpt lat="45.4542378" lon="-73.5813113"/>
      <trkpt lat="45.4548453" lon="-73.5807256"/>
      <trkpt lat="45.45467" lon="-73.5764384"/>
      <trkpt lat="45.454875" lon="-73.5764229"/>
      <trkpt lat="45.4550041" lon="-73.5764131"/>
      <trkpt lat="45.454875" lon="-73.5764229"/>
      <trkpt lat="45.45467" lon="-73.5764384"/>
      <trkpt lat="45.4540042" lon="-73.5765045"/>
      <trkpt lat="45.45467" lon="-73.5764384"/>
      <trkpt lat="45.454875" lon="-73.5764229"/>
      <trkpt lat="45.4546955" lon="-73.5720879"/>
      <trkpt lat="45.4538384" lon="-73.5721653"/>
      <trkpt lat="45.4546955" lon="-73.5720879"/>
      <trkpt lat="45.4538384" lon="-73.5721653"/>
      <trkpt lat="45.4540042" lon="-73.5765045"/>
      <trkpt lat="45.453251" lon="-73.5765697"/>
      <trkpt lat="45.4540042" lon="-73.5765045"/>
      <trkpt lat="45.45467" lon="-73.5764384"/>
      <trkpt lat="45.454875" lon="-73.5764229"/>
      <trkpt lat="45.4550041" lon="-73.5764131"/>
      <trkpt lat="45.4554729" lon="-73.5763675"/>
      <trkpt lat="45.455763" lon="-73.5763428"/>
      <trkpt lat="45.4564521" lon="-73.5762779"/>
      <trkpt lat="45.4562635" lon="-73.5719449"/>
      <trkpt lat="45.4560737" lon="-73.5676138"/>
      <trkpt lat="45.4553872" lon="-73.5676765"/>
      <trkpt lat="45.4555757" lon="-73.5720136"/>
      <trkpt lat="45.4548273" lon="-73.5720804"/>
      <trkpt lat="45.4546955" lon="-73.5720879"/>
      <trkpt lat="45.4548273" lon="-73.5720804"/>
      <trkpt lat="45.4546955" lon="-73.5720879"/>
      <trkpt lat="45.4545195" lon="-73.5677545"/>
      <trkpt lat="45.4536665" lon="-73.5678292"/>
      <trkpt lat="45.4538384" lon="-73.5721653"/>
      <trkpt lat="45.4530787" lon="-73.5722283"/>
      <trkpt lat="45.4525171" lon="-73.572274"/>
      <trkpt lat="45.4526914" lon="-73.5766165"/>
      <trkpt lat="45.453251" lon="-73.5765697"/>
      <trkpt lat="45.4530787" lon="-73.5722283"/>
      <trkpt lat="45.4525171" lon="-73.572274"/>
      <trkpt lat="45.4520121" lon="-73.5723256"/>
      <trkpt lat="45.4525171" lon="-73.572274"/>
      <trkpt lat="45.4520121" lon="-73.5723256"/>
      <trkpt lat="45.451391" lon="-73.5723826"/>
      <trkpt lat="45.4507575" lon="-73.5724422"/>
      <trkpt lat="45.4501109" lon="-73.5725016"/>
      <trkpt lat="45.4502874" lon="-73.5768223"/>
      <trkpt lat="45.4495184" lon="-73.5768978"/>
      <trkpt lat="45.4493413" lon="-73.5725748"/>
      <trkpt lat="45.4491416" lon="-73.5686835"/>
      <trkpt lat="45.4484287" lon="-73.5694905"/>
      <trkpt lat="45.4475969" lon="-73.5715023"/>
      <trkpt lat="45.447514" lon="-73.5716158"/>
      <trkpt lat="45.446941" lon="-73.5723762"/>
      <trkpt lat="45.4468983" lon="-73.5722704"/>
      <trkpt lat="45.447514" lon="-73.5716158"/>
      <trkpt lat="45.446941" lon="-73.5723762"/>
      <trkpt lat="45.4463496" lon="-73.572887"/>
      <trkpt lat="45.4463073" lon="-73.5727753"/>
      <trkpt lat="45.4468983" lon="-73.5722704"/>
      <trkpt lat="45.447514" lon="-73.5716158"/>
      <trkpt lat="45.4475969" lon="-73.5715023"/>
      <trkpt lat="45.4484287" lon="-73.5694905"/>
      <trkpt lat="45.4475969" lon="-73.5715023"/>
      <trkpt lat="45.447514" lon="-73.5716158"/>
      <trkpt lat="45.446941" lon="-73.5723762"/>
      <trkpt lat="45.4470538" lon="-73.5727753"/>
      <trkpt lat="45.4474999" lon="-73.5770967"/>
      <trkpt lat="45.4481765" lon="-73.5770361"/>
      <trkpt lat="45.4487901" lon="-73.5769745"/>
      <trkpt lat="45.4481765" lon="-73.5770361"/>
      <trkpt lat="45.4487901" lon="-73.5769745"/>
      <trkpt lat="45.4488731" lon="-73.5823746"/>
      <trkpt lat="45.4489478" lon="-73.5834501"/>
      <trkpt lat="45.4497825" lon="-73.5831785"/>
      <trkpt lat="45.4505393" lon="-73.5829372"/>
      <trkpt lat="45.4511759" lon="-73.5827406"/>
      <trkpt lat="45.4518201" lon="-73.5825415"/>
      <trkpt lat="45.4520334" lon="-73.5827755"/>
      <trkpt lat="45.4524397" lon="-73.582275"/>
      <trkpt lat="45.4529059" lon="-73.5820544"/>
      <trkpt lat="45.4526914" lon="-73.5766165"/>
      <trkpt lat="45.4525171" lon="-73.572274"/>
      <trkpt lat="45.4520121" lon="-73.5723256"/>
      <trkpt lat="45.451391" lon="-73.5723826"/>
      <trkpt lat="45.451577" lon="-73.5767083"/>
      <trkpt lat="45.4509247" lon="-73.5767643"/>
      <trkpt lat="45.4502874" lon="-73.5768223"/>
      <trkpt lat="45.4495184" lon="-73.5768978"/>
      <trkpt lat="45.4487901" lon="-73.5769745"/>
      <trkpt lat="45.4495184" lon="-73.5768978"/>
      <trkpt lat="45.4493413" lon="-73.5725748"/>
      <trkpt lat="45.4491416" lon="-73.5686835"/>
      <trkpt lat="45.4484287" lon="-73.5694905"/>
      <trkpt lat="45.4486018" lon="-73.5726412"/>
      <trkpt lat="45.4487901" lon="-73.5769745"/>
      <trkpt lat="45.4488731" lon="-73.5823746"/>
      <trkpt lat="45.4489478" lon="-73.5834501"/>
      <trkpt lat="45.4497825" lon="-73.5831785"/>
      <trkpt lat="45.4505393" lon="-73.5829372"/>
      <trkpt lat="45.4511759" lon="-73.5827406"/>
      <trkpt lat="45.4518201" lon="-73.5825415"/>
      <trkpt lat="45.4520334" lon="-73.5827755"/>
      <trkpt lat="45.4524397" lon="-73.582275"/>
      <trkpt lat="45.4529059" lon="-73.5820544"/>
      <trkpt lat="45.4526914" lon="-73.5766165"/>
      <trkpt lat="45.4525171" lon="-73.572274"/>
      <trkpt lat="45.4530787" lon="-73.5722283"/>
      <trkpt lat="45.4529084" lon="-73.5679005"/>
      <trkpt lat="45.4528731" lon="-73.5673508"/>
      <trkpt lat="45.4523285" lon="-73.5675571"/>
      <trkpt lat="45.4528731" lon="-73.5673508"/>
      <trkpt lat="45.4523285" lon="-73.5675571"/>
      <trkpt lat="45.4519181" lon="-73.5676786"/>
      <trkpt lat="45.4516452" lon="-73.5678706"/>
      <trkpt lat="45.4518365" lon="-73.5679883"/>
      <trkpt lat="45.4523447" lon="-73.5679538"/>
      <trkpt lat="45.4518365" lon="-73.5679883"/>
      <trkpt lat="45.4513055" lon="-73.5680481"/>
      <trkpt lat="45.4512209" lon="-73.5680556"/>
      <trkpt lat="45.4505685" lon="-73.5680972"/>
      <trkpt lat="45.4513671" lon="-73.5678163"/>
      <trkpt lat="45.4516452" lon="-73.5678706"/>
      <trkpt lat="45.4513055" lon="-73.5680481"/>
      <trkpt lat="45.4512209" lon="-73.5680556"/>
      <trkpt lat="45.4505685" lon="-73.5680972"/>
      <trkpt lat="45.4499435" lon="-73.5683395"/>
      <trkpt lat="45.4491416" lon="-73.5686835"/>
      <trkpt lat="45.4484287" lon="-73.5694905"/>
      <trkpt lat="45.4491416" lon="-73.5686835"/>
      <trkpt lat="45.4484287" lon="-73.5694905"/>
      <trkpt lat="45.4475969" lon="-73.5715023"/>
      <trkpt lat="45.447514" lon="-73.5716158"/>
      <trkpt lat="45.446941" lon="-73.5723762"/>
      <trkpt lat="45.4463496" lon="-73.572887"/>
      <trkpt lat="45.4456104" lon="-73.5734964"/>
      <trkpt lat="45.4449016" lon="-73.5746008"/>
      <trkpt lat="45.4443583" lon="-73.5756365"/>
      <trkpt lat="45.4438199" lon="-73.5766733"/>
      <trkpt lat="45.4433779" lon="-73.5773415"/>
      <trkpt lat="45.4433135" lon="-73.5772395"/>
      <trkpt lat="45.4437377" lon="-73.5765738"/>
      <trkpt lat="45.4442886" lon="-73.5755598"/>
      <trkpt lat="45.4448337" lon="-73.574535"/>
      <trkpt lat="45.4449016" lon="-73.5746008"/>
      <trkpt lat="45.4443583" lon="-73.5756365"/>
      <trkpt lat="45.4438199" lon="-73.5766733"/>
      <trkpt lat="45.4433779" lon="-73.5773415"/>
      <trkpt lat="45.4403459" lon="-73.5798731"/>
      <trkpt lat="45.4386043" lon="-73.581766"/>
      <trkpt lat="45.4403459" lon="-73.5798731"/>
      <trkpt lat="45.4386043" lon="-73.581766"/>
      <trkpt lat="45.437971" lon="-73.5824877"/>
      <trkpt lat="45.4373962" lon="-73.5831325"/>
      <trkpt lat="45.4368046" lon="-73.5839033"/>
      <trkpt lat="45.4373962" lon="-73.5831325"/>
      <trkpt lat="45.437971" lon="-73.5824877"/>
      <trkpt lat="45.4373962" lon="-73.5831325"/>
      <trkpt lat="45.4368046" lon="-73.5839033"/>
      <trkpt lat="45.4362295" lon="-73.5847038"/>
      <trkpt lat="45.4356444" lon="-73.5855109"/>
      <trkpt lat="45.4362295" lon="-73.5847038"/>
      <trkpt lat="45.4356444" lon="-73.5855109"/>
      <trkpt lat="45.4359514" lon="-73.5873897"/>
      <trkpt lat="45.4364625" lon="-73.5905894"/>
      <trkpt lat="45.4370171" lon="-73.5940725"/>
      <trkpt lat="45.4370452" lon="-73.5942543"/>
      <trkpt lat="45.4377606" lon="-73.5974127"/>
      <trkpt lat="45.4383498" lon="-73.5969055"/>
      <trkpt lat="45.4402097" lon="-73.5953469"/>
      <trkpt lat="45.4407698" lon="-73.5948852"/>
      <trkpt lat="45.4402097" lon="-73.5953469"/>
      <trkpt lat="45.4383498" lon="-73.5969055"/>
      <trkpt lat="45.4377606" lon="-73.5974127"/>
      <trkpt lat="45.4383498" lon="-73.5969055"/>
      <trkpt lat="45.4402097" lon="-73.5953469"/>
      <trkpt lat="45.4407698" lon="-73.5948852"/>
      <trkpt lat="45.4464097" lon="-73.589722"/>
      <trkpt lat="45.446957" lon="-73.5909012"/>
      <trkpt lat="45.4470201" lon="-73.5910266"/>
      <trkpt lat="45.4465576" lon="-73.5914742"/>
      <trkpt lat="45.4464993" lon="-73.5913487"/>
      <trkpt lat="45.446957" lon="-73.5909012"/>
      <trkpt lat="45.4464097" lon="-73.589722"/>
      <trkpt lat="45.4407698" lon="-73.5948852"/>
      <trkpt lat="45.4464097" lon="-73.589722"/>
      <trkpt lat="45.446932" lon="-73.589192"/>
      <trkpt lat="45.4464097" lon="-73.589722"/>
      <trkpt lat="45.446932" lon="-73.589192"/>
      <trkpt lat="45.4475518" lon="-73.5885791"/>
      <trkpt lat="45.446932" lon="-73.589192"/>
      <trkpt lat="45.4475518" lon="-73.5885791"/>
      <trkpt lat="45.4491738" lon="-73.5870052"/>
      <trkpt lat="45.4492964" lon="-73.5868842"/>
      <trkpt lat="45.4499417" lon="-73.5861835"/>
      <trkpt lat="45.4492964" lon="-73.5868842"/>
      <trkpt lat="45.4491738" lon="-73.5870052"/>
      <trkpt lat="45.4475518" lon="-73.5885791"/>
      <trkpt lat="45.4491738" lon="-73.5870052"/>
      <trkpt lat="45.4492964" lon="-73.5868842"/>
      <trkpt lat="45.4499417" lon="-73.5861835"/>
      <trkpt lat="45.4507125" lon="-73.5851906"/>
      <trkpt lat="45.4499417" lon="-73.5861835"/>
      <trkpt lat="45.4507125" lon="-73.5851906"/>
      <trkpt lat="45.4513146" lon="-73.5842023"/>
      <trkpt lat="45.4507125" lon="-73.5851906"/>
      <trkpt lat="45.4513146" lon="-73.5842023"/>
      <trkpt lat="45.4520334" lon="-73.5827755"/>
      <trkpt lat="45.4513146" lon="-73.5842023"/>
      <trkpt lat="45.4520334" lon="-73.5827755"/>
      <trkpt lat="45.4524397" lon="-73.582275"/>
      <trkpt lat="45.4520334" lon="-73.5827755"/>
      <trkpt lat="45.4524397" lon="-73.582275"/>
      <trkpt lat="45.4529059" lon="-73.5820544"/>
      <trkpt lat="45.4524397" lon="-73.582275"/>
      <trkpt lat="45.4521884" lon="-73.5766533"/>
      <trkpt lat="45.4526914" lon="-73.5766165"/>
      <trkpt lat="45.4525171" lon="-73.572274"/>
      <trkpt lat="45.4523447" lon="-73.5679538"/>
      <trkpt lat="45.4525171" lon="-73.572274"/>
      <trkpt lat="45.4520121" lon="-73.5723256"/>
      <trkpt lat="45.451391" lon="-73.5723826"/>
      <trkpt lat="45.451577" lon="-73.5767083"/>
      <trkpt lat="45.4509247" lon="-73.5767643"/>
      <trkpt lat="45.451577" lon="-73.5767083"/>
      <trkpt lat="45.4521884" lon="-73.5766533"/>
      <trkpt lat="45.4526914" lon="-73.5766165"/>
      <trkpt lat="45.4529059" lon="-73.5820544"/>
      <trkpt lat="45.4534588" lon="-73.5818153"/>
      <trkpt lat="45.4529059" lon="-73.5820544"/>
      <trkpt lat="45.4534588" lon="-73.5818153"/>
      <trkpt lat="45.4542378" lon="-73.5813113"/>
      <trkpt lat="45.4534588" lon="-73.5818153"/>
      <trkpt lat="45.453251" lon="-73.5765697"/>
      <trkpt lat="45.4540042" lon="-73.5765045"/>
      <trkpt lat="45.45467" lon="-73.5764384"/>
      <trkpt lat="45.454875" lon="-73.5764229"/>
      <trkpt lat="45.4550041" lon="-73.5764131"/>
      <trkpt lat="45.4554729" lon="-73.5763675"/>
      <trkpt lat="45.455763" lon="-73.5763428"/>
      <trkpt lat="45.4564521" lon="-73.5762779"/>
      <trkpt lat="45.4570687" lon="-73.5762215"/>
      <trkpt lat="45.4576492" lon="-73.5761691"/>
      <trkpt lat="45.4582332" lon="-73.5761154"/>
      <trkpt lat="45.4583701" lon="-73.5792892"/>
      <trkpt lat="45.4589522" lon="-73.5792173"/>
      <trkpt lat="45.4597574" lon="-73.5791685"/>
      <trkpt lat="45.4606408" lon="-73.5792063"/>
      <trkpt lat="45.4615458" lon="-73.5793687"/>
      <trkpt lat="45.4618657" lon="-73.5793975"/>
      <trkpt lat="45.4624516" lon="-73.579354"/>
      <trkpt lat="45.4618657" lon="-73.5793975"/>
      <trkpt lat="45.4615458" lon="-73.5793687"/>
      <trkpt lat="45.4606408" lon="-73.5792063"/>
      <trkpt lat="45.4597574" lon="-73.5791685"/>
      <trkpt lat="45.4589522" lon="-73.5792173"/>
      <trkpt lat="45.4597574" lon="-73.5791685"/>
      <trkpt lat="45.4606408" lon="-73.5792063"/>
      <trkpt lat="45.4605081" lon="-73.5759055"/>
      <trkpt lat="45.4613893" lon="-73.5758253"/>
      <trkpt lat="45.4615458" lon="-73.5793687"/>
      <trkpt lat="45.4618657" lon="-73.5793975"/>
      <trkpt lat="45.4624516" lon="-73.579354"/>
      <trkpt lat="45.4622767" lon="-73.5757529"/>
      <trkpt lat="45.4621837" lon="-73.5735852"/>
      <trkpt lat="45.4620899" lon="-73.5714115"/>
      <trkpt lat="45.4629751" lon="-73.5713316"/>
      <trkpt lat="45.4630242" lon="-73.5724342"/>
      <trkpt lat="45.4630633" lon="-73.5735079"/>
      <trkpt lat="45.4631098" lon="-73.5745776"/>
      <trkpt lat="45.4631551" lon="-73.5756726"/>
      <trkpt lat="45.4632057" lon="-73.5767646"/>
      <trkpt lat="45.4632535" lon="-73.5778374"/>
      <trkpt lat="45.4632979" lon="-73.5789244"/>
      <trkpt lat="45.462707" lon="-73.5793293"/>
      <trkpt lat="45.4624516" lon="-73.579354"/>
      <trkpt lat="45.4622767" lon="-73.5757529"/>
      <trkpt lat="45.4631551" lon="-73.5756726"/>
      <trkpt lat="45.4652772" lon="-73.5754809"/>
      <trkpt lat="45.4652291" lon="-73.5743829"/>
      <trkpt lat="45.4663635" lon="-73.5742707"/>
      <trkpt lat="45.4664133" lon="-73.5753789"/>
      <trkpt lat="45.4654208" lon="-73.5787135"/>
      <trkpt lat="45.4632979" lon="-73.5789244"/>
      <trkpt lat="45.462707" lon="-73.5793293"/>
      <trkpt lat="45.4624516" lon="-73.579354"/>
      <trkpt lat="45.4622767" lon="-73.5757529"/>
      <trkpt lat="45.4621837" lon="-73.5735852"/>
      <trkpt lat="45.4620899" lon="-73.5714115"/>
      <trkpt lat="45.4612015" lon="-73.5714979"/>
      <trkpt lat="45.4603114" lon="-73.571575"/>
      <trkpt lat="45.4612015" lon="-73.5714979"/>
      <trkpt lat="45.4620899" lon="-73.5714115"/>
      <trkpt lat="45.4629751" lon="-73.5713316"/>
      <trkpt lat="45.4620899" lon="-73.5714115"/>
      <trkpt lat="45.4619038" lon="-73.5670893"/>
      <trkpt lat="45.4627828" lon="-73.5670073"/>
      <trkpt lat="45.4628308" lon="-73.5680852"/>
      <trkpt lat="45.4649454" lon="-73.5679046"/>
      <trkpt lat="45.4648973" lon="-73.5668168"/>
      <trkpt lat="45.4627828" lon="-73.5670073"/>
      <trkpt lat="45.4648973" lon="-73.5668168"/>
      <trkpt lat="45.4671346" lon="-73.5666152"/>
      <trkpt lat="45.4675847" lon="-73.5664172"/>
      <trkpt lat="45.4681824" lon="-73.5660496"/>
      <trkpt lat="45.4677639" lon="-73.5628817"/>
      <trkpt lat="45.4647319" lon="-73.5629601"/>
      <trkpt lat="45.464461" lon="-73.5629584"/>
      <trkpt lat="45.4634056" lon="-73.5627166"/>
      <trkpt lat="45.4630993" lon="-73.5626435"/>
      <trkpt lat="45.4628036" lon="-73.5625334"/>
      <trkpt lat="45.4631224" lon="-73.562524"/>
      <trkpt lat="45.4630993" lon="-73.5626435"/>
      <trkpt lat="45.4628036" lon="-73.5625334"/>
      <trkpt lat="45.4626182" lon="-73.5634751"/>
      <trkpt lat="45.4625968" lon="-73.5625373"/>
      <trkpt lat="45.4628036" lon="-73.5625334"/>
      <trkpt lat="45.4631224" lon="-73.562524"/>
      <trkpt lat="45.4634191" lon="-73.5625975"/>
      <trkpt lat="45.4644689" lon="-73.5628347"/>
      <trkpt lat="45.4647339" lon="-73.5628389"/>
      <trkpt lat="45.4694832" lon="-73.5625982"/>
      <trkpt lat="45.4703349" lon="-73.5619382"/>
      <trkpt lat="45.4703965" lon="-73.5620587"/>
      <trkpt lat="45.4711024" lon="-73.5638581"/>
      <trkpt lat="45.4682427" lon="-73.5660464"/>
      <trkpt lat="45.4711024" lon="-73.5638581"/>
      <trkpt lat="45.4703965" lon="-73.5620587"/>
      <trkpt lat="45.4703349" lon="-73.5619382"/>
      <trkpt lat="45.4703965" lon="-73.5620587"/>
      <trkpt lat="45.4711024" lon="-73.5638581"/>
      <trkpt lat="45.4682427" lon="-73.5660464"/>
      <trkpt lat="45.468201" lon="-73.5660989"/>
      <trkpt lat="45.4677005" lon="-73.5664976"/>
      <trkpt lat="45.4675847" lon="-73.5664172"/>
      <trkpt lat="45.4681824" lon="-73.5660496"/>
      <trkpt lat="45.4682427" lon="-73.5660464"/>
      <trkpt lat="45.468201" lon="-73.5660989"/>
      <trkpt lat="45.4677005" lon="-73.5664976"/>
      <trkpt lat="45.4687013" lon="-73.5671547"/>
      <trkpt lat="45.4704026" lon="-73.5682601"/>
      <trkpt lat="45.4718127" lon="-73.5691718"/>
      <trkpt lat="45.4704026" lon="-73.5682601"/>
      <trkpt lat="45.4687013" lon="-73.5671547"/>
      <trkpt lat="45.4677005" lon="-73.5664976"/>
      <trkpt lat="45.4675847" lon="-73.5664172"/>
      <trkpt lat="45.4673159" lon="-73.5662463"/>
      <trkpt lat="45.4662598" lon="-73.5658604"/>
      <trkpt lat="45.4673159" lon="-73.5662463"/>
      <trkpt lat="45.4662598" lon="-73.5658604"/>
      <trkpt lat="45.4648205" lon="-73.5650537"/>
      <trkpt lat="45.4640983" lon="-73.564539"/>
      <trkpt lat="45.4626182" lon="-73.5634751"/>
      <trkpt lat="45.4626963" lon="-73.5650641"/>
      <trkpt lat="45.4627342" lon="-73.5659161"/>
      <trkpt lat="45.4627828" lon="-73.5670073"/>
      <trkpt lat="45.4619038" lon="-73.5670893"/>
      <trkpt lat="45.4610078" lon="-73.567169"/>
      <trkpt lat="45.4619038" lon="-73.5670893"/>
      <trkpt lat="45.4610078" lon="-73.567169"/>
      <trkpt lat="45.4601195" lon="-73.5672467"/>
      <trkpt lat="45.4592361" lon="-73.5673278"/>
      <trkpt lat="45.4584222" lon="-73.5674043"/>
      <trkpt lat="45.4592361" lon="-73.5673278"/>
      <trkpt lat="45.4601195" lon="-73.5672467"/>
      <trkpt lat="45.4610078" lon="-73.567169"/>
      <trkpt lat="45.4601195" lon="-73.5672467"/>
      <trkpt lat="45.4592361" lon="-73.5673278"/>
      <trkpt lat="45.4594285" lon="-73.5716508"/>
      <trkpt lat="45.4596202" lon="-73.5759917"/>
      <trkpt lat="45.4605081" lon="-73.5759055"/>
      <trkpt lat="45.4596202" lon="-73.5759917"/>
      <trkpt lat="45.4588161" lon="-73.5760653"/>
      <trkpt lat="45.4596202" lon="-73.5759917"/>
      <trkpt lat="45.4605081" lon="-73.5759055"/>
      <trkpt lat="45.4613893" lon="-73.5758253"/>
      <trkpt lat="45.4622767" lon="-73.5757529"/>
      <trkpt lat="45.4631551" lon="-73.5756726"/>
      <trkpt lat="45.4652772" lon="-73.5754809"/>
      <trkpt lat="45.4652291" lon="-73.5743829"/>
      <trkpt lat="45.4651823" lon="-73.5733173"/>
      <trkpt lat="45.4651351" lon="-73.5722404"/>
      <trkpt lat="45.4650869" lon="-73.5711504"/>
      <trkpt lat="45.4650391" lon="-73.5700493"/>
      <trkpt lat="45.4649916" lon="-73.5689794"/>
      <trkpt lat="45.4628793" lon="-73.5691742"/>
      <trkpt lat="45.4629267" lon="-73.5702412"/>
      <trkpt lat="45.4650391" lon="-73.5700493"/>
      <trkpt lat="45.4649916" lon="-73.5689794"/>
      <trkpt lat="45.4628793" lon="-73.5691742"/>
      <trkpt lat="45.4629267" lon="-73.5702412"/>
      <trkpt lat="45.4629751" lon="-73.5713316"/>
      <trkpt lat="45.4650869" lon="-73.5711504"/>
      <trkpt lat="45.4673224" lon="-73.5709517"/>
      <trkpt lat="45.467277" lon="-73.5698494"/>
      <trkpt lat="45.4672325" lon="-73.5687841"/>
      <trkpt lat="45.4671832" lon="-73.5677099"/>
      <trkpt lat="45.4671346" lon="-73.5666152"/>
      <trkpt lat="45.4675847" lon="-73.5664172"/>
      <trkpt lat="45.4677005" lon="-73.5664976"/>
      <trkpt lat="45.4687013" lon="-73.5671547"/>
      <trkpt lat="45.4714875" lon="-73.5649028"/>
      <trkpt lat="45.4687013" lon="-73.5671547"/>
      <trkpt lat="45.4687205" lon="-73.5675666"/>
      <trkpt lat="45.4687683" lon="-73.5686539"/>
      <trkpt lat="45.4688149" lon="-73.5697169"/>
      <trkpt lat="45.4687683" lon="-73.5686539"/>
      <trkpt lat="45.4687205" lon="-73.5675666"/>
      <trkpt lat="45.4687013" lon="-73.5671547"/>
      <trkpt lat="45.4704026" lon="-73.5682601"/>
      <trkpt lat="45.4718127" lon="-73.5691718"/>
      <trkpt lat="45.4722843" lon="-73.5694866"/>
      <trkpt lat="45.4723446" lon="-73.5695291"/>
      <trkpt lat="45.4723258" lon="-73.5704929"/>
      <trkpt lat="45.4724293" lon="-73.5715242"/>
      <trkpt lat="45.4723615" lon="-73.571573"/>
      <trkpt lat="45.4705208" lon="-73.5717674"/>
      <trkpt lat="45.4689113" lon="-73.571916"/>
      <trkpt lat="45.4688627" lon="-73.5708081"/>
      <trkpt lat="45.47047" lon="-73.5706558"/>
      <trkpt lat="45.472248" lon="-73.5704987"/>
      <trkpt lat="45.4722843" lon="-73.5694866"/>
      <trkpt lat="45.4723446" lon="-73.5695291"/>
      <trkpt lat="45.4723258" lon="-73.5704929"/>
      <trkpt lat="45.4724293" lon="-73.5715242"/>
      <trkpt lat="45.4723615" lon="-73.571573"/>
      <trkpt lat="45.4705208" lon="-73.5717674"/>
      <trkpt lat="45.4689113" lon="-73.571916"/>
      <trkpt lat="45.4673778" lon="-73.572057"/>
      <trkpt lat="45.4689113" lon="-73.571916"/>
      <trkpt lat="45.4673778" lon="-73.572057"/>
      <trkpt lat="45.4664061" lon="-73.572182"/>
      <trkpt lat="45.4663161" lon="-73.5732079"/>
      <trkpt lat="45.4663635" lon="-73.5742707"/>
      <trkpt lat="45.4664133" lon="-73.5753789"/>
      <trkpt lat="45.4654208" lon="-73.5787135"/>
      <trkpt lat="45.4632979" lon="-73.5789244"/>
      <trkpt lat="45.462707" lon="-73.5793293"/>
      <trkpt lat="45.4624516" lon="-73.579354"/>
      <trkpt lat="45.462707" lon="-73.5793293"/>
      <trkpt lat="45.4632979" lon="-73.5789244"/>
      <trkpt lat="45.4654208" lon="-73.5787135"/>
      <trkpt lat="45.4664133" lon="-73.5753789"/>
      <trkpt lat="45.4663635" lon="-73.5742707"/>
      <trkpt lat="45.4663161" lon="-73.5732079"/>
      <trkpt lat="45.4664061" lon="-73.572182"/>
      <trkpt lat="45.4673778" lon="-73.572057"/>
      <trkpt lat="45.4673224" lon="-73.5709517"/>
      <trkpt lat="45.467277" lon="-73.5698494"/>
      <trkpt lat="45.4672325" lon="-73.5687841"/>
      <trkpt lat="45.4671832" lon="-73.5677099"/>
      <trkpt lat="45.4671346" lon="-73.5666152"/>
      <trkpt lat="45.4671832" lon="-73.5677099"/>
      <trkpt lat="45.4671346" lon="-73.5666152"/>
      <trkpt lat="45.4675847" lon="-73.5664172"/>
      <trkpt lat="45.4673159" lon="-73.5662463"/>
      <trkpt lat="45.4662598" lon="-73.5658604"/>
      <trkpt lat="45.4648205" lon="-73.5650537"/>
      <trkpt lat="45.4647983" lon="-73.5645263"/>
      <trkpt lat="45.4658745" lon="-73.56487"/>
      <trkpt lat="45.4647983" lon="-73.5645263"/>
      <trkpt lat="45.4648205" lon="-73.5650537"/>
      <trkpt lat="45.4640983" lon="-73.564539"/>
      <trkpt lat="45.4626182" lon="-73.5634751"/>
      <trkpt lat="45.4626963" lon="-73.5650641"/>
      <trkpt lat="45.4627342" lon="-73.5659161"/>
      <trkpt lat="45.4648494" lon="-73.5657253"/>
      <trkpt lat="45.4648205" lon="-73.5650537"/>
      <trkpt lat="45.4640983" lon="-73.564539"/>
      <trkpt lat="45.4626182" lon="-73.5634751"/>
      <trkpt lat="45.4617329" lon="-73.5629739"/>
      <trkpt lat="45.4626182" lon="-73.5634751"/>
      <trkpt lat="45.4617329" lon="-73.5629739"/>
      <trkpt lat="45.4608224" lon="-73.5630509"/>
      <trkpt lat="45.4617329" lon="-73.5629739"/>
      <trkpt lat="45.4608224" lon="-73.5630509"/>
      <trkpt lat="45.4599377" lon="-73.563158"/>
      <trkpt lat="45.4590611" lon="-73.5632577"/>
      <trkpt lat="45.4599377" lon="-73.563158"/>
      <trkpt lat="45.4608224" lon="-73.5630509"/>
      <trkpt lat="45.4610078" lon="-73.567169"/>
      <trkpt lat="45.4601195" lon="-73.5672467"/>
      <trkpt lat="45.4592361" lon="-73.5673278"/>
      <trkpt lat="45.4594285" lon="-73.5716508"/>
      <trkpt lat="45.4586181" lon="-73.5717179"/>
      <trkpt lat="45.4580393" lon="-73.5717741"/>
      <trkpt lat="45.4574582" lon="-73.5718358"/>
      <trkpt lat="45.4580393" lon="-73.5717741"/>
      <trkpt lat="45.4574582" lon="-73.5718358"/>
      <trkpt lat="45.4568754" lon="-73.5718872"/>
      <trkpt lat="45.4570687" lon="-73.5762215"/>
      <trkpt lat="45.4576492" lon="-73.5761691"/>
      <trkpt lat="45.4582332" lon="-73.5761154"/>
      <trkpt lat="45.4588161" lon="-73.5760653"/>
      <trkpt lat="45.4582332" lon="-73.5761154"/>
      <trkpt lat="45.4576492" lon="-73.5761691"/>
      <trkpt lat="45.4574582" lon="-73.5718358"/>
      <trkpt lat="45.4568754" lon="-73.5718872"/>
      <trkpt lat="45.4562635" lon="-73.5719449"/>
      <trkpt lat="45.4560737" lon="-73.5676138"/>
      <trkpt lat="45.4553872" lon="-73.5676765"/>
      <trkpt lat="45.4560737" lon="-73.5676138"/>
      <trkpt lat="45.456685" lon="-73.5675599"/>
      <trkpt lat="45.4572638" lon="-73.5675115"/>
      <trkpt lat="45.4578437" lon="-73.567454"/>
      <trkpt lat="45.4584222" lon="-73.5674043"/>
      <trkpt lat="45.4582446" lon="-73.5633402"/>
      <trkpt lat="45.4590611" lon="-73.5632577"/>
      <trkpt lat="45.4582446" lon="-73.5633402"/>
      <trkpt lat="45.4576694" lon="-73.5634116"/>
      <trkpt lat="45.4582446" lon="-73.5633402"/>
      <trkpt lat="45.4576694" lon="-73.5634116"/>
      <trkpt lat="45.4570874" lon="-73.5636251"/>
      <trkpt lat="45.4576694" lon="-73.5634116"/>
      <trkpt lat="45.4570874" lon="-73.5636251"/>
      <trkpt lat="45.4565213" lon="-73.5638807"/>
      <trkpt lat="45.4570874" lon="-73.5636251"/>
      <trkpt lat="45.4565213" lon="-73.5638807"/>
      <trkpt lat="45.4559153" lon="-73.5642454"/>
      <trkpt lat="45.4565213" lon="-73.5638807"/>
      <trkpt lat="45.4559153" lon="-73.5642454"/>
      <trkpt lat="45.4552326" lon="-73.5648264"/>
      <trkpt lat="45.4559153" lon="-73.5642454"/>
      <trkpt lat="45.4552326" lon="-73.5648264"/>
      <trkpt lat="45.454482" lon="-73.5657961"/>
      <trkpt lat="45.4552326" lon="-73.5648264"/>
      <trkpt lat="45.4553872" lon="-73.5676765"/>
      <trkpt lat="45.4546546" lon="-73.5677423"/>
      <trkpt lat="45.4553872" lon="-73.5676765"/>
      <trkpt lat="45.4546546" lon="-73.5677423"/>
      <trkpt lat="45.4545195" lon="-73.5677545"/>
      <trkpt lat="45.454482" lon="-73.5657961"/>
      <trkpt lat="45.4536098" lon="-73.5669163"/>
      <trkpt lat="45.454482" lon="-73.5657961"/>
      <trkpt lat="45.4546546" lon="-73.5677423"/>
      <trkpt lat="45.4545195" lon="-73.5677545"/>
      <trkpt lat="45.4536665" lon="-73.5678292"/>
      <trkpt lat="45.4529084" lon="-73.5679005"/>
      <trkpt lat="45.4528731" lon="-73.5673508"/>
      <trkpt lat="45.4536098" lon="-73.5669163"/>
      <trkpt lat="45.4528731" lon="-73.5673508"/>
      <trkpt lat="45.4523285" lon="-73.5675571"/>
      <trkpt lat="45.4523447" lon="-73.5679538"/>
      <trkpt lat="45.4529084" lon="-73.5679005"/>
      <trkpt lat="45.4523447" lon="-73.5679538"/>
      <trkpt lat="45.4529084" lon="-73.5679005"/>
      <trkpt lat="45.4536665" lon="-73.5678292"/>
      <trkpt lat="45.4545195" lon="-73.5677545"/>
      <trkpt lat="45.4546546" lon="-73.5677423"/>
      <trkpt lat="45.4548273" lon="-73.5720804"/>
      <trkpt lat="45.4555757" lon="-73.5720136"/>
      <trkpt lat="45.455763" lon="-73.5763428"/>
      <trkpt lat="45.4554729" lon="-73.5763675"/>
      <trkpt lat="45.455659" lon="-73.5802215"/>
      <trkpt lat="45.4567893" lon="-73.5797087"/>
      <trkpt lat="45.4571537" lon="-73.5795871"/>
      <trkpt lat="45.457795" lon="-73.5793991"/>
      <trkpt lat="45.4571537" lon="-73.5795871"/>
      <trkpt lat="45.4567893" lon="-73.5797087"/>
      <trkpt lat="45.455659" lon="-73.5802215"/>
      <trkpt lat="45.4567893" lon="-73.5797087"/>
      <trkpt lat="45.4571537" lon="-73.5795871"/>
      <trkpt lat="45.457795" lon="-73.5793991"/>
      <trkpt lat="45.4583701" lon="-73.5792892"/>
      <trkpt lat="45.457795" lon="-73.5793991"/>
      <trkpt lat="45.4583701" lon="-73.5792892"/>
      <trkpt lat="45.4589522" lon="-73.5792173"/>
      <trkpt lat="45.4583701" lon="-73.5792892"/>
      <trkpt lat="45.4589522" lon="-73.5792173"/>
      <trkpt lat="45.4588161" lon="-73.5760653"/>
      <trkpt lat="45.4596202" lon="-73.5759917"/>
      <trkpt lat="45.4605081" lon="-73.5759055"/>
      <trkpt lat="45.4613893" lon="-73.5758253"/>
      <trkpt lat="45.4605081" lon="-73.5759055"/>
      <trkpt lat="45.4603114" lon="-73.571575"/>
      <trkpt lat="45.4594285" lon="-73.5716508"/>
      <trkpt lat="45.4586181" lon="-73.5717179"/>
      <trkpt lat="45.4584222" lon="-73.5674043"/>
      <trkpt lat="45.4578437" lon="-73.567454"/>
    </trkseg>
  </trk>
</gpx>
