<?xml version="1.0" ?>
<gpx xmlns="http://www.topografix.com/GPX/1/1" version="1.1" creator="ERO1">
  <trk>
    <name>riviere_des_prairies — baseline — zone 3</name>
    <trkseg>
      <trkpt lat="45.6304441" lon="-73.5958531"/>
      <trkpt lat="45.63086" lon="-73.5950648"/>
      <trkpt lat="45.6329399" lon="-73.5972495"/>
      <trkpt lat="45.6332236" lon="-73.5962929"/>
      <trkpt lat="45.6335278" lon="-73.5952947"/>
      <trkpt lat="45.6338655" lon="-73.594647"/>
      <trkpt lat="45.634268" lon="-73.5938859"/>
      <trkpt lat="45.635883" lon="-73.5956105"/>
      <trkpt lat="45.6351704" lon="-73.5970175"/>
      <trkpt lat="45.6346548" lon="-73.5964842"/>
      <trkpt lat="45.6341251" lon="-73.595932"/>
      <trkpt lat="45.6346548" lon="-73.5964842"/>
      <trkpt lat="45.6351704" lon="-73.5970175"/>
      <trkpt lat="45.635883" lon="-73.5956105"/>
      <trkpt lat="45.6356473" lon="-73.5975428"/>
      <trkpt lat="45.6351704" lon="-73.5970175"/>
      <trkpt lat="45.6356473" lon="-73.5975428"/>
      <trkpt lat="45.635883" lon="-73.5956105"/>
      <trkpt lat="45.634268" lon="-73.5938859"/>
      <trkpt lat="45.6326444" lon="-73.5921361"/>
      <trkpt lat="45.6320887" lon="-73.59157"/>
      <trkpt lat="45.6306582" lon="-73.5935814"/>
      <trkpt lat="45.6320887" lon="-73.59157"/>
      <trkpt lat="45.6300761" lon="-73.5929779"/>
      <trkpt lat="45.6320887" lon="-73.59157"/>
      <trkpt lat="45.6326444" lon="-73.5921361"/>
      <trkpt lat="45.6330871" lon="-73.5913113"/>
      <trkpt lat="45.6331771" lon="-73.5911558"/>
      <trkpt lat="45.6330871" lon="-73.5913113"/>
      <trkpt lat="45.6326444" lon="-73.5921361"/>
      <trkpt lat="45.634268" lon="-73.5938859"/>
      <trkpt lat="45.6347101" lon="-73.5930712"/>
      <trkpt lat="45.6330871" lon="-73.5913113"/>
      <trkpt lat="45.6314606" lon="-73.5896075"/>
      <trkpt lat="45.6313788" lon="-73.5895073"/>
      <trkpt lat="45.631474" lon="-73.5893893"/>
      <trkpt lat="45.632717" lon="-73.5877735"/>
      <trkpt lat="45.6320984" lon="-73.5871234"/>
      <trkpt lat="45.6328332" lon="-73.5861451"/>
      <trkpt lat="45.633645" lon="-73.5850997"/>
      <trkpt lat="45.6342386" lon="-73.585733"/>
      <trkpt lat="45.6363417" lon="-73.5829827"/>
      <trkpt lat="45.6364276" lon="-73.5830685"/>
      <trkpt lat="45.6363417" lon="-73.5829827"/>
      <trkpt lat="45.6357331" lon="-73.5823526"/>
      <trkpt lat="45.6372906" lon="-73.5803012"/>
      <trkpt lat="45.6357331" lon="-73.5823526"/>
      <trkpt lat="45.6351375" lon="-73.5817174"/>
      <trkpt lat="45.633739" lon="-73.5802445"/>
      <trkpt lat="45.6342513" lon="-73.5795763"/>
      <trkpt lat="45.6347484" lon="-73.5789265"/>
      <trkpt lat="45.6356404" lon="-73.5810456"/>
      <trkpt lat="45.6347484" lon="-73.5789265"/>
      <trkpt lat="45.6342513" lon="-73.5795763"/>
      <trkpt lat="45.6356404" lon="-73.5810456"/>
      <trkpt lat="45.6342513" lon="-73.5795763"/>
      <trkpt lat="45.633739" lon="-73.5802445"/>
      <trkpt lat="45.6329596" lon="-73.5794175"/>
      <trkpt lat="45.6337479" lon="-73.578372"/>
      <trkpt lat="45.6331478" lon="-73.5777825"/>
      <trkpt lat="45.6320307" lon="-73.5806465"/>
      <trkpt lat="45.6331478" lon="-73.5777825"/>
      <trkpt lat="45.6337479" lon="-73.578372"/>
      <trkpt lat="45.6329596" lon="-73.5794175"/>
      <trkpt lat="45.6320307" lon="-73.5806465"/>
      <trkpt lat="45.6308953" lon="-73.5821698"/>
      <trkpt lat="45.6320307" lon="-73.5806465"/>
      <trkpt lat="45.6329596" lon="-73.5794175"/>
      <trkpt lat="45.633739" lon="-73.5802445"/>
      <trkpt lat="45.6331537" lon="-73.5810199"/>
      <trkpt lat="45.633739" lon="-73.5802445"/>
      <trkpt lat="45.6351375" lon="-73.5817174"/>
      <trkpt lat="45.6345593" lon="-73.5824834"/>
      <trkpt lat="45.6339991" lon="-73.583202"/>
      <trkpt lat="45.6345593" lon="-73.5824834"/>
      <trkpt lat="45.6331537" lon="-73.5810199"/>
      <trkpt lat="45.6345593" lon="-73.5824834"/>
      <trkpt lat="45.6351375" lon="-73.5817174"/>
      <trkpt lat="45.6356404" lon="-73.5810456"/>
      <trkpt lat="45.6351375" lon="-73.5817174"/>
      <trkpt lat="45.6357331" lon="-73.5823526"/>
      <trkpt lat="45.6345919" lon="-73.5838332"/>
      <trkpt lat="45.6339991" lon="-73.583202"/>
      <trkpt lat="45.6326111" lon="-73.5817295"/>
      <trkpt lat="45.6331537" lon="-73.5810199"/>
      <trkpt lat="45.6326111" lon="-73.5817295"/>
      <trkpt lat="45.6321116" lon="-73.5824017"/>
      <trkpt lat="45.6316582" lon="-73.5830009"/>
      <trkpt lat="45.6325057" lon="-73.5839106"/>
      <trkpt lat="45.6316582" lon="-73.5830009"/>
      <trkpt lat="45.6311498" lon="-73.5836175"/>
      <trkpt lat="45.6304324" lon="-73.582782"/>
      <trkpt lat="45.6311498" lon="-73.5836175"/>
      <trkpt lat="45.6306875" lon="-73.5846345"/>
      <trkpt lat="45.6311498" lon="-73.5836175"/>
      <trkpt lat="45.6316582" lon="-73.5830009"/>
      <trkpt lat="45.6308953" lon="-73.5821698"/>
      <trkpt lat="45.6304324" lon="-73.582782"/>
      <trkpt lat="45.6297319" lon="-73.5820445"/>
      <trkpt lat="45.6293832" lon="-73.5816864"/>
      <trkpt lat="45.6297319" lon="-73.5820445"/>
      <trkpt lat="45.6301002" lon="-73.5813323"/>
      <trkpt lat="45.6301002" lon="-73.5813323"/>
      <trkpt lat="45.6297319" lon="-73.5820445"/>
      <trkpt lat="45.6304324" lon="-73.582782"/>
      <trkpt lat="45.6308953" lon="-73.5821698"/>
      <trkpt lat="45.6316582" lon="-73.5830009"/>
      <trkpt lat="45.6321116" lon="-73.5824017"/>
      <trkpt lat="45.6326111" lon="-73.5817295"/>
      <trkpt lat="45.6339991" lon="-73.583202"/>
      <trkpt lat="45.6345919" lon="-73.5838332"/>
      <trkpt lat="45.6341022" lon="-73.5844664"/>
      <trkpt lat="45.6321116" lon="-73.5824017"/>
      <trkpt lat="45.6341022" lon="-73.5844664"/>
      <trkpt lat="45.6345919" lon="-73.5838332"/>
      <trkpt lat="45.6357331" lon="-73.5823526"/>
      <trkpt lat="45.6363417" lon="-73.5829827"/>
      <trkpt lat="45.6364276" lon="-73.5830685"/>
      <trkpt lat="45.6353177" lon="-73.5845364"/>
      <trkpt lat="45.6343394" lon="-73.5858406"/>
      <trkpt lat="45.6342386" lon="-73.585733"/>
      <trkpt lat="45.633645" lon="-73.5850997"/>
      <trkpt lat="45.6341022" lon="-73.5844664"/>
      <trkpt lat="45.633645" lon="-73.5850997"/>
      <trkpt lat="45.6330615" lon="-73.5844833"/>
      <trkpt lat="45.633645" lon="-73.5850997"/>
      <trkpt lat="45.6328332" lon="-73.5861451"/>
      <trkpt lat="45.6330615" lon="-73.5844833"/>
      <trkpt lat="45.6325057" lon="-73.5839106"/>
      <trkpt lat="45.6314043" lon="-73.5853799"/>
      <trkpt lat="45.6306875" lon="-73.5846345"/>
      <trkpt lat="45.6302176" lon="-73.585286"/>
      <trkpt lat="45.6297224" lon="-73.5859827"/>
      <trkpt lat="45.6302176" lon="-73.585286"/>
      <trkpt lat="45.6305126" lon="-73.5868337"/>
      <trkpt lat="45.6297224" lon="-73.5859827"/>
      <trkpt lat="45.6292429" lon="-73.5866619"/>
      <trkpt lat="45.6297224" lon="-73.5859827"/>
      <trkpt lat="45.6305126" lon="-73.5868337"/>
      <trkpt lat="45.6302176" lon="-73.585286"/>
      <trkpt lat="45.6306875" lon="-73.5846345"/>
      <trkpt lat="45.6314043" lon="-73.5853799"/>
      <trkpt lat="45.6314043" lon="-73.5853799"/>
      <trkpt lat="45.6325057" lon="-73.5839106"/>
      <trkpt lat="45.6330615" lon="-73.5844833"/>
      <trkpt lat="45.6328332" lon="-73.5861451"/>
      <trkpt lat="45.6320984" lon="-73.5871234"/>
      <trkpt lat="45.6317936" lon="-73.5868041"/>
      <trkpt lat="45.6317936" lon="-73.5868041"/>
      <trkpt lat="45.6320984" lon="-73.5871234"/>
      <trkpt lat="45.6305126" lon="-73.5868337"/>
      <trkpt lat="45.6320984" lon="-73.5871234"/>
      <trkpt lat="45.632717" lon="-73.5877735"/>
      <trkpt lat="45.6342386" lon="-73.585733"/>
      <trkpt lat="45.6343394" lon="-73.5858406"/>
      <trkpt lat="45.6328086" lon="-73.5878658"/>
      <trkpt lat="45.6315664" lon="-73.589486"/>
      <trkpt lat="45.6314606" lon="-73.5896075"/>
      <trkpt lat="45.6308683" lon="-73.5903724"/>
      <trkpt lat="45.6307984" lon="-73.590276"/>
      <trkpt lat="45.6308683" lon="-73.5903724"/>
      <trkpt lat="45.6294265" lon="-73.5922743"/>
      <trkpt lat="45.629347" lon="-73.5921829"/>
      <trkpt lat="45.6294265" lon="-73.5922743"/>
      <trkpt lat="45.6286206" lon="-73.593311"/>
      <trkpt lat="45.6285469" lon="-73.5932331"/>
      <trkpt lat="45.6279698" lon="-73.5925991"/>
      <trkpt lat="45.6288709" lon="-73.5913676"/>
      <trkpt lat="45.6293437" lon="-73.5907566"/>
      <trkpt lat="45.629851" lon="-73.5900874"/>
      <trkpt lat="45.6296563" lon="-73.5888101"/>
      <trkpt lat="45.6280982" lon="-73.5882906"/>
      <trkpt lat="45.6296563" lon="-73.5888101"/>
      <trkpt lat="45.6285531" lon="-73.5876363"/>
      <trkpt lat="45.6296563" lon="-73.5888101"/>
      <trkpt lat="45.629851" lon="-73.5900874"/>
      <trkpt lat="45.6304573" lon="-73.590729"/>
      <trkpt lat="45.629851" lon="-73.5900874"/>
      <trkpt lat="45.6293437" lon="-73.5907566"/>
      <trkpt lat="45.6276263" lon="-73.5889353"/>
      <trkpt lat="45.6280982" lon="-73.5882906"/>
      <trkpt lat="45.6285531" lon="-73.5876363"/>
      <trkpt lat="45.6280982" lon="-73.5882906"/>
      <trkpt lat="45.6276263" lon="-73.5889353"/>
      <trkpt lat="45.6269708" lon="-73.588231"/>
      <trkpt lat="45.6264246" lon="-73.5876568"/>
      <trkpt lat="45.6259725" lon="-73.5882764"/>
      <trkpt lat="45.62553" lon="-73.5888905"/>
      <trkpt lat="45.6259725" lon="-73.5882764"/>
      <trkpt lat="45.6264246" lon="-73.5876568"/>
      <trkpt lat="45.625043" lon="-73.5895361"/>
      <trkpt lat="45.6262924" lon="-73.5908435"/>
      <trkpt lat="45.6257881" lon="-73.5914863"/>
      <trkpt lat="45.6245432" lon="-73.5901826"/>
      <trkpt lat="45.6257881" lon="-73.5914863"/>
      <trkpt lat="45.6253252" lon="-73.5923887"/>
      <trkpt lat="45.6257881" lon="-73.5914863"/>
      <trkpt lat="45.6268789" lon="-73.5926378"/>
      <trkpt lat="45.6257881" lon="-73.5914863"/>
      <trkpt lat="45.6262924" lon="-73.5908435"/>
      <trkpt lat="45.6267428" lon="-73.5901912"/>
      <trkpt lat="45.6262924" lon="-73.5908435"/>
      <trkpt lat="45.6272633" lon="-73.5918898"/>
      <trkpt lat="45.6262924" lon="-73.5908435"/>
      <trkpt lat="45.625043" lon="-73.5895361"/>
      <trkpt lat="45.62553" lon="-73.5888905"/>
      <trkpt lat="45.6267428" lon="-73.5901912"/>
      <trkpt lat="45.62553" lon="-73.5888905"/>
      <trkpt lat="45.625043" lon="-73.5895361"/>
      <trkpt lat="45.6245432" lon="-73.5901826"/>
      <trkpt lat="45.6240529" lon="-73.591038"/>
      <trkpt lat="45.6253252" lon="-73.5923887"/>
      <trkpt lat="45.6268789" lon="-73.5926378"/>
      <trkpt lat="45.6253252" lon="-73.5923887"/>
      <trkpt lat="45.6240529" lon="-73.591038"/>
      <trkpt lat="45.6235718" lon="-73.591839"/>
      <trkpt lat="45.6240529" lon="-73.591038"/>
      <trkpt lat="45.6245432" lon="-73.5901826"/>
      <trkpt lat="45.625043" lon="-73.5895361"/>
      <trkpt lat="45.6264246" lon="-73.5876568"/>
      <trkpt lat="45.6269708" lon="-73.588231"/>
      <trkpt lat="45.6259725" lon="-73.5882764"/>
      <trkpt lat="45.6269708" lon="-73.588231"/>
      <trkpt lat="45.6276263" lon="-73.5889353"/>
      <trkpt lat="45.6271962" lon="-73.5895695"/>
      <trkpt lat="45.6278564" lon="-73.5902901"/>
      <trkpt lat="45.6283129" lon="-73.5907788"/>
      <trkpt lat="45.6278564" lon="-73.5902901"/>
      <trkpt lat="45.6271962" lon="-73.5895695"/>
      <trkpt lat="45.6267428" lon="-73.5901912"/>
      <trkpt lat="45.6271962" lon="-73.5895695"/>
      <trkpt lat="45.6276263" lon="-73.5889353"/>
      <trkpt lat="45.6293437" lon="-73.5907566"/>
      <trkpt lat="45.6288709" lon="-73.5913676"/>
      <trkpt lat="45.6283129" lon="-73.5907788"/>
      <trkpt lat="45.6288709" lon="-73.5913676"/>
      <trkpt lat="45.6279698" lon="-73.5925991"/>
      <trkpt lat="45.6272633" lon="-73.5918898"/>
      <trkpt lat="45.6268789" lon="-73.5926378"/>
      <trkpt lat="45.6272633" lon="-73.5918898"/>
      <trkpt lat="45.6279698" lon="-73.5925991"/>
      <trkpt lat="45.6285469" lon="-73.5932331"/>
      <trkpt lat="45.629347" lon="-73.5921829"/>
      <trkpt lat="45.6304573" lon="-73.590729"/>
      <trkpt lat="45.6307984" lon="-73.590276"/>
      <trkpt lat="45.6313788" lon="-73.5895073"/>
      <trkpt lat="45.631474" lon="-73.5893893"/>
      <trkpt lat="45.632717" lon="-73.5877735"/>
      <trkpt lat="45.6342386" lon="-73.585733"/>
      <trkpt lat="45.6363417" lon="-73.5829827"/>
      <trkpt lat="45.6364276" lon="-73.5830685"/>
      <trkpt lat="45.6370393" lon="-73.5837055"/>
      <trkpt lat="45.6364772" lon="-73.5844545"/>
      <trkpt lat="45.638443" lon="-73.5865017"/>
      <trkpt lat="45.6364772" lon="-73.5844545"/>
      <trkpt lat="45.6359074" lon="-73.5851914"/>
      <trkpt lat="45.6364772" lon="-73.5844545"/>
      <trkpt lat="45.6370393" lon="-73.5837055"/>
      <trkpt lat="45.6364276" lon="-73.5830685"/>
      <trkpt lat="45.6370393" lon="-73.5837055"/>
      <trkpt lat="45.638443" lon="-73.5865017"/>
      <trkpt lat="45.637946" lon="-73.5873266"/>
      <trkpt lat="45.6398163" lon="-73.5878368"/>
      <trkpt lat="45.6402575" lon="-73.5869761"/>
      <trkpt lat="45.6417332" lon="-73.5885219"/>
      <trkpt lat="45.6402575" lon="-73.5869761"/>
      <trkpt lat="45.6398163" lon="-73.5878368"/>
      <trkpt lat="45.6412908" lon="-73.589409"/>
      <trkpt lat="45.6408224" lon="-73.5903037"/>
      <trkpt lat="45.6403834" lon="-73.5911913"/>
      <trkpt lat="45.6410191" lon="-73.591874"/>
      <trkpt lat="45.6411224" lon="-73.5919816"/>
      <trkpt lat="45.6407807" lon="-73.5926381"/>
      <trkpt lat="45.6404223" lon="-73.5933392"/>
      <trkpt lat="45.6414812" lon="-73.5944671"/>
      <trkpt lat="45.6438046" lon="-73.5969063"/>
      <trkpt lat="45.6414812" lon="-73.5944671"/>
      <trkpt lat="45.6411674" lon="-73.5950872"/>
      <trkpt lat="45.6434218" lon="-73.5974577"/>
      <trkpt lat="45.6438046" lon="-73.5969063"/>
      <trkpt lat="45.6442094" lon="-73.5962721"/>
      <trkpt lat="45.641849" lon="-73.5937711"/>
      <trkpt lat="45.6442094" lon="-73.5962721"/>
      <trkpt lat="45.6446119" lon="-73.595644"/>
      <trkpt lat="45.6421911" lon="-73.5931037"/>
      <trkpt lat="45.641849" lon="-73.5937711"/>
      <trkpt lat="45.6414812" lon="-73.5944671"/>
      <trkpt lat="45.6404223" lon="-73.5933392"/>
      <trkpt lat="45.6403147" lon="-73.5932233"/>
      <trkpt lat="45.6404223" lon="-73.5933392"/>
      <trkpt lat="45.6400921" lon="-73.5939595"/>
      <trkpt lat="45.6411674" lon="-73.5950872"/>
      <trkpt lat="45.6400921" lon="-73.5939595"/>
      <trkpt lat="45.6399934" lon="-73.5938553"/>
      <trkpt lat="45.6400921" lon="-73.5939595"/>
      <trkpt lat="45.6397019" lon="-73.5947409"/>
      <trkpt lat="45.6411674" lon="-73.5950872"/>
      <trkpt lat="45.6397019" lon="-73.5947409"/>
      <trkpt lat="45.6385595" lon="-73.5969406"/>
      <trkpt lat="45.6384761" lon="-73.5970947"/>
      <trkpt lat="45.6383798" lon="-73.5969832"/>
      <trkpt lat="45.6384632" lon="-73.5968322"/>
      <trkpt lat="45.6385595" lon="-73.5969406"/>
      <trkpt lat="45.639236" lon="-73.5976811"/>
      <trkpt lat="45.6396542" lon="-73.5980445"/>
      <trkpt lat="45.6408959" lon="-73.5982052"/>
      <trkpt lat="45.6417666" lon="-73.5982994"/>
      <trkpt lat="45.6423453" lon="-73.5992473"/>
      <trkpt lat="45.6417666" lon="-73.5982994"/>
      <trkpt lat="45.6410072" lon="-73.5994988"/>
      <trkpt lat="45.6410072" lon="-73.5994988"/>
      <trkpt lat="45.6417666" lon="-73.5982994"/>
      <trkpt lat="45.6408959" lon="-73.5982052"/>
      <trkpt lat="45.6387197" lon="-73.5986707"/>
      <trkpt lat="45.6381488" lon="-73.5997688"/>
      <trkpt lat="45.6386522" lon="-73.600327"/>
      <trkpt lat="45.6381488" lon="-73.5997688"/>
      <trkpt lat="45.6379121" lon="-73.6002305"/>
      <trkpt lat="45.6374243" lon="-73.5997241"/>
      <trkpt lat="45.6379121" lon="-73.6002305"/>
      <trkpt lat="45.6378453" lon="-73.600359"/>
      <trkpt lat="45.6383464" lon="-73.6009063"/>
      <trkpt lat="45.6378453" lon="-73.600359"/>
      <trkpt lat="45.6375432" lon="-73.6009372"/>
      <trkpt lat="45.637493" lon="-73.6010313"/>
      <trkpt lat="45.6379861" lon="-73.6015978"/>
      <trkpt lat="45.637493" lon="-73.6010313"/>
      <trkpt lat="45.6371355" lon="-73.6017014"/>
      <trkpt lat="45.6381523" lon="-73.6027755"/>
      <trkpt lat="45.6382258" lon="-73.6026391"/>
      <trkpt lat="45.6381523" lon="-73.6027755"/>
      <trkpt lat="45.6381361" lon="-73.6028088"/>
      <trkpt lat="45.6382258" lon="-73.6026391"/>
      <trkpt lat="45.6396183" lon="-73.6030031"/>
      <trkpt lat="45.6382258" lon="-73.6026391"/>
      <trkpt lat="45.6381361" lon="-73.6028088"/>
      <trkpt lat="45.637728" lon="-73.6036078"/>
      <trkpt lat="45.6360597" lon="-73.6018324"/>
      <trkpt lat="45.6359419" lon="-73.601703"/>
      <trkpt lat="45.6360597" lon="-73.6018324"/>
      <trkpt lat="45.6356252" lon="-73.6026733"/>
      <trkpt lat="45.6351206" lon="-73.6036521"/>
      <trkpt lat="45.6373899" lon="-73.6060807"/>
      <trkpt lat="45.6351206" lon="-73.6036521"/>
      <trkpt lat="45.6350079" lon="-73.603538"/>
      <trkpt lat="45.6344726" lon="-73.6027642"/>
      <trkpt lat="45.633925" lon="-73.6021695"/>
      <trkpt lat="45.6323635" lon="-73.6005152"/>
      <trkpt lat="45.6323457" lon="-73.6017909"/>
      <trkpt lat="45.6323635" lon="-73.6005152"/>
      <trkpt lat="45.633925" lon="-73.6021695"/>
      <trkpt lat="45.6330796" lon="-73.6025693"/>
      <trkpt lat="45.6328639" lon="-73.6029768"/>
      <trkpt lat="45.6328639" lon="-73.6029768"/>
      <trkpt lat="45.6330796" lon="-73.6025693"/>
      <trkpt lat="45.6323457" lon="-73.6017909"/>
      <trkpt lat="45.63212" lon="-73.6021707"/>
      <trkpt lat="45.63212" lon="-73.6021707"/>
      <trkpt lat="45.6323457" lon="-73.6017909"/>
      <trkpt lat="45.6330796" lon="-73.6025693"/>
      <trkpt lat="45.633925" lon="-73.6021695"/>
      <trkpt lat="45.6344726" lon="-73.6027642"/>
      <trkpt lat="45.6336906" lon="-73.6041169"/>
      <trkpt lat="45.6336906" lon="-73.6041169"/>
      <trkpt lat="45.6344726" lon="-73.6027642"/>
      <trkpt lat="45.6350079" lon="-73.603538"/>
      <trkpt lat="45.6351206" lon="-73.6036521"/>
      <trkpt lat="45.6338788" lon="-73.6056717"/>
      <trkpt lat="45.6328378" lon="-73.6071437"/>
      <trkpt lat="45.6327376" lon="-73.6070436"/>
      <trkpt lat="45.6321216" lon="-73.6064068"/>
      <trkpt lat="45.6324221" lon="-73.6047731"/>
      <trkpt lat="45.632265" lon="-73.6046223"/>
      <trkpt lat="45.6303486" lon="-73.6038398"/>
      <trkpt lat="45.632265" lon="-73.6046223"/>
      <trkpt lat="45.6324221" lon="-73.6047731"/>
      <trkpt lat="45.6321216" lon="-73.6064068"/>
      <trkpt lat="45.6317801" lon="-73.6060281"/>
      <trkpt lat="45.6314481" lon="-73.6052876"/>
      <trkpt lat="45.6317801" lon="-73.6060281"/>
      <trkpt lat="45.6312922" lon="-73.6055349"/>
      <trkpt lat="45.6314481" lon="-73.6052876"/>
      <trkpt lat="45.6303486" lon="-73.6038398"/>
      <trkpt lat="45.6314481" lon="-73.6052876"/>
      <trkpt lat="45.6312922" lon="-73.6055349"/>
      <trkpt lat="45.6317801" lon="-73.6060281"/>
      <trkpt lat="45.6321216" lon="-73.6064068"/>
      <trkpt lat="45.6313624" lon="-73.607206"/>
      <trkpt lat="45.6312922" lon="-73.6055349"/>
      <trkpt lat="45.6313624" lon="-73.607206"/>
      <trkpt lat="45.6309281" lon="-73.6077"/>
      <trkpt lat="45.6313624" lon="-73.607206"/>
      <trkpt lat="45.6321216" lon="-73.6064068"/>
      <trkpt lat="45.6327376" lon="-73.6070436"/>
      <trkpt lat="45.6328378" lon="-73.6071437"/>
      <trkpt lat="45.6318295" lon="-73.6086057"/>
      <trkpt lat="45.6313794" lon="-73.6092945"/>
      <trkpt lat="45.6320118" lon="-73.609957"/>
      <trkpt lat="45.6324623" lon="-73.6093137"/>
      <trkpt lat="45.6320118" lon="-73.609957"/>
      <trkpt lat="45.6316833" lon="-73.6105769"/>
      <trkpt lat="45.6320118" lon="-73.609957"/>
      <trkpt lat="45.6335917" lon="-73.6116772"/>
      <trkpt lat="45.6353406" lon="-73.6091612"/>
      <trkpt lat="45.6358113" lon="-73.6083275"/>
      <trkpt lat="45.6352575" lon="-73.607751"/>
      <trkpt lat="45.6347967" lon="-73.6085941"/>
      <trkpt lat="45.6353406" lon="-73.6091612"/>
      <trkpt lat="45.6358113" lon="-73.6083275"/>
      <trkpt lat="45.636917" lon="-73.606688"/>
      <trkpt lat="45.6352575" lon="-73.607751"/>
      <trkpt lat="45.636917" lon="-73.606688"/>
      <trkpt lat="45.6373899" lon="-73.6060807"/>
      <trkpt lat="45.6379903" lon="-73.6051762"/>
      <trkpt lat="45.6356252" lon="-73.6026733"/>
      <trkpt lat="45.6355117" lon="-73.6025576"/>
      <trkpt lat="45.6353967" lon="-73.6024255"/>
      <trkpt lat="45.6355117" lon="-73.6025576"/>
      <trkpt lat="45.6356252" lon="-73.6026733"/>
      <trkpt lat="45.6379903" lon="-73.6051762"/>
      <trkpt lat="45.6384808" lon="-73.6044119"/>
      <trkpt lat="45.637728" lon="-73.6036078"/>
      <trkpt lat="45.6381361" lon="-73.6028088"/>
      <trkpt lat="45.6381523" lon="-73.6027755"/>
      <trkpt lat="45.6371355" lon="-73.6017014"/>
      <trkpt lat="45.637493" lon="-73.6010313"/>
      <trkpt lat="45.6375432" lon="-73.6009372"/>
      <trkpt lat="45.6370312" lon="-73.6003989"/>
      <trkpt lat="45.6375432" lon="-73.6009372"/>
      <trkpt lat="45.6378453" lon="-73.600359"/>
      <trkpt lat="45.6379121" lon="-73.6002305"/>
      <trkpt lat="45.6381488" lon="-73.5997688"/>
      <trkpt lat="45.6387197" lon="-73.5986707"/>
      <trkpt lat="45.6408959" lon="-73.5982052"/>
      <trkpt lat="45.6396542" lon="-73.5980445"/>
      <trkpt lat="45.6391626" lon="-73.5978206"/>
      <trkpt lat="45.639236" lon="-73.5976811"/>
      <trkpt lat="45.6391626" lon="-73.5978206"/>
      <trkpt lat="45.6387197" lon="-73.5986707"/>
      <trkpt lat="45.6391626" lon="-73.5978206"/>
      <trkpt lat="45.6384761" lon="-73.5970947"/>
      <trkpt lat="45.6376478" lon="-73.5987149"/>
      <trkpt lat="45.6375488" lon="-73.5985888"/>
      <trkpt lat="45.6359891" lon="-73.5986031"/>
      <trkpt lat="45.6359041" lon="-73.5987656"/>
      <trkpt lat="45.6353642" lon="-73.5998142"/>
      <trkpt lat="45.6363615" lon="-73.6008941"/>
      <trkpt lat="45.6353642" lon="-73.5998142"/>
      <trkpt lat="45.6359041" lon="-73.5987656"/>
      <trkpt lat="45.6359891" lon="-73.5986031"/>
      <trkpt lat="45.6375488" lon="-73.5985888"/>
      <trkpt lat="45.6376478" lon="-73.5987149"/>
      <trkpt lat="45.636462" lon="-73.6010178"/>
      <trkpt lat="45.6360597" lon="-73.6018324"/>
      <trkpt lat="45.637728" lon="-73.6036078"/>
      <trkpt lat="45.6384808" lon="-73.6044119"/>
      <trkpt lat="45.6396183" lon="-73.6030031"/>
      <trkpt lat="45.640127" lon="-73.6022238"/>
      <trkpt lat="45.6394823" lon="-73.6014888"/>
      <trkpt lat="45.640127" lon="-73.6022238"/>
      <trkpt lat="45.6423453" lon="-73.5992473"/>
      <trkpt lat="45.6434218" lon="-73.5974577"/>
      <trkpt lat="45.6411674" lon="-73.5950872"/>
      <trkpt lat="45.6414812" lon="-73.5944671"/>
      <trkpt lat="45.641849" lon="-73.5937711"/>
      <trkpt lat="45.6407807" lon="-73.5926381"/>
      <trkpt lat="45.6406741" lon="-73.5925262"/>
      <trkpt lat="45.6407807" lon="-73.5926381"/>
      <trkpt lat="45.641849" lon="-73.5937711"/>
      <trkpt lat="45.6421911" lon="-73.5931037"/>
      <trkpt lat="45.6446119" lon="-73.595644"/>
      <trkpt lat="45.6458198" lon="-73.5941302"/>
      <trkpt lat="45.644733" lon="-73.5930011"/>
      <trkpt lat="45.6442623" lon="-73.5939136"/>
      <trkpt lat="45.6440618" lon="-73.5943149"/>
      <trkpt lat="45.6442623" lon="-73.5939136"/>
      <trkpt lat="45.644733" lon="-73.5930011"/>
      <trkpt lat="45.6431333" lon="-73.5913198"/>
      <trkpt lat="45.6426503" lon="-73.5922183"/>
      <trkpt lat="45.6431333" lon="-73.5913198"/>
      <trkpt lat="45.6426503" lon="-73.5922183"/>
      <trkpt lat="45.6442623" lon="-73.5939136"/>
      <trkpt lat="45.6426503" lon="-73.5922183"/>
      <trkpt lat="45.6421911" lon="-73.5931037"/>
      <trkpt lat="45.6426503" lon="-73.5922183"/>
      <trkpt lat="45.6415761" lon="-73.5911134"/>
      <trkpt lat="45.6411224" lon="-73.5919816"/>
      <trkpt lat="45.6421911" lon="-73.5931037"/>
      <trkpt lat="45.6411224" lon="-73.5919816"/>
      <trkpt lat="45.6410191" lon="-73.591874"/>
      <trkpt lat="45.6403834" lon="-73.5911913"/>
      <trkpt lat="45.6398444" lon="-73.5906264"/>
      <trkpt lat="45.640021" lon="-73.590284"/>
      <trkpt lat="45.6398444" lon="-73.5906264"/>
      <trkpt lat="45.6403834" lon="-73.5911913"/>
      <trkpt lat="45.6408224" lon="-73.5903037"/>
      <trkpt lat="45.6391915" lon="-73.5885767"/>
      <trkpt lat="45.6408224" lon="-73.5903037"/>
      <trkpt lat="45.6412908" lon="-73.589409"/>
      <trkpt lat="45.6398163" lon="-73.5878368"/>
      <trkpt lat="45.6391915" lon="-73.5885767"/>
      <trkpt lat="45.6386537" lon="-73.5893569"/>
      <trkpt lat="45.6391915" lon="-73.5885767"/>
      <trkpt lat="45.6398163" lon="-73.5878368"/>
      <trkpt lat="45.637946" lon="-73.5873266"/>
      <trkpt lat="45.6375029" lon="-73.5881362"/>
      <trkpt lat="45.6386537" lon="-73.5893569"/>
      <trkpt lat="45.6398444" lon="-73.5906264"/>
      <trkpt lat="45.6395092" lon="-73.5912933"/>
      <trkpt lat="45.6391404" lon="-73.591975"/>
      <trkpt lat="45.6379268" lon="-73.5907012"/>
      <trkpt lat="45.6391404" lon="-73.591975"/>
      <trkpt lat="45.6403147" lon="-73.5932233"/>
      <trkpt lat="45.6391404" lon="-73.591975"/>
      <trkpt lat="45.6388259" lon="-73.5926179"/>
      <trkpt lat="45.6391404" lon="-73.591975"/>
      <trkpt lat="45.6395092" lon="-73.5912933"/>
      <trkpt lat="45.6398444" lon="-73.5906264"/>
      <trkpt lat="45.6386537" lon="-73.5893569"/>
      <trkpt lat="45.6382987" lon="-73.5900121"/>
      <trkpt lat="45.6395092" lon="-73.5912933"/>
      <trkpt lat="45.6406741" lon="-73.5925262"/>
      <trkpt lat="45.6395092" lon="-73.5912933"/>
      <trkpt lat="45.6382987" lon="-73.5900121"/>
      <trkpt lat="45.6379268" lon="-73.5907012"/>
      <trkpt lat="45.6376018" lon="-73.5913254"/>
      <trkpt lat="45.6388259" lon="-73.5926179"/>
      <trkpt lat="45.6376018" lon="-73.5913254"/>
      <trkpt lat="45.6372587" lon="-73.5920156"/>
      <trkpt lat="45.6376018" lon="-73.5913254"/>
      <trkpt lat="45.6363487" lon="-73.5900007"/>
      <trkpt lat="45.6376018" lon="-73.5913254"/>
      <trkpt lat="45.6379268" lon="-73.5907012"/>
      <trkpt lat="45.6382987" lon="-73.5900121"/>
      <trkpt lat="45.6386537" lon="-73.5893569"/>
      <trkpt lat="45.6375029" lon="-73.5881362"/>
      <trkpt lat="45.6353788" lon="-73.5858868"/>
      <trkpt lat="45.6375029" lon="-73.5881362"/>
      <trkpt lat="45.637157" lon="-73.5888029"/>
      <trkpt lat="45.6382987" lon="-73.5900121"/>
      <trkpt lat="45.637157" lon="-73.5888029"/>
      <trkpt lat="45.6375029" lon="-73.5881362"/>
      <trkpt lat="45.637946" lon="-73.5873266"/>
      <trkpt lat="45.6359074" lon="-73.5851914"/>
      <trkpt lat="45.6353177" lon="-73.5845364"/>
      <trkpt lat="45.6359074" lon="-73.5851914"/>
      <trkpt lat="45.6353788" lon="-73.5858868"/>
      <trkpt lat="45.6349428" lon="-73.5864707"/>
      <trkpt lat="45.6343394" lon="-73.5858406"/>
      <trkpt lat="45.6349428" lon="-73.5864707"/>
      <trkpt lat="45.637157" lon="-73.5888029"/>
      <trkpt lat="45.6367789" lon="-73.5894588"/>
      <trkpt lat="45.637157" lon="-73.5888029"/>
      <trkpt lat="45.6349428" lon="-73.5864707"/>
      <trkpt lat="45.6344893" lon="-73.5870577"/>
      <trkpt lat="45.6351988" lon="-73.5886936"/>
      <trkpt lat="45.6353463" lon="-73.5888507"/>
      <trkpt lat="45.6367789" lon="-73.5894588"/>
      <trkpt lat="45.6363487" lon="-73.5900007"/>
      <trkpt lat="45.6359718" lon="-73.5906374"/>
      <trkpt lat="45.6363487" lon="-73.5900007"/>
      <trkpt lat="45.6367789" lon="-73.5894588"/>
      <trkpt lat="45.6353463" lon="-73.5888507"/>
      <trkpt lat="45.6351988" lon="-73.5886936"/>
      <trkpt lat="45.6344893" lon="-73.5870577"/>
      <trkpt lat="45.6333946" lon="-73.5884985"/>
      <trkpt lat="45.6328086" lon="-73.5878658"/>
      <trkpt lat="45.6333946" lon="-73.5884985"/>
      <trkpt lat="45.6344893" lon="-73.5870577"/>
      <trkpt lat="45.6349428" lon="-73.5864707"/>
      <trkpt lat="45.6353788" lon="-73.5858868"/>
      <trkpt lat="45.6359074" lon="-73.5851914"/>
      <trkpt lat="45.637946" lon="-73.5873266"/>
      <trkpt lat="45.6398163" lon="-73.5878368"/>
      <trkpt lat="45.6402575" lon="-73.5869761"/>
      <trkpt lat="45.6417332" lon="-73.5885219"/>
      <trkpt lat="45.6421471" lon="-73.5877145"/>
      <trkpt lat="45.6425785" lon="-73.5868857"/>
      <trkpt lat="45.6429862" lon="-73.5860881"/>
      <trkpt lat="45.6434038" lon="-73.5852795"/>
      <trkpt lat="45.6438901" lon="-73.5843392"/>
      <trkpt lat="45.6433306" lon="-73.5837322"/>
      <trkpt lat="45.6437984" lon="-73.5827979"/>
      <trkpt lat="45.6442243" lon="-73.58199"/>
      <trkpt lat="45.6434202" lon="-73.5811563"/>
      <trkpt lat="45.6423017" lon="-73.5799552"/>
      <trkpt lat="45.6426733" lon="-73.5792356"/>
      <trkpt lat="45.6430953" lon="-73.5784448"/>
      <trkpt lat="45.6419586" lon="-73.5772319"/>
      <trkpt lat="45.6413563" lon="-73.5765901"/>
      <trkpt lat="45.6412741" lon="-73.5765025"/>
      <trkpt lat="45.6406587" lon="-73.575862"/>
      <trkpt lat="45.639257" lon="-73.5743712"/>
      <trkpt lat="45.6397276" lon="-73.5734521"/>
      <trkpt lat="45.6402722" lon="-73.5724045"/>
      <trkpt lat="45.6407199" lon="-73.571574"/>
      <trkpt lat="45.6411805" lon="-73.5706888"/>
      <trkpt lat="45.641136" lon="-73.5706399"/>
      <trkpt lat="45.6371603" lon="-73.5663743"/>
      <trkpt lat="45.636247" lon="-73.565362"/>
      <trkpt lat="45.6284209" lon="-73.5771459"/>
      <trkpt lat="45.6282774" lon="-73.5773812"/>
      <trkpt lat="45.6270392" lon="-73.579202"/>
      <trkpt lat="45.6254087" lon="-73.5815407"/>
      <trkpt lat="45.6262667" lon="-73.5827467"/>
      <trkpt lat="45.6264124" lon="-73.5830371"/>
      <trkpt lat="45.6291688" lon="-73.5867681"/>
      <trkpt lat="45.631474" lon="-73.5893893"/>
      <trkpt lat="45.6315664" lon="-73.589486"/>
      <trkpt lat="45.6331771" lon="-73.5911558"/>
      <trkpt lat="45.6348019" lon="-73.5928943"/>
      <trkpt lat="45.6347101" lon="-73.5930712"/>
      <trkpt lat="45.634268" lon="-73.5938859"/>
      <trkpt lat="45.6338655" lon="-73.594647"/>
      <trkpt lat="45.6332943" lon="-73.5940563"/>
      <trkpt lat="45.6326552" lon="-73.5933797"/>
      <trkpt lat="45.6312732" lon="-73.5942555"/>
      <trkpt lat="45.6326552" lon="-73.5933797"/>
      <trkpt lat="45.6332943" lon="-73.5940563"/>
      <trkpt lat="45.6338655" lon="-73.594647"/>
      <trkpt lat="45.6335278" lon="-73.5952947"/>
      <trkpt lat="45.6341251" lon="-73.595932"/>
      <trkpt lat="45.6347512" lon="-73.5979026"/>
      <trkpt lat="45.6356473" lon="-73.5975428"/>
      <trkpt lat="45.6347512" lon="-73.5979026"/>
      <trkpt lat="45.6341251" lon="-73.595932"/>
      <trkpt lat="45.6335278" lon="-73.5952947"/>
      <trkpt lat="45.6332236" lon="-73.5962929"/>
      <trkpt lat="45.6312732" lon="-73.5942555"/>
      <trkpt lat="45.6306582" lon="-73.5935814"/>
      <trkpt lat="45.6300761" lon="-73.5929779"/>
      <trkpt lat="45.6294265" lon="-73.5922743"/>
      <trkpt lat="45.6300761" lon="-73.5929779"/>
      <trkpt lat="45.6296447" lon="-73.5937975"/>
      <trkpt lat="45.6300761" lon="-73.5929779"/>
      <trkpt lat="45.6306582" lon="-73.5935814"/>
      <trkpt lat="45.6312732" lon="-73.5942555"/>
      <trkpt lat="45.6332236" lon="-73.5962929"/>
      <trkpt lat="45.6329399" lon="-73.5972495"/>
      <trkpt lat="45.6343472" lon="-73.5987231"/>
      <trkpt lat="45.6347512" lon="-73.5979026"/>
      <trkpt lat="45.6343472" lon="-73.5987231"/>
      <trkpt lat="45.6353642" lon="-73.5998142"/>
      <trkpt lat="45.6343472" lon="-73.5987231"/>
      <trkpt lat="45.6329399" lon="-73.5972495"/>
      <trkpt lat="45.6325479" lon="-73.5980991"/>
      <trkpt lat="45.6329399" lon="-73.5972495"/>
      <trkpt lat="45.63086" lon="-73.5950648"/>
      <trkpt lat="45.6312732" lon="-73.5942555"/>
      <trkpt lat="45.63086" lon="-73.5950648"/>
      <trkpt lat="45.6296447" lon="-73.5937975"/>
      <trkpt lat="45.6288093" lon="-73.595402"/>
      <trkpt lat="45.6294246" lon="-73.5960573"/>
      <trkpt lat="45.6289815" lon="-73.5969174"/>
      <trkpt lat="45.6295913" lon="-73.5975638"/>
      <trkpt lat="45.6289815" lon="-73.5969174"/>
      <trkpt lat="45.6272058" lon="-73.600488"/>
      <trkpt lat="45.6267772" lon="-73.6013231"/>
      <trkpt lat="45.6263928" lon="-73.6020862"/>
      <trkpt lat="45.6257954" lon="-73.6033754"/>
      <trkpt lat="45.6263928" lon="-73.6020862"/>
      <trkpt lat="45.6270441" lon="-73.6029021"/>
      <trkpt lat="45.6271298" lon="-73.603089"/>
      <trkpt lat="45.6270441" lon="-73.6029021"/>
      <trkpt lat="45.6263928" lon="-73.6020862"/>
      <trkpt lat="45.6258088" lon="-73.6014496"/>
      <trkpt lat="45.6263928" lon="-73.6020862"/>
      <trkpt lat="45.6267772" lon="-73.6013231"/>
      <trkpt lat="45.6254088" lon="-73.6010017"/>
      <trkpt lat="45.625666" lon="-73.6012979"/>
      <trkpt lat="45.6254088" lon="-73.6010017"/>
      <trkpt lat="45.6267772" lon="-73.6013231"/>
      <trkpt lat="45.6293359" lon="-73.6040607"/>
      <trkpt lat="45.6267772" lon="-73.6013231"/>
      <trkpt lat="45.6272058" lon="-73.600488"/>
      <trkpt lat="45.6254442" lon="-73.5989704"/>
      <trkpt lat="45.6253619" lon="-73.5988885"/>
      <trkpt lat="45.6254442" lon="-73.5989704"/>
      <trkpt lat="45.6272058" lon="-73.600488"/>
      <trkpt lat="45.627821" lon="-73.6011491"/>
      <trkpt lat="45.6291752" lon="-73.6025938"/>
      <trkpt lat="45.627821" lon="-73.6011491"/>
      <trkpt lat="45.6272058" lon="-73.600488"/>
      <trkpt lat="45.6289815" lon="-73.5969174"/>
      <trkpt lat="45.6294246" lon="-73.5960573"/>
      <trkpt lat="45.6288093" lon="-73.595402"/>
      <trkpt lat="45.6278777" lon="-73.5943824"/>
      <trkpt lat="45.6278029" lon="-73.5942869"/>
      <trkpt lat="45.6285469" lon="-73.5932331"/>
      <trkpt lat="45.6286206" lon="-73.593311"/>
      <trkpt lat="45.6278777" lon="-73.5943824"/>
      <trkpt lat="45.6271848" lon="-73.5956324"/>
      <trkpt lat="45.6271037" lon="-73.5955496"/>
      <trkpt lat="45.6259695" lon="-73.5943493"/>
      <trkpt lat="45.6235718" lon="-73.591839"/>
      <trkpt lat="45.6231723" lon="-73.5926047"/>
      <trkpt lat="45.624495" lon="-73.5939948"/>
      <trkpt lat="45.6241244" lon="-73.5946969"/>
      <trkpt lat="45.625205" lon="-73.5958211"/>
      <trkpt lat="45.6257349" lon="-73.5963867"/>
      <trkpt lat="45.625205" lon="-73.5958211"/>
      <trkpt lat="45.6241244" lon="-73.5946969"/>
      <trkpt lat="45.6237477" lon="-73.5954404"/>
      <trkpt lat="45.6248162" lon="-73.5965668"/>
      <trkpt lat="45.6244554" lon="-73.597266"/>
      <trkpt lat="45.6233741" lon="-73.5961416"/>
      <trkpt lat="45.6229463" lon="-73.5946169"/>
      <trkpt lat="45.6233741" lon="-73.5961416"/>
      <trkpt lat="45.6244554" lon="-73.597266"/>
      <trkpt lat="45.6248162" lon="-73.5965668"/>
      <trkpt lat="45.6253533" lon="-73.5971237"/>
      <trkpt lat="45.6244554" lon="-73.597266"/>
      <trkpt lat="45.6253533" lon="-73.5971237"/>
      <trkpt lat="45.6248162" lon="-73.5965668"/>
      <trkpt lat="45.6237477" lon="-73.5954404"/>
      <trkpt lat="45.6229463" lon="-73.5946169"/>
      <trkpt lat="45.6228097" lon="-73.5933262"/>
      <trkpt lat="45.6229463" lon="-73.5946169"/>
      <trkpt lat="45.6237477" lon="-73.5954404"/>
      <trkpt lat="45.6233741" lon="-73.5961416"/>
      <trkpt lat="45.6237477" lon="-73.5954404"/>
      <trkpt lat="45.6241244" lon="-73.5946969"/>
      <trkpt lat="45.6228097" lon="-73.5933262"/>
      <trkpt lat="45.6241244" lon="-73.5946969"/>
      <trkpt lat="45.624495" lon="-73.5939948"/>
      <trkpt lat="45.6231723" lon="-73.5926047"/>
      <trkpt lat="45.6228097" lon="-73.5933262"/>
      <trkpt lat="45.6231723" lon="-73.5926047"/>
      <trkpt lat="45.6235718" lon="-73.591839"/>
      <trkpt lat="45.6259695" lon="-73.5943493"/>
      <trkpt lat="45.625565" lon="-73.5951135"/>
      <trkpt lat="45.625205" lon="-73.5958211"/>
      <trkpt lat="45.625565" lon="-73.5951135"/>
      <trkpt lat="45.624495" lon="-73.5939948"/>
      <trkpt lat="45.625565" lon="-73.5951135"/>
      <trkpt lat="45.6257349" lon="-73.5963867"/>
      <trkpt lat="45.625587" lon="-73.5966913"/>
      <trkpt lat="45.6253533" lon="-73.5971237"/>
      <trkpt lat="45.625587" lon="-73.5966913"/>
      <trkpt lat="45.6257349" lon="-73.5963867"/>
      <trkpt lat="45.625565" lon="-73.5951135"/>
      <trkpt lat="45.6259695" lon="-73.5943493"/>
      <trkpt lat="45.6271037" lon="-73.5955496"/>
      <trkpt lat="45.6271848" lon="-73.5956324"/>
      <trkpt lat="45.6262551" lon="-73.5974146"/>
      <trkpt lat="45.6254442" lon="-73.5989704"/>
      <trkpt lat="45.6247608" lon="-73.6002932"/>
      <trkpt lat="45.6254088" lon="-73.6010017"/>
      <trkpt lat="45.6247608" lon="-73.6002932"/>
      <trkpt lat="45.62468" lon="-73.6002042"/>
      <trkpt lat="45.6241005" lon="-73.5995819"/>
      <trkpt lat="45.623017" lon="-73.5975225"/>
      <trkpt lat="45.622061" lon="-73.596491"/>
      <trkpt lat="45.6212525" lon="-73.5956313"/>
      <trkpt lat="45.6208588" lon="-73.5940934"/>
      <trkpt lat="45.6212525" lon="-73.5956313"/>
      <trkpt lat="45.6215637" lon="-73.5950472"/>
      <trkpt lat="45.6212525" lon="-73.5956313"/>
      <trkpt lat="45.622061" lon="-73.596491"/>
      <trkpt lat="45.6222906" lon="-73.5960341"/>
      <trkpt lat="45.622061" lon="-73.596491"/>
      <trkpt lat="45.6217817" lon="-73.597042"/>
      <trkpt lat="45.622061" lon="-73.596491"/>
      <trkpt lat="45.623017" lon="-73.5975225"/>
      <trkpt lat="45.6233181" lon="-73.5969642"/>
      <trkpt lat="45.623017" lon="-73.5975225"/>
      <trkpt lat="45.6241005" lon="-73.5995819"/>
      <trkpt lat="45.6234301" lon="-73.6008737"/>
      <trkpt lat="45.6231102" lon="-73.6015007"/>
      <trkpt lat="45.6217025" lon="-73.6011984"/>
      <trkpt lat="45.620361" lon="-73.5997915"/>
      <trkpt lat="45.6207617" lon="-73.5990402"/>
      <trkpt lat="45.6210911" lon="-73.5984124"/>
      <trkpt lat="45.6213302" lon="-73.5979622"/>
      <trkpt lat="45.6210911" lon="-73.5984124"/>
      <trkpt lat="45.6207617" lon="-73.5990402"/>
      <trkpt lat="45.620361" lon="-73.5997915"/>
      <trkpt lat="45.6190275" lon="-73.5983957"/>
      <trkpt lat="45.620361" lon="-73.5997915"/>
      <trkpt lat="45.6217025" lon="-73.6011984"/>
      <trkpt lat="45.6221088" lon="-73.6004563"/>
      <trkpt lat="45.6217025" lon="-73.6011984"/>
      <trkpt lat="45.6212856" lon="-73.6019783"/>
      <trkpt lat="45.6217025" lon="-73.6011984"/>
      <trkpt lat="45.6231102" lon="-73.6015007"/>
      <trkpt lat="45.6221088" lon="-73.6004563"/>
      <trkpt lat="45.6207617" lon="-73.5990402"/>
      <trkpt lat="45.6194204" lon="-73.5976308"/>
      <trkpt lat="45.6183299" lon="-73.5964532"/>
      <trkpt lat="45.6190275" lon="-73.5983957"/>
      <trkpt lat="45.6194204" lon="-73.5976308"/>
      <trkpt lat="45.6190275" lon="-73.5983957"/>
      <trkpt lat="45.6183299" lon="-73.5964532"/>
      <trkpt lat="45.6187206" lon="-73.5959469"/>
      <trkpt lat="45.6183299" lon="-73.5964532"/>
      <trkpt lat="45.6187206" lon="-73.5959469"/>
      <trkpt lat="45.6210911" lon="-73.5984124"/>
      <trkpt lat="45.6234301" lon="-73.6008737"/>
      <trkpt lat="45.6241005" lon="-73.5995819"/>
      <trkpt lat="45.62468" lon="-73.6002042"/>
      <trkpt lat="45.6247608" lon="-73.6002932"/>
      <trkpt lat="45.6254088" lon="-73.6010017"/>
      <trkpt lat="45.625666" lon="-73.6012979"/>
      <trkpt lat="45.6258088" lon="-73.6014496"/>
      <trkpt lat="45.625666" lon="-73.6012979"/>
      <trkpt lat="45.6258088" lon="-73.6014496"/>
      <trkpt lat="45.6263928" lon="-73.6020862"/>
      <trkpt lat="45.6257954" lon="-73.6033754"/>
      <trkpt lat="45.6254692" lon="-73.6040011"/>
      <trkpt lat="45.6257954" lon="-73.6033754"/>
      <trkpt lat="45.6240927" lon="-73.6015767"/>
      <trkpt lat="45.6240087" lon="-73.601493"/>
      <trkpt lat="45.62468" lon="-73.6002042"/>
      <trkpt lat="45.6253619" lon="-73.5988885"/>
      <trkpt lat="45.6261766" lon="-73.5973223"/>
      <trkpt lat="45.6271037" lon="-73.5955496"/>
      <trkpt lat="45.6278029" lon="-73.5942869"/>
      <trkpt lat="45.6278777" lon="-73.5943824"/>
      <trkpt lat="45.6288093" lon="-73.595402"/>
      <trkpt lat="45.6282971" lon="-73.5965126"/>
      <trkpt lat="45.6289815" lon="-73.5969174"/>
      <trkpt lat="45.6282971" lon="-73.5965126"/>
      <trkpt lat="45.6271848" lon="-73.5956324"/>
      <trkpt lat="45.6282971" lon="-73.5965126"/>
      <trkpt lat="45.6288093" lon="-73.595402"/>
      <trkpt lat="45.6296447" lon="-73.5937975"/>
      <trkpt lat="45.63086" lon="-73.5950648"/>
      <trkpt lat="45.6304441" lon="-73.5958531"/>
      <trkpt lat="45.629995" lon="-73.5966655"/>
      <trkpt lat="45.6294246" lon="-73.5960573"/>
      <trkpt lat="45.629995" lon="-73.5966655"/>
      <trkpt lat="45.6321063" lon="-73.5989416"/>
      <trkpt lat="45.6316684" lon="-73.5997741"/>
      <trkpt lat="45.6323635" lon="-73.6005152"/>
      <trkpt lat="45.6316684" lon="-73.5997741"/>
      <trkpt lat="45.6310462" lon="-73.5991377"/>
      <trkpt lat="45.6306576" lon="-73.5999153"/>
      <trkpt lat="45.6293525" lon="-73.5985439"/>
      <trkpt lat="45.6306576" lon="-73.5999153"/>
      <trkpt lat="45.6299938" lon="-73.600543"/>
      <trkpt lat="45.6306576" lon="-73.5999153"/>
      <trkpt lat="45.6310462" lon="-73.5991377"/>
      <trkpt lat="45.6295913" lon="-73.5975638"/>
      <trkpt lat="45.6291841" lon="-73.5983693"/>
      <trkpt lat="45.6293525" lon="-73.5985439"/>
      <trkpt lat="45.6291841" lon="-73.5983693"/>
      <trkpt lat="45.6295913" lon="-73.5975638"/>
      <trkpt lat="45.6310462" lon="-73.5991377"/>
      <trkpt lat="45.6316684" lon="-73.5997741"/>
      <trkpt lat="45.6297657" lon="-73.60323"/>
      <trkpt lat="45.6291752" lon="-73.6025938"/>
      <trkpt lat="45.6297657" lon="-73.60323"/>
      <trkpt lat="45.6303486" lon="-73.6038398"/>
      <trkpt lat="45.6297657" lon="-73.60323"/>
      <trkpt lat="45.6293359" lon="-73.6040607"/>
      <trkpt lat="45.6298905" lon="-73.6066083"/>
      <trkpt lat="45.6299918" lon="-73.6047895"/>
      <trkpt lat="45.6298641" lon="-73.6046516"/>
      <trkpt lat="45.6293359" lon="-73.6040607"/>
      <trkpt lat="45.6298905" lon="-73.6066083"/>
      <trkpt lat="45.6309281" lon="-73.6077"/>
      <trkpt lat="45.6317115" lon="-73.6085188"/>
      <trkpt lat="45.6309281" lon="-73.6077"/>
      <trkpt lat="45.6304892" lon="-73.6083503"/>
      <trkpt lat="45.63125" lon="-73.6091531"/>
      <trkpt lat="45.6313794" lon="-73.6092945"/>
      <trkpt lat="45.6309852" lon="-73.6098495"/>
      <trkpt lat="45.6304925" lon="-73.6105405"/>
      <trkpt lat="45.6299862" lon="-73.6113365"/>
      <trkpt lat="45.6294844" lon="-73.6120632"/>
      <trkpt lat="45.6273809" lon="-73.6150407"/>
      <trkpt lat="45.6279342" lon="-73.6156355"/>
      <trkpt lat="45.6274974" lon="-73.6164754"/>
      <trkpt lat="45.6274974" lon="-73.6164754"/>
      <trkpt lat="45.628036" lon="-73.6170178"/>
      <trkpt lat="45.6281665" lon="-73.6171496"/>
      <trkpt lat="45.6286805" lon="-73.6177053"/>
      <trkpt lat="45.6288287" lon="-73.6178508"/>
      <trkpt lat="45.6286805" lon="-73.6177053"/>
      <trkpt lat="45.6281665" lon="-73.6171496"/>
      <trkpt lat="45.628036" lon="-73.6170178"/>
      <trkpt lat="45.6274974" lon="-73.6164754"/>
      <trkpt lat="45.6279342" lon="-73.6156355"/>
      <trkpt lat="45.6273809" lon="-73.6150407"/>
      <trkpt lat="45.6272863" lon="-73.6149442"/>
      <trkpt lat="45.6273809" lon="-73.6150407"/>
      <trkpt lat="45.6279342" lon="-73.6156355"/>
      <trkpt lat="45.6284588" lon="-73.6161874"/>
      <trkpt lat="45.6279342" lon="-73.6156355"/>
      <trkpt lat="45.6284588" lon="-73.6161874"/>
      <trkpt lat="45.6289584" lon="-73.6152422"/>
      <trkpt lat="45.6299487" lon="-73.6162504"/>
      <trkpt lat="45.6290865" lon="-73.6153685"/>
      <trkpt lat="45.6299487" lon="-73.6162504"/>
      <trkpt lat="45.6294482" lon="-73.6172344"/>
      <trkpt lat="45.6299487" lon="-73.6162504"/>
      <trkpt lat="45.6289584" lon="-73.6152422"/>
      <trkpt lat="45.6290865" lon="-73.6153685"/>
      <trkpt lat="45.6289584" lon="-73.6152422"/>
      <trkpt lat="45.6290865" lon="-73.6153685"/>
      <trkpt lat="45.628591" lon="-73.6163307"/>
      <trkpt lat="45.6281665" lon="-73.6171496"/>
      <trkpt lat="45.628036" lon="-73.6170178"/>
      <trkpt lat="45.6284588" lon="-73.6161874"/>
      <trkpt lat="45.628591" lon="-73.6163307"/>
      <trkpt lat="45.6284588" lon="-73.6161874"/>
      <trkpt lat="45.628591" lon="-73.6163307"/>
      <trkpt lat="45.6294482" lon="-73.6172344"/>
      <trkpt lat="45.628591" lon="-73.6163307"/>
      <trkpt lat="45.6294482" lon="-73.6172344"/>
      <trkpt lat="45.630116" lon="-73.6179466"/>
      <trkpt lat="45.6311343" lon="-73.6164119"/>
      <trkpt lat="45.630116" lon="-73.6179466"/>
      <trkpt lat="45.6294482" lon="-73.6172344"/>
      <trkpt lat="45.630116" lon="-73.6179466"/>
      <trkpt lat="45.6311343" lon="-73.6164119"/>
      <trkpt lat="45.6325642" lon="-73.6135116"/>
      <trkpt lat="45.6332509" lon="-73.6122944"/>
      <trkpt lat="45.6335917" lon="-73.6116772"/>
      <trkpt lat="45.6353406" lon="-73.6091612"/>
      <trkpt lat="45.6347967" lon="-73.6085941"/>
      <trkpt lat="45.6352575" lon="-73.607751"/>
      <trkpt lat="45.6342704" lon="-73.6066462"/>
      <trkpt lat="45.6350388" lon="-73.6055607"/>
      <trkpt lat="45.6350388" lon="-73.6055607"/>
      <trkpt lat="45.6342704" lon="-73.6066462"/>
      <trkpt lat="45.6334808" lon="-73.6078672"/>
      <trkpt lat="45.6345435" lon="-73.6089876"/>
      <trkpt lat="45.6347967" lon="-73.6085941"/>
      <trkpt lat="45.6345435" lon="-73.6089876"/>
      <trkpt lat="45.6340118" lon="-73.6097007"/>
      <trkpt lat="45.6324623" lon="-73.6093137"/>
      <trkpt lat="45.6318295" lon="-73.6086057"/>
      <trkpt lat="45.6324623" lon="-73.6093137"/>
      <trkpt lat="45.6340118" lon="-73.6097007"/>
      <trkpt lat="45.6345435" lon="-73.6089876"/>
      <trkpt lat="45.6334808" lon="-73.6078672"/>
      <trkpt lat="45.6329928" lon="-73.6086214"/>
      <trkpt lat="45.6340118" lon="-73.6097007"/>
      <trkpt lat="45.6329928" lon="-73.6086214"/>
      <trkpt lat="45.6324623" lon="-73.6093137"/>
      <trkpt lat="45.6329928" lon="-73.6086214"/>
      <trkpt lat="45.6334808" lon="-73.6078672"/>
      <trkpt lat="45.6342704" lon="-73.6066462"/>
      <trkpt lat="45.6338788" lon="-73.6056717"/>
      <trkpt lat="45.6337901" lon="-73.6055164"/>
      <trkpt lat="45.6350079" lon="-73.603538"/>
      <trkpt lat="45.6355117" lon="-73.6025576"/>
      <trkpt lat="45.6359419" lon="-73.601703"/>
      <trkpt lat="45.6363615" lon="-73.6008941"/>
      <trkpt lat="45.6375488" lon="-73.5985888"/>
      <trkpt lat="45.6383798" lon="-73.5969832"/>
      <trkpt lat="45.6384632" lon="-73.5968322"/>
      <trkpt lat="45.6399934" lon="-73.5938553"/>
      <trkpt lat="45.6393435" lon="-73.5931626"/>
      <trkpt lat="45.6389809" lon="-73.593872"/>
      <trkpt lat="45.6384757" lon="-73.59333"/>
      <trkpt lat="45.6372587" lon="-73.5920156"/>
      <trkpt lat="45.635594" lon="-73.5913735"/>
      <trkpt lat="45.6359718" lon="-73.5906374"/>
      <trkpt lat="45.6332503" lon="-73.5900427"/>
      <trkpt lat="45.6333946" lon="-73.5884985"/>
      <trkpt lat="45.6332503" lon="-73.5900427"/>
      <trkpt lat="45.6359718" lon="-73.5906374"/>
      <trkpt lat="45.635594" lon="-73.5913735"/>
      <trkpt lat="45.6337794" lon="-73.5906186"/>
      <trkpt lat="45.6332503" lon="-73.5900427"/>
      <trkpt lat="45.6337794" lon="-73.5906186"/>
      <trkpt lat="45.635594" lon="-73.5913735"/>
      <trkpt lat="45.6351957" lon="-73.592126"/>
      <trkpt lat="45.6337794" lon="-73.5906186"/>
      <trkpt lat="45.6351957" lon="-73.592126"/>
      <trkpt lat="45.635594" lon="-73.5913735"/>
      <trkpt lat="45.6372587" lon="-73.5920156"/>
      <trkpt lat="45.6384757" lon="-73.59333"/>
      <trkpt lat="45.6389809" lon="-73.593872"/>
      <trkpt lat="45.6377043" lon="-73.5948135"/>
      <trkpt lat="45.6384757" lon="-73.59333"/>
      <trkpt lat="45.6377043" lon="-73.5948135"/>
      <trkpt lat="45.6370484" lon="-73.5940924"/>
      <trkpt lat="45.6361389" lon="-73.59312"/>
      <trkpt lat="45.6351957" lon="-73.592126"/>
      <trkpt lat="45.6348019" lon="-73.5928943"/>
      <trkpt lat="45.6351957" lon="-73.592126"/>
      <trkpt lat="45.6361389" lon="-73.59312"/>
      <trkpt lat="45.6370484" lon="-73.5940924"/>
      <trkpt lat="45.6366487" lon="-73.5948756"/>
      <trkpt lat="45.6384632" lon="-73.5968322"/>
      <trkpt lat="45.6399934" lon="-73.5938553"/>
      <trkpt lat="45.6403147" lon="-73.5932233"/>
      <trkpt lat="45.6406741" lon="-73.5925262"/>
      <trkpt lat="45.6410191" lon="-73.591874"/>
      <trkpt lat="45.6423868" lon="-73.5892068"/>
      <trkpt lat="45.6417332" lon="-73.5885219"/>
      <trkpt lat="45.6421471" lon="-73.5877145"/>
      <trkpt lat="45.6425785" lon="-73.5868857"/>
      <trkpt lat="45.6429862" lon="-73.5860881"/>
      <trkpt lat="45.6434038" lon="-73.5852795"/>
      <trkpt lat="45.6438901" lon="-73.5843392"/>
      <trkpt lat="45.6433306" lon="-73.5837322"/>
      <trkpt lat="45.6437984" lon="-73.5827979"/>
      <trkpt lat="45.6442243" lon="-73.58199"/>
      <trkpt lat="45.6434202" lon="-73.5811563"/>
      <trkpt lat="45.6423017" lon="-73.5799552"/>
      <trkpt lat="45.6426733" lon="-73.5792356"/>
      <trkpt lat="45.6430953" lon="-73.5784448"/>
      <trkpt lat="45.6419586" lon="-73.5772319"/>
      <trkpt lat="45.6413563" lon="-73.5765901"/>
      <trkpt lat="45.6412741" lon="-73.5765025"/>
      <trkpt lat="45.6406587" lon="-73.575862"/>
      <trkpt lat="45.639257" lon="-73.5743712"/>
      <trkpt lat="45.6397276" lon="-73.5734521"/>
      <trkpt lat="45.6402722" lon="-73.5724045"/>
      <trkpt lat="45.6407199" lon="-73.571574"/>
      <trkpt lat="45.6411805" lon="-73.5706888"/>
      <trkpt lat="45.641136" lon="-73.5706399"/>
      <trkpt lat="45.6371603" lon="-73.5663743"/>
      <trkpt lat="45.636247" lon="-73.565362"/>
      <trkpt lat="45.6284209" lon="-73.5771459"/>
      <trkpt lat="45.6282774" lon="-73.5773812"/>
      <trkpt lat="45.6270392" lon="-73.579202"/>
      <trkpt lat="45.6254087" lon="-73.5815407"/>
      <trkpt lat="45.6262667" lon="-73.5827467"/>
      <trkpt lat="45.6264727" lon="-73.5828021"/>
      <trkpt lat="45.6262413" lon="-73.583234"/>
      <trkpt lat="45.6235836" lon="-73.5842192"/>
      <trkpt lat="45.62188" lon="-73.5867295"/>
      <trkpt lat="45.6229001" lon="-73.5878686"/>
      <trkpt lat="45.62188" lon="-73.5867295"/>
      <trkpt lat="45.6207701" lon="-73.5883526"/>
      <trkpt lat="45.6194942" lon="-73.5902168"/>
      <trkpt lat="45.6181588" lon="-73.5921843"/>
      <trkpt lat="45.6169319" lon="-73.5939824"/>
      <trkpt lat="45.6166351" lon="-73.5944088"/>
      <trkpt lat="45.6170941" lon="-73.5975924"/>
      <trkpt lat="45.6184988" lon="-73.5993999"/>
      <trkpt lat="45.6198963" lon="-73.6008283"/>
      <trkpt lat="45.6223639" lon="-73.6033218"/>
      <trkpt lat="45.6229721" lon="-73.6033353"/>
      <trkpt lat="45.6236894" lon="-73.6021086"/>
      <trkpt lat="45.6231102" lon="-73.6015007"/>
      <trkpt lat="45.6234301" lon="-73.6008737"/>
      <trkpt lat="45.6240087" lon="-73.601493"/>
      <trkpt lat="45.62468" lon="-73.6002042"/>
      <trkpt lat="45.6247608" lon="-73.6002932"/>
      <trkpt lat="45.6240927" lon="-73.6015767"/>
      <trkpt lat="45.6237741" lon="-73.6022012"/>
      <trkpt lat="45.6233624" lon="-73.6029734"/>
      <trkpt lat="45.6250605" lon="-73.6047721"/>
      <trkpt lat="45.6254692" lon="-73.6040011"/>
      <trkpt lat="45.6257954" lon="-73.6033754"/>
      <trkpt lat="45.6281375" lon="-73.6058594"/>
      <trkpt lat="45.6271298" lon="-73.603089"/>
      <trkpt lat="45.6281375" lon="-73.6058594"/>
      <trkpt lat="45.6278164" lon="-73.6064854"/>
      <trkpt lat="45.627404" lon="-73.6072599"/>
      <trkpt lat="45.6297553" lon="-73.6097541"/>
      <trkpt lat="45.627404" lon="-73.6072599"/>
      <trkpt lat="45.6278164" lon="-73.6064854"/>
      <trkpt lat="45.6301618" lon="-73.6089719"/>
      <trkpt lat="45.6308549" lon="-73.6097112"/>
      <trkpt lat="45.6309852" lon="-73.6098495"/>
      <trkpt lat="45.6304925" lon="-73.6105405"/>
      <trkpt lat="45.6325642" lon="-73.6135116"/>
      <trkpt lat="45.6332509" lon="-73.6122944"/>
      <trkpt lat="45.6316833" lon="-73.6105769"/>
      <trkpt lat="45.6309852" lon="-73.6098495"/>
      <trkpt lat="45.6304925" lon="-73.6105405"/>
      <trkpt lat="45.6325642" lon="-73.6135116"/>
      <trkpt lat="45.6304925" lon="-73.6105405"/>
      <trkpt lat="45.6303968" lon="-73.6104345"/>
      <trkpt lat="45.6308549" lon="-73.6097112"/>
      <trkpt lat="45.63125" lon="-73.6091531"/>
      <trkpt lat="45.6317115" lon="-73.6085188"/>
      <trkpt lat="45.6327376" lon="-73.6070436"/>
      <trkpt lat="45.6337901" lon="-73.6055164"/>
      <trkpt lat="45.6350079" lon="-73.603538"/>
      <trkpt lat="45.6355117" lon="-73.6025576"/>
      <trkpt lat="45.6359419" lon="-73.601703"/>
      <trkpt lat="45.6358309" lon="-73.6015894"/>
      <trkpt lat="45.6350715" lon="-73.6007919"/>
      <trkpt lat="45.634622" lon="-73.6016044"/>
      <trkpt lat="45.6350715" lon="-73.6007919"/>
      <trkpt lat="45.6358309" lon="-73.6015894"/>
      <trkpt lat="45.6353967" lon="-73.6024255"/>
      <trkpt lat="45.634622" lon="-73.6016044"/>
      <trkpt lat="45.6321063" lon="-73.5989416"/>
      <trkpt lat="45.629995" lon="-73.5966655"/>
      <trkpt lat="45.6304441" lon="-73.5958531"/>
      <trkpt lat="45.6325479" lon="-73.5980991"/>
      <trkpt lat="45.6350715" lon="-73.6007919"/>
      <trkpt lat="45.6325479" lon="-73.5980991"/>
      <trkpt lat="45.6321063" lon="-73.5989416"/>
      <trkpt lat="45.634622" lon="-73.6016044"/>
      <trkpt lat="45.6353967" lon="-73.6024255"/>
      <trkpt lat="45.6358309" lon="-73.6015894"/>
      <trkpt lat="45.6359419" lon="-73.601703"/>
      <trkpt lat="45.6363615" lon="-73.6008941"/>
      <trkpt lat="45.636462" lon="-73.6010178"/>
      <trkpt lat="45.6371355" lon="-73.6017014"/>
      <trkpt lat="45.636462" lon="-73.6010178"/>
      <trkpt lat="45.6363615" lon="-73.6008941"/>
      <trkpt lat="45.6375488" lon="-73.5985888"/>
      <trkpt lat="45.6383798" lon="-73.5969832"/>
      <trkpt lat="45.63656" lon="-73.5950419"/>
      <trkpt lat="45.6347101" lon="-73.5930712"/>
      <trkpt lat="45.6348019" lon="-73.5928943"/>
      <trkpt lat="45.6366487" lon="-73.5948756"/>
      <trkpt lat="45.63656" lon="-73.5950419"/>
      <trkpt lat="45.6366487" lon="-73.5948756"/>
      <trkpt lat="45.6370484" lon="-73.5940924"/>
      <trkpt lat="45.6377043" lon="-73.5948135"/>
      <trkpt lat="45.6389809" lon="-73.593872"/>
      <trkpt lat="45.6393435" lon="-73.5931626"/>
      <trkpt lat="45.6388259" lon="-73.5926179"/>
      <trkpt lat="45.6393435" lon="-73.5931626"/>
      <trkpt lat="45.6399934" lon="-73.5938553"/>
      <trkpt lat="45.6403147" lon="-73.5932233"/>
      <trkpt lat="45.6406741" lon="-73.5925262"/>
      <trkpt lat="45.6410191" lon="-73.591874"/>
      <trkpt lat="45.6423868" lon="-73.5892068"/>
      <trkpt lat="45.6417332" lon="-73.5885219"/>
      <trkpt lat="45.6421471" lon="-73.5877145"/>
      <trkpt lat="45.6425785" lon="-73.5868857"/>
      <trkpt lat="45.6429862" lon="-73.5860881"/>
      <trkpt lat="45.6434038" lon="-73.5852795"/>
      <trkpt lat="45.6438901" lon="-73.5843392"/>
      <trkpt lat="45.6433306" lon="-73.5837322"/>
      <trkpt lat="45.6437984" lon="-73.5827979"/>
      <trkpt lat="45.6442243" lon="-73.58199"/>
      <trkpt lat="45.6434202" lon="-73.5811563"/>
      <trkpt lat="45.6423017" lon="-73.5799552"/>
      <trkpt lat="45.6426733" lon="-73.5792356"/>
      <trkpt lat="45.6430953" lon="-73.5784448"/>
      <trkpt lat="45.6419586" lon="-73.5772319"/>
      <trkpt lat="45.6413563" lon="-73.5765901"/>
      <trkpt lat="45.6412741" lon="-73.5765025"/>
      <trkpt lat="45.6406587" lon="-73.575862"/>
      <trkpt lat="45.639257" lon="-73.5743712"/>
      <trkpt lat="45.6397276" lon="-73.5734521"/>
      <trkpt lat="45.6402722" lon="-73.5724045"/>
      <trkpt lat="45.6407199" lon="-73.571574"/>
      <trkpt lat="45.6411805" lon="-73.5706888"/>
      <trkpt lat="45.641136" lon="-73.5706399"/>
      <trkpt lat="45.6371603" lon="-73.5663743"/>
      <trkpt lat="45.636247" lon="-73.565362"/>
      <trkpt lat="45.6284209" lon="-73.5771459"/>
      <trkpt lat="45.6282774" lon="-73.5773812"/>
      <trkpt lat="45.6270392" lon="-73.579202"/>
      <trkpt lat="45.6254087" lon="-73.5815407"/>
      <trkpt lat="45.6253271" lon="-73.5816786"/>
      <trkpt lat="45.6235836" lon="-73.5842192"/>
      <trkpt lat="45.6262413" lon="-73.583234"/>
      <trkpt lat="45.6261572" lon="-73.5828176"/>
      <trkpt lat="45.6253271" lon="-73.5816786"/>
      <trkpt lat="45.6235836" lon="-73.5842192"/>
      <trkpt lat="45.62188" lon="-73.5867295"/>
      <trkpt lat="45.6207701" lon="-73.5883526"/>
      <trkpt lat="45.6194942" lon="-73.5902168"/>
      <trkpt lat="45.6181588" lon="-73.5921843"/>
      <trkpt lat="45.6169319" lon="-73.5939824"/>
      <trkpt lat="45.6166351" lon="-73.5944088"/>
      <trkpt lat="45.6170941" lon="-73.5975924"/>
      <trkpt lat="45.6184988" lon="-73.5993999"/>
      <trkpt lat="45.6198963" lon="-73.6008283"/>
      <trkpt lat="45.6223639" lon="-73.6033218"/>
      <trkpt lat="45.6229721" lon="-73.6033353"/>
      <trkpt lat="45.6236894" lon="-73.6021086"/>
      <trkpt lat="45.6240087" lon="-73.601493"/>
      <trkpt lat="45.62468" lon="-73.6002042"/>
      <trkpt lat="45.6253619" lon="-73.5988885"/>
      <trkpt lat="45.6261766" lon="-73.5973223"/>
      <trkpt lat="45.625587" lon="-73.5966913"/>
      <trkpt lat="45.6261766" lon="-73.5973223"/>
      <trkpt lat="45.6262551" lon="-73.5974146"/>
      <trkpt lat="45.6261766" lon="-73.5973223"/>
      <trkpt lat="45.6271037" lon="-73.5955496"/>
      <trkpt lat="45.6278029" lon="-73.5942869"/>
      <trkpt lat="45.6285469" lon="-73.5932331"/>
      <trkpt lat="45.629347" lon="-73.5921829"/>
      <trkpt lat="45.6304573" lon="-73.590729"/>
      <trkpt lat="45.6307984" lon="-73.590276"/>
      <trkpt lat="45.6313788" lon="-73.5895073"/>
      <trkpt lat="45.6290839" lon="-73.5868871"/>
      <trkpt lat="45.6290032" lon="-73.5870036"/>
      <trkpt lat="45.6290839" lon="-73.5868871"/>
      <trkpt lat="45.6291688" lon="-73.5867681"/>
      <trkpt lat="45.6290839" lon="-73.5868871"/>
      <trkpt lat="45.6290032" lon="-73.5870036"/>
      <trkpt lat="45.6285531" lon="-73.5876363"/>
      <trkpt lat="45.6290032" lon="-73.5870036"/>
      <trkpt lat="45.6292429" lon="-73.5866619"/>
      <trkpt lat="45.6291688" lon="-73.5867681"/>
      <trkpt lat="45.6292429" lon="-73.5866619"/>
      <trkpt lat="45.6291688" lon="-73.5867681"/>
      <trkpt lat="45.6290839" lon="-73.5868871"/>
      <trkpt lat="45.6261572" lon="-73.5828176"/>
      <trkpt lat="45.6253271" lon="-73.5816786"/>
      <trkpt lat="45.6235836" lon="-73.5842192"/>
      <trkpt lat="45.62188" lon="-73.5867295"/>
      <trkpt lat="45.6207701" lon="-73.5883526"/>
      <trkpt lat="45.6194942" lon="-73.5902168"/>
      <trkpt lat="45.6203495" lon="-73.5911719"/>
      <trkpt lat="45.6208689" lon="-73.5917073"/>
      <trkpt lat="45.6203495" lon="-73.5911719"/>
      <trkpt lat="45.6194942" lon="-73.5902168"/>
      <trkpt lat="45.6181588" lon="-73.5921843"/>
      <trkpt lat="45.6203495" lon="-73.5911719"/>
      <trkpt lat="45.6181588" lon="-73.5921843"/>
      <trkpt lat="45.6169319" lon="-73.5939824"/>
      <trkpt lat="45.6184126" lon="-73.5955852"/>
      <trkpt lat="45.6169319" lon="-73.5939824"/>
      <trkpt lat="45.6166351" lon="-73.5944088"/>
      <trkpt lat="45.6170941" lon="-73.5975924"/>
      <trkpt lat="45.6184988" lon="-73.5993999"/>
      <trkpt lat="45.6190275" lon="-73.5983957"/>
      <trkpt lat="45.6184988" lon="-73.5993999"/>
      <trkpt lat="45.6198963" lon="-73.6008283"/>
      <trkpt lat="45.6223639" lon="-73.6033218"/>
      <trkpt lat="45.6227674" lon="-73.6037322"/>
      <trkpt lat="45.6229721" lon="-73.6033353"/>
      <trkpt lat="45.6236894" lon="-73.6021086"/>
      <trkpt lat="45.6237741" lon="-73.6022012"/>
      <trkpt lat="45.6233624" lon="-73.6029734"/>
      <trkpt lat="45.6228957" lon="-73.6038705"/>
      <trkpt lat="45.6224987" lon="-73.6046345"/>
      <trkpt lat="45.6210267" lon="-73.6074712"/>
      <trkpt lat="45.6209494" lon="-73.6073907"/>
      <trkpt lat="45.6210267" lon="-73.6074712"/>
      <trkpt lat="45.6201161" lon="-73.6092314"/>
      <trkpt lat="45.6200356" lon="-73.6091463"/>
      <trkpt lat="45.6209494" lon="-73.6073907"/>
      <trkpt lat="45.6194205" lon="-73.6057232"/>
      <trkpt lat="45.6209494" lon="-73.6073907"/>
      <trkpt lat="45.6210267" lon="-73.6074712"/>
      <trkpt lat="45.6201161" lon="-73.6092314"/>
      <trkpt lat="45.6200356" lon="-73.6091463"/>
      <trkpt lat="45.6184836" lon="-73.6075087"/>
      <trkpt lat="45.6173763" lon="-73.6063457"/>
      <trkpt lat="45.6162987" lon="-73.6049097"/>
      <trkpt lat="45.6173763" lon="-73.6063457"/>
      <trkpt lat="45.6162987" lon="-73.6049097"/>
      <trkpt lat="45.6194205" lon="-73.6057232"/>
      <trkpt lat="45.6184836" lon="-73.6075087"/>
      <trkpt lat="45.6173763" lon="-73.6063457"/>
      <trkpt lat="45.6162987" lon="-73.6049097"/>
      <trkpt lat="45.6194205" lon="-73.6057232"/>
      <trkpt lat="45.6209494" lon="-73.6073907"/>
      <trkpt lat="45.622371" lon="-73.6044944"/>
      <trkpt lat="45.6227674" lon="-73.6037322"/>
      <trkpt lat="45.6228957" lon="-73.6038705"/>
      <trkpt lat="45.629872" lon="-73.6112268"/>
      <trkpt lat="45.6303968" lon="-73.6104345"/>
      <trkpt lat="45.6304925" lon="-73.6105405"/>
      <trkpt lat="45.6299862" lon="-73.6113365"/>
      <trkpt lat="45.6294844" lon="-73.6120632"/>
      <trkpt lat="45.6273809" lon="-73.6150407"/>
      <trkpt lat="45.6272863" lon="-73.6149442"/>
      <trkpt lat="45.6293653" lon="-73.6119377"/>
      <trkpt lat="45.629872" lon="-73.6112268"/>
      <trkpt lat="45.6299862" lon="-73.6113365"/>
      <trkpt lat="45.6294844" lon="-73.6120632"/>
      <trkpt lat="45.6293653" lon="-73.6119377"/>
      <trkpt lat="45.6224987" lon="-73.6046345"/>
      <trkpt lat="45.622371" lon="-73.6044944"/>
      <trkpt lat="45.6227674" lon="-73.6037322"/>
      <trkpt lat="45.6229721" lon="-73.6033353"/>
      <trkpt lat="45.6236894" lon="-73.6021086"/>
      <trkpt lat="45.6237741" lon="-73.6022012"/>
      <trkpt lat="45.6236894" lon="-73.6021086"/>
      <trkpt lat="45.6237741" lon="-73.6022012"/>
      <trkpt lat="45.6233624" lon="-73.6029734"/>
      <trkpt lat="45.6250605" lon="-73.6047721"/>
      <trkpt lat="45.6254692" lon="-73.6040011"/>
      <trkpt lat="45.6237741" lon="-73.6022012"/>
      <trkpt lat="45.6233624" lon="-73.6029734"/>
      <trkpt lat="45.6250605" lon="-73.6047721"/>
      <trkpt lat="45.6233624" lon="-73.6029734"/>
      <trkpt lat="45.6250605" lon="-73.6047721"/>
      <trkpt lat="45.627404" lon="-73.6072599"/>
      <trkpt lat="45.6250605" lon="-73.6047721"/>
      <trkpt lat="45.6254692" lon="-73.6040011"/>
      <trkpt lat="45.6250605" lon="-73.6047721"/>
      <trkpt lat="45.6254692" lon="-73.6040011"/>
      <trkpt lat="45.6278164" lon="-73.6064854"/>
      <trkpt lat="45.6281375" lon="-73.6058594"/>
      <trkpt lat="45.6304892" lon="-73.6083503"/>
      <trkpt lat="45.6301618" lon="-73.6089719"/>
      <trkpt lat="45.6297553" lon="-73.6097541"/>
      <trkpt lat="45.6303968" lon="-73.6104345"/>
      <trkpt lat="45.6297553" lon="-73.6097541"/>
      <trkpt lat="45.6301618" lon="-73.6089719"/>
      <trkpt lat="45.6304892" lon="-73.6083503"/>
      <trkpt lat="45.6309281" lon="-73.6077"/>
      <trkpt lat="45.6298905" lon="-73.6066083"/>
      <trkpt lat="45.6293359" lon="-73.6040607"/>
      <trkpt lat="45.6297657" lon="-73.60323"/>
      <trkpt lat="45.6316684" lon="-73.5997741"/>
      <trkpt lat="45.6321063" lon="-73.5989416"/>
      <trkpt lat="45.6325479" lon="-73.5980991"/>
      <trkpt lat="45.6304441" lon="-73.5958531"/>
    </trkseg>
  </trk>
</gpx>
