<?xml version="1.0" ?>
<gpx xmlns="http://www.topografix.com/GPX/1/1" version="1.1" creator="ERO1">
  <trk>
    <name>riviere_des_prairies — baseline — zone 4</name>
    <trkseg>
      <trkpt lat="45.6603102" lon="-73.5455288"/>
      <trkpt lat="45.6590731" lon="-73.5468"/>
      <trkpt lat="45.6591319" lon="-73.548013"/>
      <trkpt lat="45.6590731" lon="-73.5468"/>
      <trkpt lat="45.6603102" lon="-73.5455288"/>
      <trkpt lat="45.6609344" lon="-73.5460972"/>
      <trkpt lat="45.6614697" lon="-73.5467926"/>
      <trkpt lat="45.6620977" lon="-73.5474558"/>
      <trkpt lat="45.6622276" lon="-73.547065"/>
      <trkpt lat="45.6620977" lon="-73.5474558"/>
      <trkpt lat="45.6633948" lon="-73.5494708"/>
      <trkpt lat="45.6620977" lon="-73.5474558"/>
      <trkpt lat="45.6614697" lon="-73.5467926"/>
      <trkpt lat="45.6609795" lon="-73.5475185"/>
      <trkpt lat="45.6624051" lon="-73.5487949"/>
      <trkpt lat="45.662107" lon="-73.5497069"/>
      <trkpt lat="45.6637231" lon="-73.5508578"/>
      <trkpt lat="45.6654157" lon="-73.5516591"/>
      <trkpt lat="45.665962" lon="-73.5510207"/>
      <trkpt lat="45.665246" lon="-73.549724"/>
      <trkpt lat="45.664973" lon="-73.5495152"/>
      <trkpt lat="45.6653494" lon="-73.5485674"/>
      <trkpt lat="45.6646547" lon="-73.5480668"/>
      <trkpt lat="45.6637848" lon="-73.5474579"/>
      <trkpt lat="45.6640887" lon="-73.5465951"/>
      <trkpt lat="45.6656924" lon="-73.5477425"/>
      <trkpt lat="45.6640887" lon="-73.5465951"/>
      <trkpt lat="45.6637848" lon="-73.5474579"/>
      <trkpt lat="45.6646547" lon="-73.5480668"/>
      <trkpt lat="45.6640314" lon="-73.5499157"/>
      <trkpt lat="45.6646547" lon="-73.5480668"/>
      <trkpt lat="45.6653494" lon="-73.5485674"/>
      <trkpt lat="45.6656924" lon="-73.5477425"/>
      <trkpt lat="45.6668512" lon="-73.5496473"/>
      <trkpt lat="45.6656924" lon="-73.5477425"/>
      <trkpt lat="45.666039" lon="-73.5468398"/>
      <trkpt lat="45.6598046" lon="-73.5423451"/>
      <trkpt lat="45.6593117" lon="-73.5419608"/>
      <trkpt lat="45.6592327" lon="-73.5418747"/>
      <trkpt lat="45.6593074" lon="-73.5417657"/>
      <trkpt lat="45.6593747" lon="-73.5418642"/>
      <trkpt lat="45.6593117" lon="-73.5419608"/>
      <trkpt lat="45.6584611" lon="-73.5432986"/>
      <trkpt lat="45.6592327" lon="-73.5418747"/>
      <trkpt lat="45.6577648" lon="-73.5401786"/>
      <trkpt lat="45.6539572" lon="-73.5374045"/>
      <trkpt lat="45.6523755" lon="-73.5363328"/>
      <trkpt lat="45.6499574" lon="-73.5413441"/>
      <trkpt lat="45.6482799" lon="-73.5457626"/>
      <trkpt lat="45.6464945" lon="-73.5484808"/>
      <trkpt lat="45.6444619" lon="-73.5525018"/>
      <trkpt lat="45.6440444" lon="-73.5532533"/>
      <trkpt lat="45.643819" lon="-73.5536384"/>
      <trkpt lat="45.6439162" lon="-73.5543615"/>
      <trkpt lat="45.6456109" lon="-73.5561263"/>
      <trkpt lat="45.6477266" lon="-73.5583497"/>
      <trkpt lat="45.648158" lon="-73.5582615"/>
      <trkpt lat="45.6483749" lon="-73.5578372"/>
      <trkpt lat="45.6510661" lon="-73.5607"/>
      <trkpt lat="45.6514791" lon="-73.5598867"/>
      <trkpt lat="45.6515866" lon="-73.5599992"/>
      <trkpt lat="45.6539468" lon="-73.5625076"/>
      <trkpt lat="45.6562721" lon="-73.5649378"/>
      <trkpt lat="45.6567457" lon="-73.5640588"/>
      <trkpt lat="45.6570446" lon="-73.5635038"/>
      <trkpt lat="45.6571039" lon="-73.5633925"/>
      <trkpt lat="45.6573252" lon="-73.5629779"/>
      <trkpt lat="45.6585814" lon="-73.5641722"/>
      <trkpt lat="45.6588963" lon="-73.563559"/>
      <trkpt lat="45.6610964" lon="-73.5592899"/>
      <trkpt lat="45.659863" lon="-73.5584191"/>
      <trkpt lat="45.6602211" lon="-73.5574059"/>
      <trkpt lat="45.6616048" lon="-73.5583689"/>
      <trkpt lat="45.6602211" lon="-73.5574059"/>
      <trkpt lat="45.6605569" lon="-73.556431"/>
      <trkpt lat="45.66199" lon="-73.5562658"/>
      <trkpt lat="45.662463" lon="-73.5553742"/>
      <trkpt lat="45.6633196" lon="-73.5559715"/>
      <trkpt lat="45.662463" lon="-73.5553742"/>
      <trkpt lat="45.6627783" lon="-73.5544659"/>
      <trkpt lat="45.6627129" lon="-73.5523565"/>
      <trkpt lat="45.6620868" lon="-73.5519107"/>
      <trkpt lat="45.6608792" lon="-73.5531535"/>
      <trkpt lat="45.6611893" lon="-73.5522438"/>
      <trkpt lat="45.6608792" lon="-73.5531535"/>
      <trkpt lat="45.6595615" lon="-73.5507503"/>
      <trkpt lat="45.6608792" lon="-73.5531535"/>
      <trkpt lat="45.6605621" lon="-73.5540718"/>
      <trkpt lat="45.6608792" lon="-73.5531535"/>
      <trkpt lat="45.6620868" lon="-73.5519107"/>
      <trkpt lat="45.6614516" lon="-73.5514751"/>
      <trkpt lat="45.6611893" lon="-73.5522438"/>
      <trkpt lat="45.6602266" lon="-73.5504061"/>
      <trkpt lat="45.6595615" lon="-73.5507503"/>
      <trkpt lat="45.6588963" lon="-73.5510574"/>
      <trkpt lat="45.6586584" lon="-73.5500848"/>
      <trkpt lat="45.6567651" lon="-73.5499526"/>
      <trkpt lat="45.6576956" lon="-73.5508111"/>
      <trkpt lat="45.6574054" lon="-73.5516502"/>
      <trkpt lat="45.6576956" lon="-73.5508111"/>
      <trkpt lat="45.6566683" lon="-73.5538038"/>
      <trkpt lat="45.6574054" lon="-73.5516502"/>
      <trkpt lat="45.6560501" lon="-73.5533772"/>
      <trkpt lat="45.6574054" lon="-73.5516502"/>
      <trkpt lat="45.6566683" lon="-73.5538038"/>
      <trkpt lat="45.6560501" lon="-73.5533772"/>
      <trkpt lat="45.6566683" lon="-73.5538038"/>
      <trkpt lat="45.6576956" lon="-73.5508111"/>
      <trkpt lat="45.6567651" lon="-73.5499526"/>
      <trkpt lat="45.6554417" lon="-73.5529463"/>
      <trkpt lat="45.6560501" lon="-73.5533772"/>
      <trkpt lat="45.6554417" lon="-73.5529463"/>
      <trkpt lat="45.6567651" lon="-73.5499526"/>
      <trkpt lat="45.6586584" lon="-73.5500848"/>
      <trkpt lat="45.659604" lon="-73.549351"/>
      <trkpt lat="45.6586584" lon="-73.5500848"/>
      <trkpt lat="45.6588963" lon="-73.5510574"/>
      <trkpt lat="45.6595615" lon="-73.5507503"/>
      <trkpt lat="45.6602266" lon="-73.5504061"/>
      <trkpt lat="45.6611893" lon="-73.5522438"/>
      <trkpt lat="45.6614516" lon="-73.5514751"/>
      <trkpt lat="45.6602266" lon="-73.5504061"/>
      <trkpt lat="45.6614516" lon="-73.5514751"/>
      <trkpt lat="45.6620868" lon="-73.5519107"/>
      <trkpt lat="45.6627129" lon="-73.5523565"/>
      <trkpt lat="45.6633419" lon="-73.5527882"/>
      <trkpt lat="45.6627129" lon="-73.5523565"/>
      <trkpt lat="45.6627783" lon="-73.5544659"/>
      <trkpt lat="45.6633419" lon="-73.5527882"/>
      <trkpt lat="45.6614516" lon="-73.5514751"/>
      <trkpt lat="45.6633419" lon="-73.5527882"/>
      <trkpt lat="45.6627783" lon="-73.5544659"/>
      <trkpt lat="45.662463" lon="-73.5553742"/>
      <trkpt lat="45.6605621" lon="-73.5540718"/>
      <trkpt lat="45.6598819" lon="-73.5535451"/>
      <trkpt lat="45.6605621" lon="-73.5540718"/>
      <trkpt lat="45.662463" lon="-73.5553742"/>
      <trkpt lat="45.66199" lon="-73.5562658"/>
      <trkpt lat="45.6598559" lon="-73.5559219"/>
      <trkpt lat="45.6598819" lon="-73.5535451"/>
      <trkpt lat="45.6591058" lon="-73.5520298"/>
      <trkpt lat="45.6584515" lon="-73.553116"/>
      <trkpt lat="45.6579547" lon="-73.554622"/>
      <trkpt lat="45.6584515" lon="-73.553116"/>
      <trkpt lat="45.6591058" lon="-73.5520298"/>
      <trkpt lat="45.6588963" lon="-73.5510574"/>
      <trkpt lat="45.6591058" lon="-73.5520298"/>
      <trkpt lat="45.6598819" lon="-73.5535451"/>
      <trkpt lat="45.6598559" lon="-73.5559219"/>
      <trkpt lat="45.66199" lon="-73.5562658"/>
      <trkpt lat="45.6605569" lon="-73.556431"/>
      <trkpt lat="45.6598559" lon="-73.5559219"/>
      <trkpt lat="45.6605569" lon="-73.556431"/>
      <trkpt lat="45.6602211" lon="-73.5574059"/>
      <trkpt lat="45.6576123" lon="-73.5555932"/>
      <trkpt lat="45.6579547" lon="-73.554622"/>
      <trkpt lat="45.6576123" lon="-73.5555932"/>
      <trkpt lat="45.6602211" lon="-73.5574059"/>
      <trkpt lat="45.659863" lon="-73.5584191"/>
      <trkpt lat="45.6610964" lon="-73.5592899"/>
      <trkpt lat="45.6612124" lon="-73.5593753"/>
      <trkpt lat="45.6627567" lon="-73.5591589"/>
      <trkpt lat="45.6612124" lon="-73.5593753"/>
      <trkpt lat="45.6610964" lon="-73.5592899"/>
      <trkpt lat="45.6616048" lon="-73.5583689"/>
      <trkpt lat="45.6617323" lon="-73.5584495"/>
      <trkpt lat="45.6612124" lon="-73.5593753"/>
      <trkpt lat="45.6590006" lon="-73.5636661"/>
      <trkpt lat="45.6602455" lon="-73.564868"/>
      <trkpt lat="45.6608908" lon="-73.563529"/>
      <trkpt lat="45.6624569" lon="-73.5635226"/>
      <trkpt lat="45.6635421" lon="-73.5614057"/>
      <trkpt lat="45.6642339" lon="-73.5603412"/>
      <trkpt lat="45.6631234" lon="-73.5594351"/>
      <trkpt lat="45.6627567" lon="-73.5591589"/>
      <trkpt lat="45.6617323" lon="-73.5584495"/>
      <trkpt lat="45.6616048" lon="-73.5583689"/>
      <trkpt lat="45.6633196" lon="-73.5559715"/>
      <trkpt lat="45.663444" lon="-73.5560594"/>
      <trkpt lat="45.6617323" lon="-73.5584495"/>
      <trkpt lat="45.6627567" lon="-73.5591589"/>
      <trkpt lat="45.6631234" lon="-73.5594351"/>
      <trkpt lat="45.6634541" lon="-73.5585"/>
      <trkpt lat="45.6635281" lon="-73.5582964"/>
      <trkpt lat="45.6660902" lon="-73.5551168"/>
      <trkpt lat="45.6668609" lon="-73.5556845"/>
      <trkpt lat="45.6660902" lon="-73.5551168"/>
      <trkpt lat="45.6656403" lon="-73.5547696"/>
      <trkpt lat="45.6661153" lon="-73.5541893"/>
      <trkpt lat="45.6661153" lon="-73.5541893"/>
      <trkpt lat="45.6656403" lon="-73.5547696"/>
      <trkpt lat="45.663692" lon="-73.5578128"/>
      <trkpt lat="45.6656403" lon="-73.5547696"/>
      <trkpt lat="45.6660902" lon="-73.5551168"/>
      <trkpt lat="45.6635281" lon="-73.5582964"/>
      <trkpt lat="45.6634541" lon="-73.5585"/>
      <trkpt lat="45.663692" lon="-73.5578128"/>
      <trkpt lat="45.6635281" lon="-73.5582964"/>
      <trkpt lat="45.663692" lon="-73.5578128"/>
      <trkpt lat="45.6634541" lon="-73.5585"/>
      <trkpt lat="45.6631234" lon="-73.5594351"/>
      <trkpt lat="45.6642339" lon="-73.5603412"/>
      <trkpt lat="45.6668609" lon="-73.5556845"/>
      <trkpt lat="45.6690627" lon="-73.5531573"/>
      <trkpt lat="45.6677979" lon="-73.5523047"/>
      <trkpt lat="45.6674942" lon="-73.5520982"/>
      <trkpt lat="45.6677979" lon="-73.5523047"/>
      <trkpt lat="45.6666657" lon="-73.5536137"/>
      <trkpt lat="45.6674942" lon="-73.5520982"/>
      <trkpt lat="45.6687845" lon="-73.5512072"/>
      <trkpt lat="45.669253" lon="-73.5515343"/>
      <trkpt lat="45.6687845" lon="-73.5512072"/>
      <trkpt lat="45.6674942" lon="-73.5520982"/>
      <trkpt lat="45.6666657" lon="-73.5536137"/>
      <trkpt lat="45.6660575" lon="-73.552856"/>
      <trkpt lat="45.6666657" lon="-73.5536137"/>
      <trkpt lat="45.6677979" lon="-73.5523047"/>
      <trkpt lat="45.6690627" lon="-73.5531573"/>
      <trkpt lat="45.6699843" lon="-73.552066"/>
      <trkpt lat="45.669253" lon="-73.5515343"/>
      <trkpt lat="45.6699843" lon="-73.552066"/>
      <trkpt lat="45.6703782" lon="-73.5512447"/>
      <trkpt lat="45.66805" lon="-73.5495779"/>
      <trkpt lat="45.6703782" lon="-73.5512447"/>
      <trkpt lat="45.6706026" lon="-73.5505305"/>
      <trkpt lat="45.6719376" lon="-73.5420185"/>
      <trkpt lat="45.6725465" lon="-73.540956"/>
      <trkpt lat="45.673129" lon="-73.5401332"/>
      <trkpt lat="45.6722363" lon="-73.5394479"/>
      <trkpt lat="45.6717419" lon="-73.5403435"/>
      <trkpt lat="45.6722363" lon="-73.5394479"/>
      <trkpt lat="45.6684363" lon="-73.5378917"/>
      <trkpt lat="45.6722363" lon="-73.5394479"/>
      <trkpt lat="45.6727613" lon="-73.5386308"/>
      <trkpt lat="45.6730094" lon="-73.5382443"/>
      <trkpt lat="45.6727613" lon="-73.5386308"/>
      <trkpt lat="45.6722363" lon="-73.5394479"/>
      <trkpt lat="45.673129" lon="-73.5401332"/>
      <trkpt lat="45.6746919" lon="-73.5378808"/>
      <trkpt lat="45.675381" lon="-73.5369672"/>
      <trkpt lat="45.6768183" lon="-73.5353083"/>
      <trkpt lat="45.6987395" lon="-73.5096424"/>
      <trkpt lat="45.6768183" lon="-73.5353083"/>
      <trkpt lat="45.6720905" lon="-73.5332451"/>
      <trkpt lat="45.6732483" lon="-73.5340778"/>
      <trkpt lat="45.6732483" lon="-73.5340778"/>
      <trkpt lat="45.6720905" lon="-73.5332451"/>
      <trkpt lat="45.6768183" lon="-73.5353083"/>
      <trkpt lat="45.675381" lon="-73.5369672"/>
      <trkpt lat="45.6744662" lon="-73.5362805"/>
      <trkpt lat="45.6751001" lon="-73.5354288"/>
      <trkpt lat="45.6741725" lon="-73.5347552"/>
      <trkpt lat="45.6741725" lon="-73.5347552"/>
      <trkpt lat="45.6751001" lon="-73.5354288"/>
      <trkpt lat="45.6751001" lon="-73.5354288"/>
      <trkpt lat="45.6744662" lon="-73.5362805"/>
      <trkpt lat="45.6720905" lon="-73.5332451"/>
      <trkpt lat="45.6744662" lon="-73.5362805"/>
      <trkpt lat="45.675381" lon="-73.5369672"/>
      <trkpt lat="45.6746919" lon="-73.5378808"/>
      <trkpt lat="45.6734961" lon="-73.5375626"/>
      <trkpt lat="45.672964" lon="-73.5371756"/>
      <trkpt lat="45.6728179" lon="-73.5370748"/>
      <trkpt lat="45.6726756" lon="-73.5369701"/>
      <trkpt lat="45.6723315" lon="-73.5367082"/>
      <trkpt lat="45.672182" lon="-73.5365945"/>
      <trkpt lat="45.6721355" lon="-73.5365677"/>
      <trkpt lat="45.6716852" lon="-73.5362206"/>
      <trkpt lat="45.6716073" lon="-73.5361652"/>
      <trkpt lat="45.6715541" lon="-73.5361217"/>
      <trkpt lat="45.6716073" lon="-73.5361652"/>
      <trkpt lat="45.6715541" lon="-73.5361217"/>
      <trkpt lat="45.6716852" lon="-73.5362206"/>
      <trkpt lat="45.6716073" lon="-73.5361652"/>
      <trkpt lat="45.6716852" lon="-73.5362206"/>
      <trkpt lat="45.6721355" lon="-73.5365677"/>
      <trkpt lat="45.672182" lon="-73.5365945"/>
      <trkpt lat="45.6723315" lon="-73.5367082"/>
      <trkpt lat="45.6726756" lon="-73.5369701"/>
      <trkpt lat="45.6721355" lon="-73.5365677"/>
      <trkpt lat="45.6726756" lon="-73.5369701"/>
      <trkpt lat="45.6728179" lon="-73.5370748"/>
      <trkpt lat="45.672964" lon="-73.5371756"/>
      <trkpt lat="45.6734961" lon="-73.5375626"/>
      <trkpt lat="45.6730094" lon="-73.5382443"/>
      <trkpt lat="45.6734961" lon="-73.5375626"/>
      <trkpt lat="45.6744662" lon="-73.5362805"/>
      <trkpt lat="45.6734961" lon="-73.5375626"/>
      <trkpt lat="45.6746919" lon="-73.5378808"/>
      <trkpt lat="45.673129" lon="-73.5401332"/>
      <trkpt lat="45.6725465" lon="-73.540956"/>
      <trkpt lat="45.6717419" lon="-73.5403435"/>
      <trkpt lat="45.6725465" lon="-73.540956"/>
      <trkpt lat="45.6719376" lon="-73.5420185"/>
      <trkpt lat="45.6712989" lon="-73.5415369"/>
      <trkpt lat="45.6719376" lon="-73.5420185"/>
      <trkpt lat="45.6712989" lon="-73.5415369"/>
      <trkpt lat="45.6717419" lon="-73.5403435"/>
      <trkpt lat="45.6712989" lon="-73.5415369"/>
      <trkpt lat="45.6696558" lon="-73.5403114"/>
      <trkpt lat="45.663651" lon="-73.5358234"/>
      <trkpt lat="45.6638915" lon="-73.5351721"/>
      <trkpt lat="45.663651" lon="-73.5358234"/>
      <trkpt lat="45.6696558" lon="-73.5403114"/>
      <trkpt lat="45.6632902" lon="-73.5367032"/>
      <trkpt lat="45.6696558" lon="-73.5403114"/>
      <trkpt lat="45.6712989" lon="-73.5415369"/>
      <trkpt lat="45.6685059" lon="-73.5486153"/>
      <trkpt lat="45.6706026" lon="-73.5505305"/>
      <trkpt lat="45.6685059" lon="-73.5486153"/>
      <trkpt lat="45.6712989" lon="-73.5415369"/>
      <trkpt lat="45.6717419" lon="-73.5403435"/>
      <trkpt lat="45.6684363" lon="-73.5378917"/>
      <trkpt lat="45.6717419" lon="-73.5403435"/>
      <trkpt lat="45.6684363" lon="-73.5378917"/>
      <trkpt lat="45.665471" lon="-73.5356343"/>
      <trkpt lat="45.6658329" lon="-73.5346642"/>
      <trkpt lat="45.6671851" lon="-73.5316528"/>
      <trkpt lat="45.6658329" lon="-73.5346642"/>
      <trkpt lat="45.6643973" lon="-73.5335967"/>
      <trkpt lat="45.6643321" lon="-73.5335077"/>
      <trkpt lat="45.6649692" lon="-73.5326617"/>
      <trkpt lat="45.6706043" lon="-73.5199997"/>
      <trkpt lat="45.6649692" lon="-73.5326617"/>
      <trkpt lat="45.6643973" lon="-73.5335967"/>
      <trkpt lat="45.6658329" lon="-73.5346642"/>
      <trkpt lat="45.665471" lon="-73.5356343"/>
      <trkpt lat="45.6684363" lon="-73.5378917"/>
      <trkpt lat="45.665471" lon="-73.5356343"/>
      <trkpt lat="45.6658329" lon="-73.5346642"/>
      <trkpt lat="45.6643973" lon="-73.5335967"/>
      <trkpt lat="45.6643321" lon="-73.5335077"/>
      <trkpt lat="45.6643973" lon="-73.5335967"/>
      <trkpt lat="45.6632084" lon="-73.5355057"/>
      <trkpt lat="45.663651" lon="-73.5358234"/>
      <trkpt lat="45.6632902" lon="-73.5367032"/>
      <trkpt lat="45.663651" lon="-73.5358234"/>
      <trkpt lat="45.6632084" lon="-73.5355057"/>
      <trkpt lat="45.6631381" lon="-73.5354463"/>
      <trkpt lat="45.6643321" lon="-73.5335077"/>
      <trkpt lat="45.6649692" lon="-73.5326617"/>
      <trkpt lat="45.6706043" lon="-73.5199997"/>
      <trkpt lat="45.6669949" lon="-73.519137"/>
      <trkpt lat="45.6662095" lon="-73.5189662"/>
      <trkpt lat="45.6655471" lon="-73.5188441"/>
      <trkpt lat="45.6644197" lon="-73.5186228"/>
      <trkpt lat="45.6587963" lon="-73.5194463"/>
      <trkpt lat="45.6596948" lon="-73.5199611"/>
      <trkpt lat="45.6609293" lon="-73.516146"/>
      <trkpt lat="45.6615933" lon="-73.5152429"/>
      <trkpt lat="45.6619002" lon="-73.5148202"/>
      <trkpt lat="45.6629469" lon="-73.5134088"/>
      <trkpt lat="45.6634235" lon="-73.5140121"/>
      <trkpt lat="45.6625049" lon="-73.5158268"/>
      <trkpt lat="45.6604112" lon="-73.5199159"/>
      <trkpt lat="45.6598108" lon="-73.5211921"/>
      <trkpt lat="45.6589103" lon="-73.5228738"/>
      <trkpt lat="45.658637" lon="-73.5234275"/>
      <trkpt lat="45.6561783" lon="-73.5285881"/>
      <trkpt lat="45.656043" lon="-73.5285003"/>
      <trkpt lat="45.6587055" lon="-73.5229209"/>
      <trkpt lat="45.6588257" lon="-73.5226287"/>
      <trkpt lat="45.6596948" lon="-73.5199611"/>
      <trkpt lat="45.6609293" lon="-73.516146"/>
      <trkpt lat="45.6615933" lon="-73.5152429"/>
      <trkpt lat="45.6619002" lon="-73.5148202"/>
      <trkpt lat="45.6629469" lon="-73.5134088"/>
      <trkpt lat="45.6634235" lon="-73.5140121"/>
      <trkpt lat="45.6625049" lon="-73.5158268"/>
      <trkpt lat="45.6604112" lon="-73.5199159"/>
      <trkpt lat="45.6598108" lon="-73.5211921"/>
      <trkpt lat="45.6589103" lon="-73.5228738"/>
      <trkpt lat="45.658637" lon="-73.5234275"/>
      <trkpt lat="45.6561783" lon="-73.5285881"/>
      <trkpt lat="45.6607072" lon="-73.5320642"/>
      <trkpt lat="45.665471" lon="-73.5356343"/>
      <trkpt lat="45.6607072" lon="-73.5320642"/>
      <trkpt lat="45.6561783" lon="-73.5285881"/>
      <trkpt lat="45.6527105" lon="-73.5356494"/>
      <trkpt lat="45.6526919" lon="-73.5363834"/>
      <trkpt lat="45.6539572" lon="-73.5374045"/>
      <trkpt lat="45.6523755" lon="-73.5363328"/>
      <trkpt lat="45.6522728" lon="-73.5362798"/>
      <trkpt lat="45.652327" lon="-73.5361619"/>
      <trkpt lat="45.656043" lon="-73.5285003"/>
      <trkpt lat="45.6561783" lon="-73.5285881"/>
      <trkpt lat="45.6527105" lon="-73.5356494"/>
      <trkpt lat="45.6524355" lon="-73.5362198"/>
      <trkpt lat="45.6526919" lon="-73.5363834"/>
      <trkpt lat="45.6539572" lon="-73.5374045"/>
      <trkpt lat="45.6523755" lon="-73.5363328"/>
      <trkpt lat="45.6522728" lon="-73.5362798"/>
      <trkpt lat="45.6520447" lon="-73.5361046"/>
      <trkpt lat="45.6514164" lon="-73.5355405"/>
      <trkpt lat="45.6493178" lon="-73.5306805"/>
      <trkpt lat="45.6514164" lon="-73.5355405"/>
      <trkpt lat="45.652327" lon="-73.5361619"/>
      <trkpt lat="45.6524355" lon="-73.5362198"/>
      <trkpt lat="45.6523755" lon="-73.5363328"/>
      <trkpt lat="45.6499574" lon="-73.5413441"/>
      <trkpt lat="45.6464945" lon="-73.5484808"/>
      <trkpt lat="45.6444619" lon="-73.5525018"/>
      <trkpt lat="45.6440444" lon="-73.5532533"/>
      <trkpt lat="45.643819" lon="-73.5536384"/>
      <trkpt lat="45.6439162" lon="-73.5543615"/>
      <trkpt lat="45.6456109" lon="-73.5561263"/>
      <trkpt lat="45.6477266" lon="-73.5583497"/>
      <trkpt lat="45.648158" lon="-73.5582615"/>
      <trkpt lat="45.6483749" lon="-73.5578372"/>
      <trkpt lat="45.6510661" lon="-73.5607"/>
      <trkpt lat="45.6514791" lon="-73.5598867"/>
      <trkpt lat="45.6515866" lon="-73.5599992"/>
      <trkpt lat="45.6539468" lon="-73.5625076"/>
      <trkpt lat="45.6562721" lon="-73.5649378"/>
      <trkpt lat="45.6567457" lon="-73.5640588"/>
      <trkpt lat="45.6570446" lon="-73.5635038"/>
      <trkpt lat="45.6571039" lon="-73.5633925"/>
      <trkpt lat="45.6573252" lon="-73.5629779"/>
      <trkpt lat="45.6585814" lon="-73.5641722"/>
      <trkpt lat="45.6588963" lon="-73.563559"/>
      <trkpt lat="45.6610964" lon="-73.5592899"/>
      <trkpt lat="45.659863" lon="-73.5584191"/>
      <trkpt lat="45.6572603" lon="-73.5566178"/>
      <trkpt lat="45.659863" lon="-73.5584191"/>
      <trkpt lat="45.6572603" lon="-73.5566178"/>
      <trkpt lat="45.6576123" lon="-73.5555932"/>
      <trkpt lat="45.6547625" lon="-73.5536233"/>
      <trkpt lat="45.6576123" lon="-73.5555932"/>
      <trkpt lat="45.6572603" lon="-73.5566178"/>
      <trkpt lat="45.6544141" lon="-73.5546541"/>
      <trkpt lat="45.6572603" lon="-73.5566178"/>
      <trkpt lat="45.6544141" lon="-73.5546541"/>
      <trkpt lat="45.6547625" lon="-73.5536233"/>
      <trkpt lat="45.6545312" lon="-73.5534746"/>
      <trkpt lat="45.6547625" lon="-73.5536233"/>
      <trkpt lat="45.6544141" lon="-73.5546541"/>
      <trkpt lat="45.6541831" lon="-73.5544902"/>
      <trkpt lat="45.6544141" lon="-73.5546541"/>
      <trkpt lat="45.6541831" lon="-73.5544902"/>
      <trkpt lat="45.6536445" lon="-73.555939"/>
      <trkpt lat="45.6535337" lon="-73.5558381"/>
      <trkpt lat="45.6536445" lon="-73.555939"/>
      <trkpt lat="45.6524094" lon="-73.5583982"/>
      <trkpt lat="45.6523647" lon="-73.5581599"/>
      <trkpt lat="45.6535337" lon="-73.5558381"/>
      <trkpt lat="45.6540634" lon="-73.5544116"/>
      <trkpt lat="45.6541831" lon="-73.5544902"/>
      <trkpt lat="45.6540634" lon="-73.5544116"/>
      <trkpt lat="45.654408" lon="-73.5533954"/>
      <trkpt lat="45.6547295" lon="-73.5524579"/>
      <trkpt lat="45.6548537" lon="-73.552549"/>
      <trkpt lat="45.6547295" lon="-73.5524579"/>
      <trkpt lat="45.6554072" lon="-73.5509033"/>
      <trkpt lat="45.6548537" lon="-73.552549"/>
      <trkpt lat="45.6554417" lon="-73.5529463"/>
      <trkpt lat="45.6548537" lon="-73.552549"/>
      <trkpt lat="45.6545312" lon="-73.5534746"/>
      <trkpt lat="45.6541831" lon="-73.5544902"/>
      <trkpt lat="45.6540634" lon="-73.5544116"/>
      <trkpt lat="45.654408" lon="-73.5533954"/>
      <trkpt lat="45.6545312" lon="-73.5534746"/>
      <trkpt lat="45.654408" lon="-73.5533954"/>
      <trkpt lat="45.6547295" lon="-73.5524579"/>
      <trkpt lat="45.6554072" lon="-73.5509033"/>
      <trkpt lat="45.6584611" lon="-73.5432986"/>
      <trkpt lat="45.6554072" lon="-73.5509033"/>
      <trkpt lat="45.6584611" lon="-73.5432986"/>
      <trkpt lat="45.6592327" lon="-73.5418747"/>
      <trkpt lat="45.6577648" lon="-73.5401786"/>
      <trkpt lat="45.6539572" lon="-73.5374045"/>
      <trkpt lat="45.6577648" lon="-73.5401786"/>
      <trkpt lat="45.6593074" lon="-73.5417657"/>
      <trkpt lat="45.6602722" lon="-73.5402208"/>
      <trkpt lat="45.6631381" lon="-73.5354463"/>
      <trkpt lat="45.6632084" lon="-73.5355057"/>
      <trkpt lat="45.6627416" lon="-73.5363174"/>
      <trkpt lat="45.6632902" lon="-73.5367032"/>
      <trkpt lat="45.6627416" lon="-73.5363174"/>
      <trkpt lat="45.6603326" lon="-73.5402948"/>
      <trkpt lat="45.6608043" lon="-73.5406354"/>
      <trkpt lat="45.6603326" lon="-73.5402948"/>
      <trkpt lat="45.6602722" lon="-73.5402208"/>
      <trkpt lat="45.6603326" lon="-73.5402948"/>
      <trkpt lat="45.6593747" lon="-73.5418642"/>
      <trkpt lat="45.6598046" lon="-73.5423451"/>
      <trkpt lat="45.666039" lon="-73.5468398"/>
      <trkpt lat="45.6656924" lon="-73.5477425"/>
      <trkpt lat="45.6653494" lon="-73.5485674"/>
      <trkpt lat="45.6668512" lon="-73.5496473"/>
      <trkpt lat="45.6653494" lon="-73.5485674"/>
      <trkpt lat="45.664973" lon="-73.5495152"/>
      <trkpt lat="45.665246" lon="-73.549724"/>
      <trkpt lat="45.6663855" lon="-73.5505059"/>
      <trkpt lat="45.665246" lon="-73.549724"/>
      <trkpt lat="45.665962" lon="-73.5510207"/>
      <trkpt lat="45.6663855" lon="-73.5505059"/>
      <trkpt lat="45.6668512" lon="-73.5496473"/>
      <trkpt lat="45.6663855" lon="-73.5505059"/>
      <trkpt lat="45.665962" lon="-73.5510207"/>
      <trkpt lat="45.6654157" lon="-73.5516591"/>
      <trkpt lat="45.6646271" lon="-73.5504196"/>
      <trkpt lat="45.664973" lon="-73.5495152"/>
      <trkpt lat="45.6646271" lon="-73.5504196"/>
      <trkpt lat="45.6654157" lon="-73.5516591"/>
      <trkpt lat="45.6659815" lon="-73.5527111"/>
      <trkpt lat="45.6685059" lon="-73.5486153"/>
      <trkpt lat="45.666039" lon="-73.5468398"/>
      <trkpt lat="45.6685059" lon="-73.5486153"/>
      <trkpt lat="45.66805" lon="-73.5495779"/>
      <trkpt lat="45.6660575" lon="-73.552856"/>
      <trkpt lat="45.663444" lon="-73.5560594"/>
      <trkpt lat="45.6633196" lon="-73.5559715"/>
      <trkpt lat="45.6646265" lon="-73.5543825"/>
      <trkpt lat="45.6641684" lon="-73.5536498"/>
      <trkpt lat="45.6641684" lon="-73.5536498"/>
      <trkpt lat="45.6646265" lon="-73.5543825"/>
      <trkpt lat="45.6659815" lon="-73.5527111"/>
      <trkpt lat="45.6660575" lon="-73.552856"/>
      <trkpt lat="45.6659815" lon="-73.5527111"/>
      <trkpt lat="45.6654157" lon="-73.5516591"/>
      <trkpt lat="45.6637231" lon="-73.5508578"/>
      <trkpt lat="45.6640314" lon="-73.5499157"/>
      <trkpt lat="45.6637231" lon="-73.5508578"/>
      <trkpt lat="45.662107" lon="-73.5497069"/>
      <trkpt lat="45.6624051" lon="-73.5487949"/>
      <trkpt lat="45.6633948" lon="-73.5494708"/>
      <trkpt lat="45.6640314" lon="-73.5499157"/>
      <trkpt lat="45.6646271" lon="-73.5504196"/>
      <trkpt lat="45.6640314" lon="-73.5499157"/>
      <trkpt lat="45.6633948" lon="-73.5494708"/>
      <trkpt lat="45.6624051" lon="-73.5487949"/>
      <trkpt lat="45.6609795" lon="-73.5475185"/>
      <trkpt lat="45.6603709" lon="-73.5483266"/>
      <trkpt lat="45.662107" lon="-73.5497069"/>
      <trkpt lat="45.6603709" lon="-73.5483266"/>
      <trkpt lat="45.6609795" lon="-73.5475185"/>
      <trkpt lat="45.6614697" lon="-73.5467926"/>
      <trkpt lat="45.6621337" lon="-73.5462763"/>
      <trkpt lat="45.6640887" lon="-73.5465951"/>
      <trkpt lat="45.6621337" lon="-73.5462763"/>
      <trkpt lat="45.6637848" lon="-73.5474579"/>
      <trkpt lat="45.6621337" lon="-73.5462763"/>
      <trkpt lat="45.6614697" lon="-73.5467926"/>
      <trkpt lat="45.6609344" lon="-73.5460972"/>
      <trkpt lat="45.6591319" lon="-73.548013"/>
      <trkpt lat="45.659604" lon="-73.549351"/>
      <trkpt lat="45.6603709" lon="-73.5483266"/>
      <trkpt lat="45.659604" lon="-73.549351"/>
      <trkpt lat="45.6591319" lon="-73.548013"/>
      <trkpt lat="45.6609344" lon="-73.5460972"/>
      <trkpt lat="45.6603102" lon="-73.5455288"/>
    </trkseg>
  </trk>
</gpx>
