<?xml version="1.0" ?>
<gpx xmlns="http://www.topografix.com/GPX/1/1" version="1.1" creator="ERO1">
  <trk>
    <name>riviere_des_prairies — baseline — zone 1</name>
    <trkseg>
      <trkpt lat="45.6476211" lon="-73.5726347"/>
      <trkpt lat="45.6480367" lon="-73.571822"/>
      <trkpt lat="45.6484704" lon="-73.5710375"/>
      <trkpt lat="45.6488657" lon="-73.5702756"/>
      <trkpt lat="45.6495234" lon="-73.5690318"/>
      <trkpt lat="45.6501548" lon="-73.5696985"/>
      <trkpt lat="45.6503622" lon="-73.56931"/>
      <trkpt lat="45.6527547" lon="-73.5718332"/>
      <trkpt lat="45.6523221" lon="-73.5726495"/>
      <trkpt lat="45.6518915" lon="-73.5734818"/>
      <trkpt lat="45.6523221" lon="-73.5726495"/>
      <trkpt lat="45.6527547" lon="-73.5718332"/>
      <trkpt lat="45.6531739" lon="-73.5710012"/>
      <trkpt lat="45.6543998" lon="-73.5722811"/>
      <trkpt lat="45.6547777" lon="-73.5715553"/>
      <trkpt lat="45.6548876" lon="-73.5716687"/>
      <trkpt lat="45.6560796" lon="-73.5729107"/>
      <trkpt lat="45.6557021" lon="-73.5736752"/>
      <trkpt lat="45.6552864" lon="-73.5744687"/>
      <trkpt lat="45.6548529" lon="-73.5753208"/>
      <trkpt lat="45.6552864" lon="-73.5744687"/>
      <trkpt lat="45.6571715" lon="-73.5764921"/>
      <trkpt lat="45.6552864" lon="-73.5744687"/>
      <trkpt lat="45.6557021" lon="-73.5736752"/>
      <trkpt lat="45.6548529" lon="-73.5753208"/>
      <trkpt lat="45.654427" lon="-73.5761513"/>
      <trkpt lat="45.6548529" lon="-73.5753208"/>
      <trkpt lat="45.6557021" lon="-73.5736752"/>
      <trkpt lat="45.6576968" lon="-73.5756191"/>
      <trkpt lat="45.6580034" lon="-73.5749439"/>
      <trkpt lat="45.6573934" lon="-73.5743027"/>
      <trkpt lat="45.6580034" lon="-73.5749439"/>
      <trkpt lat="45.658264" lon="-73.5741928"/>
      <trkpt lat="45.6577425" lon="-73.5736453"/>
      <trkpt lat="45.6580763" lon="-73.5729923"/>
      <trkpt lat="45.6567561" lon="-73.5716076"/>
      <trkpt lat="45.6571616" lon="-73.5708246"/>
      <trkpt lat="45.6577186" lon="-73.5697429"/>
      <trkpt lat="45.6592818" lon="-73.5713687"/>
      <trkpt lat="45.6577186" lon="-73.5697429"/>
      <trkpt lat="45.6565236" lon="-73.5684825"/>
      <trkpt lat="45.6564182" lon="-73.5683759"/>
      <trkpt lat="45.6551881" lon="-73.5670852"/>
      <trkpt lat="45.6554992" lon="-73.5664745"/>
      <trkpt lat="45.6531477" lon="-73.5640124"/>
      <trkpt lat="45.6535398" lon="-73.5632717"/>
      <trkpt lat="45.6539468" lon="-73.5625076"/>
      <trkpt lat="45.6515866" lon="-73.5599992"/>
      <trkpt lat="45.6514791" lon="-73.5598867"/>
      <trkpt lat="45.6519366" lon="-73.5589937"/>
      <trkpt lat="45.6520477" lon="-73.5590978"/>
      <trkpt lat="45.6544221" lon="-73.5616135"/>
      <trkpt lat="45.6567457" lon="-73.5640588"/>
      <trkpt lat="45.6579772" lon="-73.5653514"/>
      <trkpt lat="45.6580816" lon="-73.5654609"/>
      <trkpt lat="45.6592783" lon="-73.5667177"/>
      <trkpt lat="45.6599041" lon="-73.5673709"/>
      <trkpt lat="45.6587833" lon="-73.5698493"/>
      <trkpt lat="45.6599041" lon="-73.5673709"/>
      <trkpt lat="45.6602085" lon="-73.5667121"/>
      <trkpt lat="45.6599041" lon="-73.5673709"/>
      <trkpt lat="45.6592783" lon="-73.5667177"/>
      <trkpt lat="45.6587887" lon="-73.5676422"/>
      <trkpt lat="45.6576135" lon="-73.5663736"/>
      <trkpt lat="45.6587887" lon="-73.5676422"/>
      <trkpt lat="45.6584189" lon="-73.5683697"/>
      <trkpt lat="45.6587887" lon="-73.5676422"/>
      <trkpt lat="45.6592783" lon="-73.5667177"/>
      <trkpt lat="45.6596098" lon="-73.5660893"/>
      <trkpt lat="45.6599214" lon="-73.5654848"/>
      <trkpt lat="45.6602455" lon="-73.564868"/>
      <trkpt lat="45.6608908" lon="-73.563529"/>
      <trkpt lat="45.6620565" lon="-73.5644038"/>
      <trkpt lat="45.6608908" lon="-73.563529"/>
      <trkpt lat="45.6624569" lon="-73.5635226"/>
      <trkpt lat="45.6608908" lon="-73.563529"/>
      <trkpt lat="45.6602455" lon="-73.564868"/>
      <trkpt lat="45.6599214" lon="-73.5654848"/>
      <trkpt lat="45.6596098" lon="-73.5660893"/>
      <trkpt lat="45.6602085" lon="-73.5667121"/>
      <trkpt lat="45.6596098" lon="-73.5660893"/>
      <trkpt lat="45.6583964" lon="-73.5648578"/>
      <trkpt lat="45.6596098" lon="-73.5660893"/>
      <trkpt lat="45.6592783" lon="-73.5667177"/>
      <trkpt lat="45.6580816" lon="-73.5654609"/>
      <trkpt lat="45.6579772" lon="-73.5653514"/>
      <trkpt lat="45.6567457" lon="-73.5640588"/>
      <trkpt lat="45.6562721" lon="-73.5649378"/>
      <trkpt lat="45.6567457" lon="-73.5640588"/>
      <trkpt lat="45.6570446" lon="-73.5635038"/>
      <trkpt lat="45.6567457" lon="-73.5640588"/>
      <trkpt lat="45.6544221" lon="-73.5616135"/>
      <trkpt lat="45.6520477" lon="-73.5590978"/>
      <trkpt lat="45.6519366" lon="-73.5589937"/>
      <trkpt lat="45.6523647" lon="-73.5581599"/>
      <trkpt lat="45.6513129" lon="-73.5571415"/>
      <trkpt lat="45.6523647" lon="-73.5581599"/>
      <trkpt lat="45.6524094" lon="-73.5583982"/>
      <trkpt lat="45.6548108" lon="-73.5609049"/>
      <trkpt lat="45.6550339" lon="-73.5604402"/>
      <trkpt lat="45.6548108" lon="-73.5609049"/>
      <trkpt lat="45.6524094" lon="-73.5583982"/>
      <trkpt lat="45.6523647" lon="-73.5581599"/>
      <trkpt lat="45.6524094" lon="-73.5583982"/>
      <trkpt lat="45.6520477" lon="-73.5590978"/>
      <trkpt lat="45.6515866" lon="-73.5599992"/>
      <trkpt lat="45.6539468" lon="-73.5625076"/>
      <trkpt lat="45.6544221" lon="-73.5616135"/>
      <trkpt lat="45.65474" lon="-73.5610345"/>
      <trkpt lat="45.6548108" lon="-73.5609049"/>
      <trkpt lat="45.6550339" lon="-73.5604402"/>
      <trkpt lat="45.6554677" lon="-73.5597215"/>
      <trkpt lat="45.6562731" lon="-73.5590027"/>
      <trkpt lat="45.6554677" lon="-73.5597215"/>
      <trkpt lat="45.656125" lon="-73.5603532"/>
      <trkpt lat="45.6583319" lon="-73.5629667"/>
      <trkpt lat="45.6588963" lon="-73.563559"/>
      <trkpt lat="45.6590006" lon="-73.5636661"/>
      <trkpt lat="45.6588963" lon="-73.563559"/>
      <trkpt lat="45.6583319" lon="-73.5629667"/>
      <trkpt lat="45.657796" lon="-73.5621408"/>
      <trkpt lat="45.6583319" lon="-73.5629667"/>
      <trkpt lat="45.656125" lon="-73.5603532"/>
      <trkpt lat="45.6554677" lon="-73.5597215"/>
      <trkpt lat="45.6550339" lon="-73.5604402"/>
      <trkpt lat="45.6574448" lon="-73.5627519"/>
      <trkpt lat="45.6573252" lon="-73.5629779"/>
      <trkpt lat="45.6574448" lon="-73.5627519"/>
      <trkpt lat="45.657796" lon="-73.5621408"/>
      <trkpt lat="45.656125" lon="-73.5603532"/>
      <trkpt lat="45.657796" lon="-73.5621408"/>
      <trkpt lat="45.6574448" lon="-73.5627519"/>
      <trkpt lat="45.6573252" lon="-73.5629779"/>
      <trkpt lat="45.6571039" lon="-73.5633925"/>
      <trkpt lat="45.6573252" lon="-73.5629779"/>
      <trkpt lat="45.6585814" lon="-73.5641722"/>
      <trkpt lat="45.6588963" lon="-73.563559"/>
      <trkpt lat="45.6590006" lon="-73.5636661"/>
      <trkpt lat="45.6602455" lon="-73.564868"/>
      <trkpt lat="45.6599214" lon="-73.5654848"/>
      <trkpt lat="45.6586877" lon="-73.5642821"/>
      <trkpt lat="45.6599214" lon="-73.5654848"/>
      <trkpt lat="45.6605321" lon="-73.5660844"/>
      <trkpt lat="45.6602085" lon="-73.5667121"/>
      <trkpt lat="45.6605321" lon="-73.5660844"/>
      <trkpt lat="45.6599214" lon="-73.5654848"/>
      <trkpt lat="45.6586877" lon="-73.5642821"/>
      <trkpt lat="45.6583964" lon="-73.5648578"/>
      <trkpt lat="45.6580816" lon="-73.5654609"/>
      <trkpt lat="45.6576135" lon="-73.5663736"/>
      <trkpt lat="45.6575145" lon="-73.5662463"/>
      <trkpt lat="45.6576135" lon="-73.5663736"/>
      <trkpt lat="45.657229" lon="-73.567117"/>
      <trkpt lat="45.657124" lon="-73.5670084"/>
      <trkpt lat="45.657229" lon="-73.567117"/>
      <trkpt lat="45.6584189" lon="-73.5683697"/>
      <trkpt lat="45.657229" lon="-73.567117"/>
      <trkpt lat="45.6568419" lon="-73.5678721"/>
      <trkpt lat="45.6567322" lon="-73.5677615"/>
      <trkpt lat="45.657124" lon="-73.5670084"/>
      <trkpt lat="45.6575145" lon="-73.5662463"/>
      <trkpt lat="45.6579772" lon="-73.5653514"/>
      <trkpt lat="45.6582854" lon="-73.5647506"/>
      <trkpt lat="45.6585814" lon="-73.5641722"/>
      <trkpt lat="45.6588963" lon="-73.563559"/>
      <trkpt lat="45.6590006" lon="-73.5636661"/>
      <trkpt lat="45.6586877" lon="-73.5642821"/>
      <trkpt lat="45.6585814" lon="-73.5641722"/>
      <trkpt lat="45.6586877" lon="-73.5642821"/>
      <trkpt lat="45.6585814" lon="-73.5641722"/>
      <trkpt lat="45.6573252" lon="-73.5629779"/>
      <trkpt lat="45.6571039" lon="-73.5633925"/>
      <trkpt lat="45.6570446" lon="-73.5635038"/>
      <trkpt lat="45.6582854" lon="-73.5647506"/>
      <trkpt lat="45.6570446" lon="-73.5635038"/>
      <trkpt lat="45.6571039" lon="-73.5633925"/>
      <trkpt lat="45.65474" lon="-73.5610345"/>
      <trkpt lat="45.6548108" lon="-73.5609049"/>
      <trkpt lat="45.65474" lon="-73.5610345"/>
      <trkpt lat="45.6544221" lon="-73.5616135"/>
      <trkpt lat="45.6539468" lon="-73.5625076"/>
      <trkpt lat="45.6562721" lon="-73.5649378"/>
      <trkpt lat="45.6575145" lon="-73.5662463"/>
      <trkpt lat="45.6562721" lon="-73.5649378"/>
      <trkpt lat="45.6539468" lon="-73.5625076"/>
      <trkpt lat="45.6535398" lon="-73.5632717"/>
      <trkpt lat="45.6558897" lon="-73.565722"/>
      <trkpt lat="45.657124" lon="-73.5670084"/>
      <trkpt lat="45.6558897" lon="-73.565722"/>
      <trkpt lat="45.6562721" lon="-73.5649378"/>
      <trkpt lat="45.6558897" lon="-73.565722"/>
      <trkpt lat="45.6535398" lon="-73.5632717"/>
      <trkpt lat="45.6531477" lon="-73.5640124"/>
      <trkpt lat="45.6507891" lon="-73.5615366"/>
      <trkpt lat="45.6507055" lon="-73.561447"/>
      <trkpt lat="45.6507891" lon="-73.5615366"/>
      <trkpt lat="45.6504649" lon="-73.5621615"/>
      <trkpt lat="45.6499069" lon="-73.5632382"/>
      <trkpt lat="45.649832" lon="-73.5631528"/>
      <trkpt lat="45.649715" lon="-73.5630304"/>
      <trkpt lat="45.6493289" lon="-73.5637964"/>
      <trkpt lat="45.6494476" lon="-73.5639211"/>
      <trkpt lat="45.6493289" lon="-73.5637964"/>
      <trkpt lat="45.6485921" lon="-73.5630292"/>
      <trkpt lat="45.6493289" lon="-73.5637964"/>
      <trkpt lat="45.6491032" lon="-73.5645825"/>
      <trkpt lat="45.6493289" lon="-73.5637964"/>
      <trkpt lat="45.649715" lon="-73.5630304"/>
      <trkpt lat="45.6470889" lon="-73.5602843"/>
      <trkpt lat="45.6463423" lon="-73.5616971"/>
      <trkpt lat="45.6456136" lon="-73.5609495"/>
      <trkpt lat="45.6463423" lon="-73.5616971"/>
      <trkpt lat="45.6460052" lon="-73.5623348"/>
      <trkpt lat="45.6454873" lon="-73.5617905"/>
      <trkpt lat="45.6460052" lon="-73.5623348"/>
      <trkpt lat="45.6481573" lon="-73.5645853"/>
      <trkpt lat="45.6460052" lon="-73.5623348"/>
      <trkpt lat="45.6463423" lon="-73.5616971"/>
      <trkpt lat="45.6481573" lon="-73.5645853"/>
      <trkpt lat="45.6487734" lon="-73.5652301"/>
      <trkpt lat="45.6488557" lon="-73.5653149"/>
      <trkpt lat="45.6487734" lon="-73.5652301"/>
      <trkpt lat="45.6491032" lon="-73.5645825"/>
      <trkpt lat="45.6493289" lon="-73.5637964"/>
      <trkpt lat="45.649715" lon="-73.5630304"/>
      <trkpt lat="45.649832" lon="-73.5631528"/>
      <trkpt lat="45.6499069" lon="-73.5632382"/>
      <trkpt lat="45.6522691" lon="-73.5656966"/>
      <trkpt lat="45.6499069" lon="-73.5632382"/>
      <trkpt lat="45.6495227" lon="-73.5639917"/>
      <trkpt lat="45.65187" lon="-73.5664759"/>
      <trkpt lat="45.6515213" lon="-73.567112"/>
      <trkpt lat="45.6538952" lon="-73.5695973"/>
      <trkpt lat="45.6542291" lon="-73.5689487"/>
      <trkpt lat="45.6538952" lon="-73.5695973"/>
      <trkpt lat="45.6551208" lon="-73.57089"/>
      <trkpt lat="45.6538952" lon="-73.5695973"/>
      <trkpt lat="45.6535572" lon="-73.5702584"/>
      <trkpt lat="45.6538952" lon="-73.5695973"/>
      <trkpt lat="45.6515213" lon="-73.567112"/>
      <trkpt lat="45.6511837" lon="-73.5677627"/>
      <trkpt lat="45.6494532" lon="-73.5659438"/>
      <trkpt lat="45.6488557" lon="-73.5653149"/>
      <trkpt lat="45.6494532" lon="-73.5659438"/>
      <trkpt lat="45.6484522" lon="-73.5678929"/>
      <trkpt lat="45.6474008" lon="-73.5699139"/>
      <trkpt lat="45.6468144" lon="-73.5692721"/>
      <trkpt lat="45.6463138" lon="-73.5700499"/>
      <trkpt lat="45.6462369" lon="-73.5699593"/>
      <trkpt lat="45.6443755" lon="-73.5679797"/>
      <trkpt lat="45.6455158" lon="-73.5658105"/>
      <trkpt lat="45.6474242" lon="-73.5678563"/>
      <trkpt lat="45.6455158" lon="-73.5658105"/>
      <trkpt lat="45.6425473" lon="-73.5660209"/>
      <trkpt lat="45.6455158" lon="-73.5658105"/>
      <trkpt lat="45.6443755" lon="-73.5679797"/>
      <trkpt lat="45.6435604" lon="-73.5695388"/>
      <trkpt lat="45.6419053" lon="-73.5677968"/>
      <trkpt lat="45.6435604" lon="-73.5695388"/>
      <trkpt lat="45.6443755" lon="-73.5679797"/>
      <trkpt lat="45.6425473" lon="-73.5660209"/>
      <trkpt lat="45.6443755" lon="-73.5679797"/>
      <trkpt lat="45.6462369" lon="-73.5699593"/>
      <trkpt lat="45.6463138" lon="-73.5700499"/>
      <trkpt lat="45.6439841" lon="-73.5731497"/>
      <trkpt lat="45.6438957" lon="-73.5732561"/>
      <trkpt lat="45.6426625" lon="-73.5748755"/>
      <trkpt lat="45.6432595" lon="-73.5755175"/>
      <trkpt lat="45.6426625" lon="-73.5748755"/>
      <trkpt lat="45.6413563" lon="-73.5765901"/>
      <trkpt lat="45.6419586" lon="-73.5772319"/>
      <trkpt lat="45.6430953" lon="-73.5784448"/>
      <trkpt lat="45.6426733" lon="-73.5792356"/>
      <trkpt lat="45.644599" lon="-73.5812632"/>
      <trkpt lat="45.6453681" lon="-73.5820731"/>
      <trkpt lat="45.6460393" lon="-73.5827782"/>
      <trkpt lat="45.6461485" lon="-73.5828922"/>
      <trkpt lat="45.6464939" lon="-73.5832796"/>
      <trkpt lat="45.6484199" lon="-73.5853107"/>
      <trkpt lat="45.6503796" lon="-73.5873919"/>
      <trkpt lat="45.6508516" lon="-73.5866403"/>
      <trkpt lat="45.6502307" lon="-73.585969"/>
      <trkpt lat="45.6494146" lon="-73.5851082"/>
      <trkpt lat="45.6502307" lon="-73.585969"/>
      <trkpt lat="45.6508516" lon="-73.5866403"/>
      <trkpt lat="45.6519136" lon="-73.5847627"/>
      <trkpt lat="45.6523346" lon="-73.5841167"/>
      <trkpt lat="45.6531451" lon="-73.583002"/>
      <trkpt lat="45.6526394" lon="-73.5824245"/>
      <trkpt lat="45.6524955" lon="-73.5822782"/>
      <trkpt lat="45.652012" lon="-73.5817843"/>
      <trkpt lat="45.651885" lon="-73.5816448"/>
      <trkpt lat="45.6514025" lon="-73.5811179"/>
      <trkpt lat="45.651885" lon="-73.5816448"/>
      <trkpt lat="45.652012" lon="-73.5817843"/>
      <trkpt lat="45.6524955" lon="-73.5822782"/>
      <trkpt lat="45.6526394" lon="-73.5824245"/>
      <trkpt lat="45.6531451" lon="-73.583002"/>
      <trkpt lat="45.6552589" lon="-73.5802559"/>
      <trkpt lat="45.6516672" lon="-73.5764266"/>
      <trkpt lat="45.6509057" lon="-73.577307"/>
      <trkpt lat="45.6502031" lon="-73.5781375"/>
      <trkpt lat="45.6494515" lon="-73.5790065"/>
      <trkpt lat="45.6507739" lon="-73.5804335"/>
      <trkpt lat="45.6502162" lon="-73.5799767"/>
      <trkpt lat="45.6498795" lon="-73.5796491"/>
      <trkpt lat="45.6493611" lon="-73.5791088"/>
      <trkpt lat="45.6492642" lon="-73.5790152"/>
      <trkpt lat="45.6493564" lon="-73.5789121"/>
      <trkpt lat="45.6494515" lon="-73.5790065"/>
      <trkpt lat="45.6507739" lon="-73.5804335"/>
      <trkpt lat="45.6512777" lon="-73.5809803"/>
      <trkpt lat="45.6507739" lon="-73.5804335"/>
      <trkpt lat="45.6512777" lon="-73.5809803"/>
      <trkpt lat="45.6514025" lon="-73.5811179"/>
      <trkpt lat="45.6512777" lon="-73.5809803"/>
      <trkpt lat="45.6514025" lon="-73.5811179"/>
      <trkpt lat="45.651885" lon="-73.5816448"/>
      <trkpt lat="45.652012" lon="-73.5817843"/>
      <trkpt lat="45.6524955" lon="-73.5822782"/>
      <trkpt lat="45.6526394" lon="-73.5824245"/>
      <trkpt lat="45.6531451" lon="-73.583002"/>
      <trkpt lat="45.6552589" lon="-73.5802559"/>
      <trkpt lat="45.6555679" lon="-73.5795882"/>
      <trkpt lat="45.6520445" lon="-73.5759832"/>
      <trkpt lat="45.65196" lon="-73.5758378"/>
      <trkpt lat="45.6520445" lon="-73.5759832"/>
      <trkpt lat="45.6516672" lon="-73.5764266"/>
      <trkpt lat="45.6509057" lon="-73.577307"/>
      <trkpt lat="45.650831" lon="-73.5771759"/>
      <trkpt lat="45.650187" lon="-73.5761047"/>
      <trkpt lat="45.6517479" lon="-73.5760905"/>
      <trkpt lat="45.650187" lon="-73.5761047"/>
      <trkpt lat="45.649027" lon="-73.5762204"/>
      <trkpt lat="45.6475081" lon="-73.5745979"/>
      <trkpt lat="45.649027" lon="-73.5762204"/>
      <trkpt lat="45.650187" lon="-73.5761047"/>
      <trkpt lat="45.650831" lon="-73.5771759"/>
      <trkpt lat="45.6509057" lon="-73.577307"/>
      <trkpt lat="45.6502031" lon="-73.5781375"/>
      <trkpt lat="45.6494515" lon="-73.5790065"/>
      <trkpt lat="45.6493611" lon="-73.5791088"/>
      <trkpt lat="45.6485642" lon="-73.5800783"/>
      <trkpt lat="45.6500914" lon="-73.581717"/>
      <trkpt lat="45.6507739" lon="-73.5804335"/>
      <trkpt lat="45.6500914" lon="-73.581717"/>
      <trkpt lat="45.6523346" lon="-73.5841167"/>
      <trkpt lat="45.6500914" lon="-73.581717"/>
      <trkpt lat="45.6485642" lon="-73.5800783"/>
      <trkpt lat="45.6484479" lon="-73.5799593"/>
      <trkpt lat="45.6485642" lon="-73.5800783"/>
      <trkpt lat="45.6480652" lon="-73.5806491"/>
      <trkpt lat="45.6497171" lon="-73.5824201"/>
      <trkpt lat="45.6519136" lon="-73.5847627"/>
      <trkpt lat="45.6497171" lon="-73.5824201"/>
      <trkpt lat="45.6500914" lon="-73.581717"/>
      <trkpt lat="45.6497171" lon="-73.5824201"/>
      <trkpt lat="45.6493333" lon="-73.5832088"/>
      <trkpt lat="45.6488102" lon="-73.5826463"/>
      <trkpt lat="45.6486799" lon="-73.5825091"/>
      <trkpt lat="45.6474672" lon="-73.5830576"/>
      <trkpt lat="45.6486799" lon="-73.5825091"/>
      <trkpt lat="45.6488102" lon="-73.5826463"/>
      <trkpt lat="45.6493333" lon="-73.5832088"/>
      <trkpt lat="45.6488374" lon="-73.5845078"/>
      <trkpt lat="45.6494146" lon="-73.5851082"/>
      <trkpt lat="45.6488374" lon="-73.5845078"/>
      <trkpt lat="45.6484199" lon="-73.5853107"/>
      <trkpt lat="45.6480431" lon="-73.5860276"/>
      <trkpt lat="45.6484199" lon="-73.5853107"/>
      <trkpt lat="45.6464939" lon="-73.5832796"/>
      <trkpt lat="45.6461387" lon="-73.5840058"/>
      <trkpt lat="45.6480431" lon="-73.5860276"/>
      <trkpt lat="45.649321" lon="-73.5873819"/>
      <trkpt lat="45.6499429" lon="-73.5880331"/>
      <trkpt lat="45.649321" lon="-73.5873819"/>
      <trkpt lat="45.6478706" lon="-73.5879441"/>
      <trkpt lat="45.6481046" lon="-73.5874915"/>
      <trkpt lat="45.6481046" lon="-73.5874915"/>
      <trkpt lat="45.6478706" lon="-73.5879441"/>
      <trkpt lat="45.6471553" lon="-73.5871971"/>
      <trkpt lat="45.6478706" lon="-73.5879441"/>
      <trkpt lat="45.649321" lon="-73.5873819"/>
      <trkpt lat="45.6480431" lon="-73.5860276"/>
      <trkpt lat="45.6476018" lon="-73.5866812"/>
      <trkpt lat="45.646967" lon="-73.586017"/>
      <trkpt lat="45.6464477" lon="-73.5854698"/>
      <trkpt lat="45.646967" lon="-73.586017"/>
      <trkpt lat="45.6453601" lon="-73.5884311"/>
      <trkpt lat="45.646967" lon="-73.586017"/>
      <trkpt lat="45.6476018" lon="-73.5866812"/>
      <trkpt lat="45.6471553" lon="-73.5871971"/>
      <trkpt lat="45.6466598" lon="-73.5878516"/>
      <trkpt lat="45.6462563" lon="-73.588612"/>
      <trkpt lat="45.6466598" lon="-73.5878516"/>
      <trkpt lat="45.647785" lon="-73.5902162"/>
      <trkpt lat="45.6462563" lon="-73.588612"/>
      <trkpt lat="45.6458685" lon="-73.58936"/>
      <trkpt lat="45.6462563" lon="-73.588612"/>
      <trkpt lat="45.647785" lon="-73.5902162"/>
      <trkpt lat="45.6473134" lon="-73.590975"/>
      <trkpt lat="45.6479254" lon="-73.5916576"/>
      <trkpt lat="45.6473134" lon="-73.590975"/>
      <trkpt lat="45.6468869" lon="-73.5916139"/>
      <trkpt lat="45.6460292" lon="-73.5907282"/>
      <trkpt lat="45.6454681" lon="-73.590133"/>
      <trkpt lat="45.6460292" lon="-73.5907282"/>
      <trkpt lat="45.6468869" lon="-73.5916139"/>
      <trkpt lat="45.6473134" lon="-73.590975"/>
      <trkpt lat="45.6458685" lon="-73.58936"/>
      <trkpt lat="45.6454681" lon="-73.590133"/>
      <trkpt lat="45.6435749" lon="-73.5904501"/>
      <trkpt lat="45.6431333" lon="-73.5913198"/>
      <trkpt lat="45.644733" lon="-73.5930011"/>
      <trkpt lat="45.6431333" lon="-73.5913198"/>
      <trkpt lat="45.64204" lon="-73.5901968"/>
      <trkpt lat="45.6431333" lon="-73.5913198"/>
      <trkpt lat="45.6435749" lon="-73.5904501"/>
      <trkpt lat="45.6454681" lon="-73.590133"/>
      <trkpt lat="45.6458685" lon="-73.58936"/>
      <trkpt lat="45.6453601" lon="-73.5884311"/>
      <trkpt lat="45.6458685" lon="-73.58936"/>
      <trkpt lat="45.6473134" lon="-73.590975"/>
      <trkpt lat="45.647785" lon="-73.5902162"/>
      <trkpt lat="45.6466598" lon="-73.5878516"/>
      <trkpt lat="45.6471553" lon="-73.5871971"/>
      <trkpt lat="45.6476018" lon="-73.5866812"/>
      <trkpt lat="45.6480431" lon="-73.5860276"/>
      <trkpt lat="45.6461387" lon="-73.5840058"/>
      <trkpt lat="45.6457602" lon="-73.5847475"/>
      <trkpt lat="45.6464477" lon="-73.5854698"/>
      <trkpt lat="45.6456606" lon="-73.5865044"/>
      <trkpt lat="45.6464477" lon="-73.5854698"/>
      <trkpt lat="45.6457602" lon="-73.5847475"/>
      <trkpt lat="45.6456606" lon="-73.5865044"/>
      <trkpt lat="45.6457602" lon="-73.5847475"/>
      <trkpt lat="45.6461387" lon="-73.5840058"/>
      <trkpt lat="45.6464939" lon="-73.5832796"/>
      <trkpt lat="45.6461485" lon="-73.5828922"/>
      <trkpt lat="45.6441573" lon="-73.5860702"/>
      <trkpt lat="45.6450572" lon="-73.5874169"/>
      <trkpt lat="45.6456606" lon="-73.5865044"/>
      <trkpt lat="45.6450572" lon="-73.5874169"/>
      <trkpt lat="45.6453601" lon="-73.5884311"/>
      <trkpt lat="45.6450572" lon="-73.5874169"/>
      <trkpt lat="45.6441573" lon="-73.5860702"/>
      <trkpt lat="45.644059" lon="-73.5859622"/>
      <trkpt lat="45.6434038" lon="-73.5852795"/>
      <trkpt lat="45.6429862" lon="-73.5860881"/>
      <trkpt lat="45.6410004" lon="-73.5840047"/>
      <trkpt lat="45.6429862" lon="-73.5860881"/>
      <trkpt lat="45.6434038" lon="-73.5852795"/>
      <trkpt lat="45.644059" lon="-73.5859622"/>
      <trkpt lat="45.6441573" lon="-73.5860702"/>
      <trkpt lat="45.6424988" lon="-73.5893226"/>
      <trkpt lat="45.6435749" lon="-73.5904501"/>
      <trkpt lat="45.6424988" lon="-73.5893226"/>
      <trkpt lat="45.6423868" lon="-73.5892068"/>
      <trkpt lat="45.6424988" lon="-73.5893226"/>
      <trkpt lat="45.64204" lon="-73.5901968"/>
      <trkpt lat="45.6415761" lon="-73.5911134"/>
      <trkpt lat="45.6426503" lon="-73.5922183"/>
      <trkpt lat="45.6415761" lon="-73.5911134"/>
      <trkpt lat="45.6426503" lon="-73.5922183"/>
      <trkpt lat="45.6431333" lon="-73.5913198"/>
      <trkpt lat="45.644733" lon="-73.5930011"/>
      <trkpt lat="45.6458198" lon="-73.5941302"/>
      <trkpt lat="45.644733" lon="-73.5930011"/>
      <trkpt lat="45.6458198" lon="-73.5941302"/>
      <trkpt lat="45.6479254" lon="-73.5916576"/>
      <trkpt lat="45.6499429" lon="-73.5880331"/>
      <trkpt lat="45.6503796" lon="-73.5873919"/>
      <trkpt lat="45.6484199" lon="-73.5853107"/>
      <trkpt lat="45.6488374" lon="-73.5845078"/>
      <trkpt lat="45.6474672" lon="-73.5830576"/>
      <trkpt lat="45.6488374" lon="-73.5845078"/>
      <trkpt lat="45.6493333" lon="-73.5832088"/>
      <trkpt lat="45.6497171" lon="-73.5824201"/>
      <trkpt lat="45.6480652" lon="-73.5806491"/>
      <trkpt lat="45.6479572" lon="-73.5805395"/>
      <trkpt lat="45.6474101" lon="-73.5799494"/>
      <trkpt lat="45.6479572" lon="-73.5805395"/>
      <trkpt lat="45.6480652" lon="-73.5806491"/>
      <trkpt lat="45.6467012" lon="-73.5822462"/>
      <trkpt lat="45.6474672" lon="-73.5830576"/>
      <trkpt lat="45.6467012" lon="-73.5822462"/>
      <trkpt lat="45.6465914" lon="-73.5821257"/>
      <trkpt lat="45.6467012" lon="-73.5822462"/>
      <trkpt lat="45.6461485" lon="-73.5828922"/>
      <trkpt lat="45.6460393" lon="-73.5827782"/>
      <trkpt lat="45.6453681" lon="-73.5820731"/>
      <trkpt lat="45.6448615" lon="-73.5826691"/>
      <trkpt lat="45.6438901" lon="-73.5843392"/>
      <trkpt lat="45.6434038" lon="-73.5852795"/>
      <trkpt lat="45.641414" lon="-73.5831948"/>
      <trkpt lat="45.6410004" lon="-73.5840047"/>
      <trkpt lat="45.6429862" lon="-73.5860881"/>
      <trkpt lat="45.6425785" lon="-73.5868857"/>
      <trkpt lat="45.6429862" lon="-73.5860881"/>
      <trkpt lat="45.6425785" lon="-73.5868857"/>
      <trkpt lat="45.6421471" lon="-73.5877145"/>
      <trkpt lat="45.6401614" lon="-73.585636"/>
      <trkpt lat="45.6405802" lon="-73.5848157"/>
      <trkpt lat="45.6401614" lon="-73.585636"/>
      <trkpt lat="45.6402575" lon="-73.5869761"/>
      <trkpt lat="45.6401614" lon="-73.585636"/>
      <trkpt lat="45.6421471" lon="-73.5877145"/>
      <trkpt lat="45.6417332" lon="-73.5885219"/>
      <trkpt lat="45.6421471" lon="-73.5877145"/>
      <trkpt lat="45.6417332" lon="-73.5885219"/>
      <trkpt lat="45.6423868" lon="-73.5892068"/>
      <trkpt lat="45.6417332" lon="-73.5885219"/>
      <trkpt lat="45.6412908" lon="-73.589409"/>
      <trkpt lat="45.6417332" lon="-73.5885219"/>
      <trkpt lat="45.6423868" lon="-73.5892068"/>
      <trkpt lat="45.644059" lon="-73.5859622"/>
      <trkpt lat="45.6460393" lon="-73.5827782"/>
      <trkpt lat="45.6465914" lon="-73.5821257"/>
      <trkpt lat="45.6459252" lon="-73.5814129"/>
      <trkpt lat="45.6453681" lon="-73.5820731"/>
      <trkpt lat="45.644599" lon="-73.5812632"/>
      <trkpt lat="45.6442243" lon="-73.58199"/>
      <trkpt lat="45.6448615" lon="-73.5826691"/>
      <trkpt lat="45.6442243" lon="-73.58199"/>
      <trkpt lat="45.6434202" lon="-73.5811563"/>
      <trkpt lat="45.6427285" lon="-73.5816587"/>
      <trkpt lat="45.6434202" lon="-73.5811563"/>
      <trkpt lat="45.6423017" lon="-73.5799552"/>
      <trkpt lat="45.6419011" lon="-73.5807888"/>
      <trkpt lat="45.6404244" lon="-73.5792535"/>
      <trkpt lat="45.6419011" lon="-73.5807888"/>
      <trkpt lat="45.6413092" lon="-73.5816228"/>
      <trkpt lat="45.6419011" lon="-73.5807888"/>
      <trkpt lat="45.6423017" lon="-73.5799552"/>
      <trkpt lat="45.6434202" lon="-73.5811563"/>
      <trkpt lat="45.6442243" lon="-73.58199"/>
      <trkpt lat="45.6437984" lon="-73.5827979"/>
      <trkpt lat="45.6427285" lon="-73.5816587"/>
      <trkpt lat="45.6419719" lon="-73.5823171"/>
      <trkpt lat="45.6427285" lon="-73.5816587"/>
      <trkpt lat="45.6437984" lon="-73.5827979"/>
      <trkpt lat="45.6433306" lon="-73.5837322"/>
      <trkpt lat="45.6419719" lon="-73.5823171"/>
      <trkpt lat="45.641414" lon="-73.5831948"/>
      <trkpt lat="45.6434038" lon="-73.5852795"/>
      <trkpt lat="45.6438901" lon="-73.5843392"/>
      <trkpt lat="45.6433306" lon="-73.5837322"/>
      <trkpt lat="45.6437984" lon="-73.5827979"/>
      <trkpt lat="45.6442243" lon="-73.58199"/>
      <trkpt lat="45.644599" lon="-73.5812632"/>
      <trkpt lat="45.6426733" lon="-73.5792356"/>
      <trkpt lat="45.6430953" lon="-73.5784448"/>
      <trkpt lat="45.6440408" lon="-73.5794326"/>
      <trkpt lat="45.6430953" lon="-73.5784448"/>
      <trkpt lat="45.6419586" lon="-73.5772319"/>
      <trkpt lat="45.6414417" lon="-73.5779167"/>
      <trkpt lat="45.6426733" lon="-73.5792356"/>
      <trkpt lat="45.6423017" lon="-73.5799552"/>
      <trkpt lat="45.6426733" lon="-73.5792356"/>
      <trkpt lat="45.6414417" lon="-73.5779167"/>
      <trkpt lat="45.6409726" lon="-73.5785357"/>
      <trkpt lat="45.6423017" lon="-73.5799552"/>
      <trkpt lat="45.6409726" lon="-73.5785357"/>
      <trkpt lat="45.6404244" lon="-73.5792535"/>
      <trkpt lat="45.6398106" lon="-73.5800625"/>
      <trkpt lat="45.6413092" lon="-73.5816228"/>
      <trkpt lat="45.6408276" lon="-73.5825799"/>
      <trkpt lat="45.641414" lon="-73.5831948"/>
      <trkpt lat="45.6408276" lon="-73.5825799"/>
      <trkpt lat="45.640251" lon="-73.5819722"/>
      <trkpt lat="45.6408276" lon="-73.5825799"/>
      <trkpt lat="45.641414" lon="-73.5831948"/>
      <trkpt lat="45.6410004" lon="-73.5840047"/>
      <trkpt lat="45.6405802" lon="-73.5848157"/>
      <trkpt lat="45.6425785" lon="-73.5868857"/>
      <trkpt lat="45.6421471" lon="-73.5877145"/>
      <trkpt lat="45.6425785" lon="-73.5868857"/>
      <trkpt lat="45.6405802" lon="-73.5848157"/>
      <trkpt lat="45.6410004" lon="-73.5840047"/>
      <trkpt lat="45.641414" lon="-73.5831948"/>
      <trkpt lat="45.6419719" lon="-73.5823171"/>
      <trkpt lat="45.6433306" lon="-73.5837322"/>
      <trkpt lat="45.6438901" lon="-73.5843392"/>
      <trkpt lat="45.6448615" lon="-73.5826691"/>
      <trkpt lat="45.6453681" lon="-73.5820731"/>
      <trkpt lat="45.6459252" lon="-73.5814129"/>
      <trkpt lat="45.6464326" lon="-73.5808285"/>
      <trkpt lat="45.646187" lon="-73.5805544"/>
      <trkpt lat="45.6449668" lon="-73.5792353"/>
      <trkpt lat="45.6452643" lon="-73.578662"/>
      <trkpt lat="45.6449668" lon="-73.5792353"/>
      <trkpt lat="45.646187" lon="-73.5805544"/>
      <trkpt lat="45.6464326" lon="-73.5808285"/>
      <trkpt lat="45.6465914" lon="-73.580076"/>
      <trkpt lat="45.6464326" lon="-73.5808285"/>
      <trkpt lat="45.6459252" lon="-73.5814129"/>
      <trkpt lat="45.6440408" lon="-73.5794326"/>
      <trkpt lat="45.6459252" lon="-73.5814129"/>
      <trkpt lat="45.6465914" lon="-73.5821257"/>
      <trkpt lat="45.6479572" lon="-73.5805395"/>
      <trkpt lat="45.6484479" lon="-73.5799593"/>
      <trkpt lat="45.6477868" lon="-73.5792437"/>
      <trkpt lat="45.6454482" lon="-73.5767404"/>
      <trkpt lat="45.6450708" lon="-73.5774467"/>
      <trkpt lat="45.6454482" lon="-73.5767404"/>
      <trkpt lat="45.6432595" lon="-73.5755175"/>
      <trkpt lat="45.6454482" lon="-73.5767404"/>
      <trkpt lat="45.6460684" lon="-73.5755826"/>
      <trkpt lat="45.6438957" lon="-73.5732561"/>
      <trkpt lat="45.6438006" lon="-73.5731721"/>
      <trkpt lat="45.6438878" lon="-73.5730623"/>
      <trkpt lat="45.6439841" lon="-73.5731497"/>
      <trkpt lat="45.6461427" lon="-73.5754703"/>
      <trkpt lat="45.6460684" lon="-73.5755826"/>
      <trkpt lat="45.6461427" lon="-73.5754703"/>
      <trkpt lat="45.6471871" lon="-73.5765873"/>
      <trkpt lat="45.6485011" lon="-73.5779858"/>
      <trkpt lat="45.6471871" lon="-73.5765873"/>
      <trkpt lat="45.6471187" lon="-73.5767181"/>
      <trkpt lat="45.6460684" lon="-73.5755826"/>
      <trkpt lat="45.6454482" lon="-73.5767404"/>
      <trkpt lat="45.6477868" lon="-73.5792437"/>
      <trkpt lat="45.6474101" lon="-73.5799494"/>
      <trkpt lat="45.6450708" lon="-73.5774467"/>
      <trkpt lat="45.6432595" lon="-73.5755175"/>
      <trkpt lat="45.6428358" lon="-73.576076"/>
      <trkpt lat="45.6424687" lon="-73.5765635"/>
      <trkpt lat="45.6428358" lon="-73.576076"/>
      <trkpt lat="45.6435872" lon="-73.5768952"/>
      <trkpt lat="45.6438088" lon="-73.5771191"/>
      <trkpt lat="45.6435872" lon="-73.5768952"/>
      <trkpt lat="45.6438088" lon="-73.5771191"/>
      <trkpt lat="45.643518" lon="-73.5776846"/>
      <trkpt lat="45.643293" lon="-73.5774563"/>
      <trkpt lat="45.6435872" lon="-73.5768952"/>
      <trkpt lat="45.6438088" lon="-73.5771191"/>
      <trkpt lat="45.643518" lon="-73.5776846"/>
      <trkpt lat="45.643293" lon="-73.5774563"/>
      <trkpt lat="45.643518" lon="-73.5776846"/>
      <trkpt lat="45.6444284" lon="-73.5786717"/>
      <trkpt lat="45.6440408" lon="-73.5794326"/>
      <trkpt lat="45.6444284" lon="-73.5786717"/>
      <trkpt lat="45.6449668" lon="-73.5792353"/>
      <trkpt lat="45.6444284" lon="-73.5786717"/>
      <trkpt lat="45.643518" lon="-73.5776846"/>
      <trkpt lat="45.643293" lon="-73.5774563"/>
      <trkpt lat="45.6424687" lon="-73.5765635"/>
      <trkpt lat="45.643293" lon="-73.5774563"/>
      <trkpt lat="45.6424687" lon="-73.5765635"/>
      <trkpt lat="45.6419586" lon="-73.5772319"/>
      <trkpt lat="45.6413563" lon="-73.5765901"/>
      <trkpt lat="45.6412741" lon="-73.5765025"/>
      <trkpt lat="45.6425805" lon="-73.5747875"/>
      <trkpt lat="45.6419791" lon="-73.5741342"/>
      <trkpt lat="45.6418247" lon="-73.572765"/>
      <trkpt lat="45.6416814" lon="-73.5726138"/>
      <trkpt lat="45.6407199" lon="-73.571574"/>
      <trkpt lat="45.6416814" lon="-73.5726138"/>
      <trkpt lat="45.6418247" lon="-73.572765"/>
      <trkpt lat="45.6419791" lon="-73.5741342"/>
      <trkpt lat="45.641758" lon="-73.5744227"/>
      <trkpt lat="45.6419791" lon="-73.5741342"/>
      <trkpt lat="45.6425805" lon="-73.5747875"/>
      <trkpt lat="45.6438006" lon="-73.5731721"/>
      <trkpt lat="45.6423806" lon="-73.5718204"/>
      <trkpt lat="45.6417078" lon="-73.5712567"/>
      <trkpt lat="45.6417864" lon="-73.5710868"/>
      <trkpt lat="45.6417078" lon="-73.5712567"/>
      <trkpt lat="45.6411805" lon="-73.5706888"/>
      <trkpt lat="45.6407199" lon="-73.571574"/>
      <trkpt lat="45.6411805" lon="-73.5706888"/>
      <trkpt lat="45.641136" lon="-73.5706399"/>
      <trkpt lat="45.6390407" lon="-73.569776"/>
      <trkpt lat="45.6399788" lon="-73.5707892"/>
      <trkpt lat="45.6390407" lon="-73.569776"/>
      <trkpt lat="45.6399788" lon="-73.5707892"/>
      <trkpt lat="45.6401315" lon="-73.5709504"/>
      <trkpt lat="45.6399788" lon="-73.5707892"/>
      <trkpt lat="45.6401315" lon="-73.5709504"/>
      <trkpt lat="45.6407199" lon="-73.571574"/>
      <trkpt lat="45.6401315" lon="-73.5709504"/>
      <trkpt lat="45.6407199" lon="-73.571574"/>
      <trkpt lat="45.6402722" lon="-73.5724045"/>
      <trkpt lat="45.6406299" lon="-73.572767"/>
      <trkpt lat="45.6406299" lon="-73.572767"/>
      <trkpt lat="45.6402722" lon="-73.5724045"/>
      <trkpt lat="45.6397276" lon="-73.5734521"/>
      <trkpt lat="45.641758" lon="-73.5744227"/>
      <trkpt lat="45.6406587" lon="-73.575862"/>
      <trkpt lat="45.641758" lon="-73.5744227"/>
      <trkpt lat="45.6397276" lon="-73.5734521"/>
      <trkpt lat="45.639257" lon="-73.5743712"/>
      <trkpt lat="45.6389292" lon="-73.5739909"/>
      <trkpt lat="45.6384865" lon="-73.5747959"/>
      <trkpt lat="45.6388442" lon="-73.5751879"/>
      <trkpt lat="45.6401446" lon="-73.5765333"/>
      <trkpt lat="45.6388442" lon="-73.5751879"/>
      <trkpt lat="45.6384638" lon="-73.5758911"/>
      <trkpt lat="45.6388442" lon="-73.5751879"/>
      <trkpt lat="45.6384865" lon="-73.5747959"/>
      <trkpt lat="45.6369146" lon="-73.574255"/>
      <trkpt lat="45.6384865" lon="-73.5747959"/>
      <trkpt lat="45.6389292" lon="-73.5739909"/>
      <trkpt lat="45.6364334" lon="-73.5748929"/>
      <trkpt lat="45.6389292" lon="-73.5739909"/>
      <trkpt lat="45.639257" lon="-73.5743712"/>
      <trkpt lat="45.6406587" lon="-73.575862"/>
      <trkpt lat="45.6412741" lon="-73.5765025"/>
      <trkpt lat="45.6413563" lon="-73.5765901"/>
      <trkpt lat="45.6385947" lon="-73.5802261"/>
      <trkpt lat="45.6392005" lon="-73.58087"/>
      <trkpt lat="45.6385947" lon="-73.5802261"/>
      <trkpt lat="45.6385084" lon="-73.5801412"/>
      <trkpt lat="45.6412741" lon="-73.5765025"/>
      <trkpt lat="45.6406587" lon="-73.575862"/>
      <trkpt lat="45.6401446" lon="-73.5765333"/>
      <trkpt lat="45.6396712" lon="-73.577156"/>
      <trkpt lat="45.6391552" lon="-73.5778328"/>
      <trkpt lat="45.6378905" lon="-73.5795065"/>
      <trkpt lat="45.6385084" lon="-73.5801412"/>
      <trkpt lat="45.6412741" lon="-73.5765025"/>
      <trkpt lat="45.6425805" lon="-73.5747875"/>
      <trkpt lat="45.6438006" lon="-73.5731721"/>
      <trkpt lat="45.6438878" lon="-73.5730623"/>
      <trkpt lat="45.6462369" lon="-73.5699593"/>
      <trkpt lat="45.646728" lon="-73.5691834"/>
      <trkpt lat="45.6474242" lon="-73.5678563"/>
      <trkpt lat="45.6477736" lon="-73.5671736"/>
      <trkpt lat="45.6487734" lon="-73.5652301"/>
      <trkpt lat="45.6491032" lon="-73.5645825"/>
      <trkpt lat="45.6494476" lon="-73.5639211"/>
      <trkpt lat="45.649832" lon="-73.5631528"/>
      <trkpt lat="45.6507055" lon="-73.561447"/>
      <trkpt lat="45.6479748" lon="-73.5586077"/>
      <trkpt lat="45.6477266" lon="-73.5583497"/>
      <trkpt lat="45.6479748" lon="-73.5586077"/>
      <trkpt lat="45.648158" lon="-73.5582615"/>
      <trkpt lat="45.6483749" lon="-73.5578372"/>
      <trkpt lat="45.6487643" lon="-73.5571143"/>
      <trkpt lat="45.6483749" lon="-73.5578372"/>
      <trkpt lat="45.6510661" lon="-73.5607"/>
      <trkpt lat="45.6483749" lon="-73.5578372"/>
      <trkpt lat="45.6477917" lon="-73.5571665"/>
      <trkpt lat="45.6483749" lon="-73.5578372"/>
      <trkpt lat="45.648158" lon="-73.5582615"/>
      <trkpt lat="45.6479748" lon="-73.5586077"/>
      <trkpt lat="45.6477266" lon="-73.5583497"/>
      <trkpt lat="45.648158" lon="-73.5582615"/>
      <trkpt lat="45.6479748" lon="-73.5586077"/>
      <trkpt lat="45.6476575" lon="-73.5592085"/>
      <trkpt lat="45.6479748" lon="-73.5586077"/>
      <trkpt lat="45.6507055" lon="-73.561447"/>
      <trkpt lat="45.6510661" lon="-73.5607"/>
      <trkpt lat="45.6514791" lon="-73.5598867"/>
      <trkpt lat="45.6515866" lon="-73.5599992"/>
      <trkpt lat="45.6511706" lon="-73.5608046"/>
      <trkpt lat="45.6510661" lon="-73.5607"/>
      <trkpt lat="45.6511706" lon="-73.5608046"/>
      <trkpt lat="45.6507891" lon="-73.5615366"/>
      <trkpt lat="45.6531477" lon="-73.5640124"/>
      <trkpt lat="45.6528348" lon="-73.564623"/>
      <trkpt lat="45.6504649" lon="-73.5621615"/>
      <trkpt lat="45.6528348" lon="-73.564623"/>
      <trkpt lat="45.6531477" lon="-73.5640124"/>
      <trkpt lat="45.6554992" lon="-73.5664745"/>
      <trkpt lat="45.6567322" lon="-73.5677615"/>
      <trkpt lat="45.6554992" lon="-73.5664745"/>
      <trkpt lat="45.6558897" lon="-73.565722"/>
      <trkpt lat="45.6554992" lon="-73.5664745"/>
      <trkpt lat="45.6551881" lon="-73.5670852"/>
      <trkpt lat="45.6546298" lon="-73.56817"/>
      <trkpt lat="45.6551881" lon="-73.5670852"/>
      <trkpt lat="45.6528348" lon="-73.564623"/>
      <trkpt lat="45.6551881" lon="-73.5670852"/>
      <trkpt lat="45.6564182" lon="-73.5683759"/>
      <trkpt lat="45.6567322" lon="-73.5677615"/>
      <trkpt lat="45.6568419" lon="-73.5678721"/>
      <trkpt lat="45.6565236" lon="-73.5684825"/>
      <trkpt lat="45.6577186" lon="-73.5697429"/>
      <trkpt lat="45.6571616" lon="-73.5708246"/>
      <trkpt lat="45.6588287" lon="-73.5725612"/>
      <trkpt lat="45.6592818" lon="-73.5713687"/>
      <trkpt lat="45.6593718" lon="-73.5711709"/>
      <trkpt lat="45.6596012" lon="-73.5706859"/>
      <trkpt lat="45.659756" lon="-73.5702122"/>
      <trkpt lat="45.6604819" lon="-73.5709497"/>
      <trkpt lat="45.659756" lon="-73.5702122"/>
      <trkpt lat="45.6604819" lon="-73.5709497"/>
      <trkpt lat="45.6600648" lon="-73.5718934"/>
      <trkpt lat="45.6593718" lon="-73.5711709"/>
      <trkpt lat="45.6600648" lon="-73.5718934"/>
      <trkpt lat="45.6587893" lon="-73.5737302"/>
      <trkpt lat="45.6589808" lon="-73.5739307"/>
      <trkpt lat="45.6587893" lon="-73.5737302"/>
      <trkpt lat="45.6585268" lon="-73.573455"/>
      <trkpt lat="45.6587893" lon="-73.5737302"/>
      <trkpt lat="45.6585268" lon="-73.573455"/>
      <trkpt lat="45.6588287" lon="-73.5725612"/>
      <trkpt lat="45.6571616" lon="-73.5708246"/>
      <trkpt lat="45.6559674" lon="-73.5695688"/>
      <trkpt lat="45.6558603" lon="-73.5694596"/>
      <trkpt lat="45.6546298" lon="-73.56817"/>
      <trkpt lat="45.6542291" lon="-73.5689487"/>
      <trkpt lat="45.655457" lon="-73.5702337"/>
      <trkpt lat="45.6542291" lon="-73.5689487"/>
      <trkpt lat="45.65187" lon="-73.5664759"/>
      <trkpt lat="45.6542291" lon="-73.5689487"/>
      <trkpt lat="45.6546298" lon="-73.56817"/>
      <trkpt lat="45.6522691" lon="-73.5656966"/>
      <trkpt lat="45.6528348" lon="-73.564623"/>
      <trkpt lat="45.6522691" lon="-73.5656966"/>
      <trkpt lat="45.6546298" lon="-73.56817"/>
      <trkpt lat="45.6558603" lon="-73.5694596"/>
      <trkpt lat="45.6564182" lon="-73.5683759"/>
      <trkpt lat="45.6565236" lon="-73.5684825"/>
      <trkpt lat="45.6559674" lon="-73.5695688"/>
      <trkpt lat="45.6571616" lon="-73.5708246"/>
      <trkpt lat="45.6567561" lon="-73.5716076"/>
      <trkpt lat="45.6564115" lon="-73.572266"/>
      <trkpt lat="45.6567561" lon="-73.5716076"/>
      <trkpt lat="45.6555667" lon="-73.5703513"/>
      <trkpt lat="45.655457" lon="-73.5702337"/>
      <trkpt lat="45.6558603" lon="-73.5694596"/>
      <trkpt lat="45.6559674" lon="-73.5695688"/>
      <trkpt lat="45.6555667" lon="-73.5703513"/>
      <trkpt lat="45.6567561" lon="-73.5716076"/>
      <trkpt lat="45.6580763" lon="-73.5729923"/>
      <trkpt lat="45.6585268" lon="-73.573455"/>
      <trkpt lat="45.6580763" lon="-73.5729923"/>
      <trkpt lat="45.6577425" lon="-73.5736453"/>
      <trkpt lat="45.6573934" lon="-73.5743027"/>
      <trkpt lat="45.6560796" lon="-73.5729107"/>
      <trkpt lat="45.6573934" lon="-73.5743027"/>
      <trkpt lat="45.6577425" lon="-73.5736453"/>
      <trkpt lat="45.6564115" lon="-73.572266"/>
      <trkpt lat="45.6560796" lon="-73.5729107"/>
      <trkpt lat="45.6548876" lon="-73.5716687"/>
      <trkpt lat="45.6531032" lon="-73.5747394"/>
      <trkpt lat="45.654427" lon="-73.5761513"/>
      <trkpt lat="45.6531032" lon="-73.5747394"/>
      <trkpt lat="45.6530067" lon="-73.5746072"/>
      <trkpt lat="45.6531032" lon="-73.5747394"/>
      <trkpt lat="45.6525222" lon="-73.5754275"/>
      <trkpt lat="45.6520445" lon="-73.5759832"/>
      <trkpt lat="45.6555679" lon="-73.5795882"/>
      <trkpt lat="45.6571715" lon="-73.5764921"/>
      <trkpt lat="45.6576968" lon="-73.5756191"/>
      <trkpt lat="45.6557021" lon="-73.5736752"/>
      <trkpt lat="45.6560796" lon="-73.5729107"/>
      <trkpt lat="45.6564115" lon="-73.572266"/>
      <trkpt lat="45.6552278" lon="-73.57101"/>
      <trkpt lat="45.6551208" lon="-73.57089"/>
      <trkpt lat="45.655457" lon="-73.5702337"/>
      <trkpt lat="45.6555667" lon="-73.5703513"/>
      <trkpt lat="45.6552278" lon="-73.57101"/>
      <trkpt lat="45.6548876" lon="-73.5716687"/>
      <trkpt lat="45.6547777" lon="-73.5715553"/>
      <trkpt lat="45.6535572" lon="-73.5702584"/>
      <trkpt lat="45.6547777" lon="-73.5715553"/>
      <trkpt lat="45.6551208" lon="-73.57089"/>
      <trkpt lat="45.6552278" lon="-73.57101"/>
      <trkpt lat="45.6564115" lon="-73.572266"/>
      <trkpt lat="45.6577425" lon="-73.5736453"/>
      <trkpt lat="45.658264" lon="-73.5741928"/>
      <trkpt lat="45.6585268" lon="-73.573455"/>
      <trkpt lat="45.6588287" lon="-73.5725612"/>
      <trkpt lat="45.6592818" lon="-73.5713687"/>
      <trkpt lat="45.6593718" lon="-73.5711709"/>
      <trkpt lat="45.6596012" lon="-73.5706859"/>
      <trkpt lat="45.6587833" lon="-73.5698493"/>
      <trkpt lat="45.658051" lon="-73.5691049"/>
      <trkpt lat="45.6577186" lon="-73.5697429"/>
      <trkpt lat="45.658051" lon="-73.5691049"/>
      <trkpt lat="45.6568419" lon="-73.5678721"/>
      <trkpt lat="45.658051" lon="-73.5691049"/>
      <trkpt lat="45.6584189" lon="-73.5683697"/>
      <trkpt lat="45.658051" lon="-73.5691049"/>
      <trkpt lat="45.6587833" lon="-73.5698493"/>
      <trkpt lat="45.6596012" lon="-73.5706859"/>
      <trkpt lat="45.659756" lon="-73.5702122"/>
      <trkpt lat="45.6611609" lon="-73.5663801"/>
      <trkpt lat="45.6605321" lon="-73.5660844"/>
      <trkpt lat="45.6611609" lon="-73.5663801"/>
      <trkpt lat="45.6615723" lon="-73.5654644"/>
      <trkpt lat="45.6611027" lon="-73.5650442"/>
      <trkpt lat="45.6611027" lon="-73.5650442"/>
      <trkpt lat="45.6615723" lon="-73.5654644"/>
      <trkpt lat="45.6620565" lon="-73.5644038"/>
      <trkpt lat="45.6624569" lon="-73.5635226"/>
      <trkpt lat="45.6635421" lon="-73.5614057"/>
      <trkpt lat="45.6628843" lon="-73.5607765"/>
      <trkpt lat="45.6635421" lon="-73.5614057"/>
      <trkpt lat="45.6642339" lon="-73.5603412"/>
      <trkpt lat="45.6631234" lon="-73.5594351"/>
      <trkpt lat="45.6627567" lon="-73.5591589"/>
      <trkpt lat="45.6617323" lon="-73.5584495"/>
      <trkpt lat="45.6616048" lon="-73.5583689"/>
      <trkpt lat="45.6602211" lon="-73.5574059"/>
      <trkpt lat="45.6576123" lon="-73.5555932"/>
      <trkpt lat="45.6547625" lon="-73.5536233"/>
      <trkpt lat="45.6545312" lon="-73.5534746"/>
      <trkpt lat="45.654408" lon="-73.5533954"/>
      <trkpt lat="45.6547295" lon="-73.5524579"/>
      <trkpt lat="45.6554072" lon="-73.5509033"/>
      <trkpt lat="45.6584611" lon="-73.5432986"/>
      <trkpt lat="45.6592327" lon="-73.5418747"/>
      <trkpt lat="45.6577648" lon="-73.5401786"/>
      <trkpt lat="45.6539572" lon="-73.5374045"/>
      <trkpt lat="45.6523755" lon="-73.5363328"/>
      <trkpt lat="45.6499574" lon="-73.5413441"/>
      <trkpt lat="45.6464945" lon="-73.5484808"/>
      <trkpt lat="45.6444619" lon="-73.5525018"/>
      <trkpt lat="45.6464496" lon="-73.5545778"/>
      <trkpt lat="45.6471667" lon="-73.5533188"/>
      <trkpt lat="45.6464496" lon="-73.5545778"/>
      <trkpt lat="45.6444619" lon="-73.5525018"/>
      <trkpt lat="45.6440444" lon="-73.5532533"/>
      <trkpt lat="45.646023" lon="-73.5553426"/>
      <trkpt lat="45.6456109" lon="-73.5561263"/>
      <trkpt lat="45.646023" lon="-73.5553426"/>
      <trkpt lat="45.6440444" lon="-73.5532533"/>
      <trkpt lat="45.643819" lon="-73.5536384"/>
      <trkpt lat="45.6439162" lon="-73.5543615"/>
      <trkpt lat="45.6456109" lon="-73.5561263"/>
      <trkpt lat="45.6447212" lon="-73.5577757"/>
      <trkpt lat="45.6443145" lon="-73.5585702"/>
      <trkpt lat="45.6439731" lon="-73.5592083"/>
      <trkpt lat="45.641782" lon="-73.55689"/>
      <trkpt lat="45.6439731" lon="-73.5592083"/>
      <trkpt lat="45.6413766" lon="-73.5574714"/>
      <trkpt lat="45.6439731" lon="-73.5592083"/>
      <trkpt lat="45.644985" lon="-73.560287"/>
      <trkpt lat="45.6439731" lon="-73.5592083"/>
      <trkpt lat="45.6443145" lon="-73.5585702"/>
      <trkpt lat="45.6421704" lon="-73.5562897"/>
      <trkpt lat="45.6443145" lon="-73.5585702"/>
      <trkpt lat="45.6447212" lon="-73.5577757"/>
      <trkpt lat="45.6456109" lon="-73.5561263"/>
      <trkpt lat="45.646023" lon="-73.5553426"/>
      <trkpt lat="45.6464496" lon="-73.5545778"/>
      <trkpt lat="45.646023" lon="-73.5553426"/>
      <trkpt lat="45.6440444" lon="-73.5532533"/>
      <trkpt lat="45.643819" lon="-73.5536384"/>
      <trkpt lat="45.6436067" lon="-73.5540292"/>
      <trkpt lat="45.6426264" lon="-73.5555847"/>
      <trkpt lat="45.6421704" lon="-73.5562897"/>
      <trkpt lat="45.641782" lon="-73.55689"/>
      <trkpt lat="45.6413766" lon="-73.5574714"/>
      <trkpt lat="45.6397913" lon="-73.559963"/>
      <trkpt lat="45.6363378" lon="-73.5652179"/>
      <trkpt lat="45.636247" lon="-73.565362"/>
      <trkpt lat="45.6284209" lon="-73.5771459"/>
      <trkpt lat="45.6282774" lon="-73.5773812"/>
      <trkpt lat="45.6270392" lon="-73.579202"/>
      <trkpt lat="45.6254087" lon="-73.5815407"/>
      <trkpt lat="45.6262667" lon="-73.5827467"/>
      <trkpt lat="45.6264124" lon="-73.5830371"/>
      <trkpt lat="45.6262667" lon="-73.5827467"/>
      <trkpt lat="45.6264124" lon="-73.5830371"/>
      <trkpt lat="45.6291688" lon="-73.5867681"/>
      <trkpt lat="45.6292429" lon="-73.5866619"/>
      <trkpt lat="45.6297224" lon="-73.5859827"/>
      <trkpt lat="45.6305126" lon="-73.5868337"/>
      <trkpt lat="45.6320984" lon="-73.5871234"/>
      <trkpt lat="45.6328332" lon="-73.5861451"/>
      <trkpt lat="45.633645" lon="-73.5850997"/>
      <trkpt lat="45.6341022" lon="-73.5844664"/>
      <trkpt lat="45.6345919" lon="-73.5838332"/>
      <trkpt lat="45.6357331" lon="-73.5823526"/>
      <trkpt lat="45.6363417" lon="-73.5829827"/>
      <trkpt lat="45.6385084" lon="-73.5801412"/>
      <trkpt lat="45.6412741" lon="-73.5765025"/>
      <trkpt lat="45.6425805" lon="-73.5747875"/>
      <trkpt lat="45.6438006" lon="-73.5731721"/>
      <trkpt lat="45.6438878" lon="-73.5730623"/>
      <trkpt lat="45.6462369" lon="-73.5699593"/>
      <trkpt lat="45.646728" lon="-73.5691834"/>
      <trkpt lat="45.6474242" lon="-73.5678563"/>
      <trkpt lat="45.6477736" lon="-73.5671736"/>
      <trkpt lat="45.6487734" lon="-73.5652301"/>
      <trkpt lat="45.6491032" lon="-73.5645825"/>
      <trkpt lat="45.6493289" lon="-73.5637964"/>
      <trkpt lat="45.649715" lon="-73.5630304"/>
      <trkpt lat="45.6470889" lon="-73.5602843"/>
      <trkpt lat="45.649715" lon="-73.5630304"/>
      <trkpt lat="45.6470889" lon="-73.5602843"/>
      <trkpt lat="45.6476575" lon="-73.5592085"/>
      <trkpt lat="45.6479748" lon="-73.5586077"/>
      <trkpt lat="45.6477266" lon="-73.5583497"/>
      <trkpt lat="45.6456109" lon="-73.5561263"/>
      <trkpt lat="45.6439162" lon="-73.5543615"/>
      <trkpt lat="45.6436067" lon="-73.5540292"/>
      <trkpt lat="45.6426264" lon="-73.5555847"/>
      <trkpt lat="45.6421704" lon="-73.5562897"/>
      <trkpt lat="45.641782" lon="-73.55689"/>
      <trkpt lat="45.6413766" lon="-73.5574714"/>
      <trkpt lat="45.6397913" lon="-73.559963"/>
      <trkpt lat="45.6363378" lon="-73.5652179"/>
      <trkpt lat="45.6371141" lon="-73.5661059"/>
      <trkpt lat="45.6413778" lon="-73.5706657"/>
      <trkpt lat="45.6417864" lon="-73.5710868"/>
      <trkpt lat="45.6424497" lon="-73.5716725"/>
      <trkpt lat="45.6435604" lon="-73.5695388"/>
      <trkpt lat="45.6419053" lon="-73.5677968"/>
      <trkpt lat="45.6425473" lon="-73.5660209"/>
      <trkpt lat="45.6419053" lon="-73.5677968"/>
      <trkpt lat="45.6412671" lon="-73.5688628"/>
      <trkpt lat="45.6419053" lon="-73.5677968"/>
      <trkpt lat="45.6412671" lon="-73.5688628"/>
      <trkpt lat="45.6413778" lon="-73.5706657"/>
      <trkpt lat="45.6417864" lon="-73.5710868"/>
      <trkpt lat="45.6424497" lon="-73.5716725"/>
      <trkpt lat="45.6423806" lon="-73.5718204"/>
      <trkpt lat="45.6424497" lon="-73.5716725"/>
      <trkpt lat="45.6435604" lon="-73.5695388"/>
      <trkpt lat="45.6424497" lon="-73.5716725"/>
      <trkpt lat="45.6438878" lon="-73.5730623"/>
      <trkpt lat="45.6462369" lon="-73.5699593"/>
      <trkpt lat="45.646728" lon="-73.5691834"/>
      <trkpt lat="45.6474242" lon="-73.5678563"/>
      <trkpt lat="45.6477736" lon="-73.5671736"/>
      <trkpt lat="45.6487734" lon="-73.5652301"/>
      <trkpt lat="45.6481573" lon="-73.5645853"/>
      <trkpt lat="45.6463423" lon="-73.5616971"/>
      <trkpt lat="45.6470889" lon="-73.5602843"/>
      <trkpt lat="45.6476575" lon="-73.5592085"/>
      <trkpt lat="45.6470889" lon="-73.5602843"/>
      <trkpt lat="45.6476575" lon="-73.5592085"/>
      <trkpt lat="45.6472362" lon="-73.5587244"/>
      <trkpt lat="45.6476575" lon="-73.5592085"/>
      <trkpt lat="45.6479748" lon="-73.5586077"/>
      <trkpt lat="45.6477266" lon="-73.5583497"/>
      <trkpt lat="45.6456109" lon="-73.5561263"/>
      <trkpt lat="45.6477266" lon="-73.5583497"/>
      <trkpt lat="45.6456109" lon="-73.5561263"/>
      <trkpt lat="45.6439162" lon="-73.5543615"/>
      <trkpt lat="45.6436067" lon="-73.5540292"/>
      <trkpt lat="45.6439162" lon="-73.5543615"/>
      <trkpt lat="45.6436067" lon="-73.5540292"/>
      <trkpt lat="45.6426264" lon="-73.5555847"/>
      <trkpt lat="45.6447212" lon="-73.5577757"/>
      <trkpt lat="45.6426264" lon="-73.5555847"/>
      <trkpt lat="45.6421704" lon="-73.5562897"/>
      <trkpt lat="45.641782" lon="-73.55689"/>
      <trkpt lat="45.6413766" lon="-73.5574714"/>
      <trkpt lat="45.6397913" lon="-73.559963"/>
      <trkpt lat="45.6414012" lon="-73.5617213"/>
      <trkpt lat="45.6397913" lon="-73.559963"/>
      <trkpt lat="45.6363378" lon="-73.5652179"/>
      <trkpt lat="45.6371141" lon="-73.5661059"/>
      <trkpt lat="45.6377929" lon="-73.5672361"/>
      <trkpt lat="45.6371603" lon="-73.5663743"/>
      <trkpt lat="45.6377929" lon="-73.5672361"/>
      <trkpt lat="45.6371603" lon="-73.5663743"/>
      <trkpt lat="45.636247" lon="-73.565362"/>
      <trkpt lat="45.6284209" lon="-73.5771459"/>
      <trkpt lat="45.6282774" lon="-73.5773812"/>
      <trkpt lat="45.6270392" lon="-73.579202"/>
      <trkpt lat="45.6254087" lon="-73.5815407"/>
      <trkpt lat="45.6262667" lon="-73.5827467"/>
      <trkpt lat="45.6264124" lon="-73.5830371"/>
      <trkpt lat="45.6291688" lon="-73.5867681"/>
      <trkpt lat="45.6292429" lon="-73.5866619"/>
      <trkpt lat="45.6297224" lon="-73.5859827"/>
      <trkpt lat="45.6305126" lon="-73.5868337"/>
      <trkpt lat="45.6320984" lon="-73.5871234"/>
      <trkpt lat="45.6328332" lon="-73.5861451"/>
      <trkpt lat="45.633645" lon="-73.5850997"/>
      <trkpt lat="45.6341022" lon="-73.5844664"/>
      <trkpt lat="45.6345919" lon="-73.5838332"/>
      <trkpt lat="45.6357331" lon="-73.5823526"/>
      <trkpt lat="45.6363417" lon="-73.5829827"/>
      <trkpt lat="45.6385084" lon="-73.5801412"/>
      <trkpt lat="45.6378905" lon="-73.5795065"/>
      <trkpt lat="45.6372906" lon="-73.5803012"/>
      <trkpt lat="45.635295" lon="-73.5781996"/>
      <trkpt lat="45.6372906" lon="-73.5803012"/>
      <trkpt lat="45.6378905" lon="-73.5795065"/>
      <trkpt lat="45.6391552" lon="-73.5778328"/>
      <trkpt lat="45.6373187" lon="-73.5789031"/>
      <trkpt lat="45.6378905" lon="-73.5795065"/>
      <trkpt lat="45.6373187" lon="-73.5789031"/>
      <trkpt lat="45.6391552" lon="-73.5778328"/>
      <trkpt lat="45.6396712" lon="-73.577156"/>
      <trkpt lat="45.6384638" lon="-73.5758911"/>
      <trkpt lat="45.6379994" lon="-73.5766352"/>
      <trkpt lat="45.6374671" lon="-73.5759842"/>
      <trkpt lat="45.6368775" lon="-73.575368"/>
      <trkpt lat="45.6374671" lon="-73.5759842"/>
      <trkpt lat="45.6379994" lon="-73.5766352"/>
      <trkpt lat="45.6367575" lon="-73.5783158"/>
      <trkpt lat="45.6373187" lon="-73.5789031"/>
      <trkpt lat="45.6367575" lon="-73.5783158"/>
      <trkpt lat="45.6358834" lon="-73.5774021"/>
      <trkpt lat="45.6350886" lon="-73.5765742"/>
      <trkpt lat="45.6331478" lon="-73.5777825"/>
      <trkpt lat="45.6350886" lon="-73.5765742"/>
      <trkpt lat="45.6337479" lon="-73.578372"/>
      <trkpt lat="45.6350886" lon="-73.5765742"/>
      <trkpt lat="45.6358834" lon="-73.5774021"/>
      <trkpt lat="45.635295" lon="-73.5781996"/>
      <trkpt lat="45.6347484" lon="-73.5789265"/>
      <trkpt lat="45.635295" lon="-73.5781996"/>
      <trkpt lat="45.6358834" lon="-73.5774021"/>
      <trkpt lat="45.6367575" lon="-73.5783158"/>
      <trkpt lat="45.6379994" lon="-73.5766352"/>
      <trkpt lat="45.6384638" lon="-73.5758911"/>
      <trkpt lat="45.6369146" lon="-73.574255"/>
      <trkpt lat="45.6364334" lon="-73.5748929"/>
      <trkpt lat="45.6368775" lon="-73.575368"/>
      <trkpt lat="45.6364334" lon="-73.5748929"/>
      <trkpt lat="45.6369146" lon="-73.574255"/>
      <trkpt lat="45.6384638" lon="-73.5758911"/>
      <trkpt lat="45.6396712" lon="-73.577156"/>
      <trkpt lat="45.6401446" lon="-73.5765333"/>
      <trkpt lat="45.6406587" lon="-73.575862"/>
      <trkpt lat="45.639257" lon="-73.5743712"/>
      <trkpt lat="45.6397276" lon="-73.5734521"/>
      <trkpt lat="45.6402722" lon="-73.5724045"/>
      <trkpt lat="45.6407199" lon="-73.571574"/>
      <trkpt lat="45.6411805" lon="-73.5706888"/>
      <trkpt lat="45.641136" lon="-73.5706399"/>
      <trkpt lat="45.6371603" lon="-73.5663743"/>
      <trkpt lat="45.636247" lon="-73.565362"/>
      <trkpt lat="45.6284209" lon="-73.5771459"/>
      <trkpt lat="45.6282774" lon="-73.5773812"/>
      <trkpt lat="45.6270392" lon="-73.579202"/>
      <trkpt lat="45.6254087" lon="-73.5815407"/>
      <trkpt lat="45.6262667" lon="-73.5827467"/>
      <trkpt lat="45.6264727" lon="-73.5828021"/>
      <trkpt lat="45.6281978" lon="-73.5804268"/>
      <trkpt lat="45.6264727" lon="-73.5828021"/>
      <trkpt lat="45.6281978" lon="-73.5804268"/>
      <trkpt lat="45.6270392" lon="-73.579202"/>
      <trkpt lat="45.6281978" lon="-73.5804268"/>
      <trkpt lat="45.6288256" lon="-73.5794685"/>
      <trkpt lat="45.6288256" lon="-73.5794685"/>
      <trkpt lat="45.6281978" lon="-73.5804268"/>
      <trkpt lat="45.6288785" lon="-73.5811463"/>
      <trkpt lat="45.6281978" lon="-73.5804268"/>
      <trkpt lat="45.6270392" lon="-73.579202"/>
      <trkpt lat="45.6254087" lon="-73.5815407"/>
      <trkpt lat="45.6262667" lon="-73.5827467"/>
      <trkpt lat="45.6264124" lon="-73.5830371"/>
      <trkpt lat="45.6291688" lon="-73.5867681"/>
      <trkpt lat="45.6292429" lon="-73.5866619"/>
      <trkpt lat="45.6297224" lon="-73.5859827"/>
      <trkpt lat="45.6305126" lon="-73.5868337"/>
      <trkpt lat="45.6320984" lon="-73.5871234"/>
      <trkpt lat="45.6328332" lon="-73.5861451"/>
      <trkpt lat="45.633645" lon="-73.5850997"/>
      <trkpt lat="45.6341022" lon="-73.5844664"/>
      <trkpt lat="45.6345919" lon="-73.5838332"/>
      <trkpt lat="45.6357331" lon="-73.5823526"/>
      <trkpt lat="45.6363417" lon="-73.5829827"/>
      <trkpt lat="45.6385084" lon="-73.5801412"/>
      <trkpt lat="45.6385947" lon="-73.5802261"/>
      <trkpt lat="45.6364276" lon="-73.5830685"/>
      <trkpt lat="45.6363417" lon="-73.5829827"/>
      <trkpt lat="45.6385084" lon="-73.5801412"/>
      <trkpt lat="45.6385947" lon="-73.5802261"/>
      <trkpt lat="45.6392005" lon="-73.58087"/>
      <trkpt lat="45.6398106" lon="-73.5800625"/>
      <trkpt lat="45.6392005" lon="-73.58087"/>
      <trkpt lat="45.6397145" lon="-73.581415"/>
      <trkpt lat="45.6392005" lon="-73.58087"/>
      <trkpt lat="45.6383003" lon="-73.5820486"/>
      <trkpt lat="45.6392005" lon="-73.58087"/>
      <trkpt lat="45.6397145" lon="-73.581415"/>
      <trkpt lat="45.640251" lon="-73.5819722"/>
      <trkpt lat="45.6397145" lon="-73.581415"/>
      <trkpt lat="45.6383003" lon="-73.5820486"/>
      <trkpt lat="45.6377954" lon="-73.5827158"/>
      <trkpt lat="45.6383003" lon="-73.5820486"/>
      <trkpt lat="45.6397145" lon="-73.581415"/>
      <trkpt lat="45.640251" lon="-73.5819722"/>
      <trkpt lat="45.6408276" lon="-73.5825799"/>
      <trkpt lat="45.639158" lon="-73.5841297"/>
      <trkpt lat="45.640251" lon="-73.5819722"/>
      <trkpt lat="45.639158" lon="-73.5841297"/>
      <trkpt lat="45.6377954" lon="-73.5827158"/>
      <trkpt lat="45.6370393" lon="-73.5837055"/>
      <trkpt lat="45.6377954" lon="-73.5827158"/>
      <trkpt lat="45.639158" lon="-73.5841297"/>
      <trkpt lat="45.6408276" lon="-73.5825799"/>
      <trkpt lat="45.6413092" lon="-73.5816228"/>
      <trkpt lat="45.6398106" lon="-73.5800625"/>
      <trkpt lat="45.6404244" lon="-73.5792535"/>
      <trkpt lat="45.6409726" lon="-73.5785357"/>
      <trkpt lat="45.6414417" lon="-73.5779167"/>
      <trkpt lat="45.6419586" lon="-73.5772319"/>
      <trkpt lat="45.6424687" lon="-73.5765635"/>
      <trkpt lat="45.6428358" lon="-73.576076"/>
      <trkpt lat="45.6432595" lon="-73.5755175"/>
      <trkpt lat="45.6450708" lon="-73.5774467"/>
      <trkpt lat="45.6447363" lon="-73.5780932"/>
      <trkpt lat="45.6438088" lon="-73.5771191"/>
      <trkpt lat="45.6447363" lon="-73.5780932"/>
      <trkpt lat="45.6452643" lon="-73.578662"/>
      <trkpt lat="45.6465914" lon="-73.580076"/>
      <trkpt lat="45.646187" lon="-73.5805544"/>
      <trkpt lat="45.6465914" lon="-73.580076"/>
      <trkpt lat="45.6452643" lon="-73.578662"/>
      <trkpt lat="45.6447363" lon="-73.5780932"/>
      <trkpt lat="45.6444284" lon="-73.5786717"/>
      <trkpt lat="45.6447363" lon="-73.5780932"/>
      <trkpt lat="45.6450708" lon="-73.5774467"/>
      <trkpt lat="45.6474101" lon="-73.5799494"/>
      <trkpt lat="45.6477868" lon="-73.5792437"/>
      <trkpt lat="45.6484479" lon="-73.5799593"/>
      <trkpt lat="45.6492642" lon="-73.5790152"/>
      <trkpt lat="45.648432" lon="-73.5781294"/>
      <trkpt lat="45.6471187" lon="-73.5767181"/>
      <trkpt lat="45.6471871" lon="-73.5765873"/>
      <trkpt lat="45.6485011" lon="-73.5779858"/>
      <trkpt lat="45.648432" lon="-73.5781294"/>
      <trkpt lat="45.6485011" lon="-73.5779858"/>
      <trkpt lat="45.6493564" lon="-73.5789121"/>
      <trkpt lat="45.6501284" lon="-73.5779798"/>
      <trkpt lat="45.6502031" lon="-73.5781375"/>
      <trkpt lat="45.6501284" lon="-73.5779798"/>
      <trkpt lat="45.650831" lon="-73.5771759"/>
      <trkpt lat="45.6517479" lon="-73.5760905"/>
      <trkpt lat="45.65196" lon="-73.5758378"/>
      <trkpt lat="45.6524348" lon="-73.5752836"/>
      <trkpt lat="45.6525222" lon="-73.5754275"/>
      <trkpt lat="45.6524348" lon="-73.5752836"/>
      <trkpt lat="45.6522171" lon="-73.5749042"/>
      <trkpt lat="45.6524348" lon="-73.5752836"/>
      <trkpt lat="45.6530067" lon="-73.5746072"/>
      <trkpt lat="45.6543998" lon="-73.5722811"/>
      <trkpt lat="45.6531739" lon="-73.5710012"/>
      <trkpt lat="45.6527547" lon="-73.5718332"/>
      <trkpt lat="45.6518915" lon="-73.5734818"/>
      <trkpt lat="45.6527547" lon="-73.5718332"/>
      <trkpt lat="45.6503622" lon="-73.56931"/>
      <trkpt lat="45.6501548" lon="-73.5696985"/>
      <trkpt lat="45.6500631" lon="-73.5715515"/>
      <trkpt lat="45.6523221" lon="-73.5726495"/>
      <trkpt lat="45.6500631" lon="-73.5715515"/>
      <trkpt lat="45.6518915" lon="-73.5734818"/>
      <trkpt lat="45.6500631" lon="-73.5715515"/>
      <trkpt lat="45.6501548" lon="-73.5696985"/>
      <trkpt lat="45.6495234" lon="-73.5690318"/>
      <trkpt lat="45.648972" lon="-73.5684522"/>
      <trkpt lat="45.6484522" lon="-73.5678929"/>
      <trkpt lat="45.648972" lon="-73.5684522"/>
      <trkpt lat="45.6495234" lon="-73.5690318"/>
      <trkpt lat="45.6488657" lon="-73.5702756"/>
      <trkpt lat="45.648972" lon="-73.5684522"/>
      <trkpt lat="45.6488657" lon="-73.5702756"/>
      <trkpt lat="45.6484704" lon="-73.5710375"/>
      <trkpt lat="45.6474008" lon="-73.5699139"/>
      <trkpt lat="45.646952" lon="-73.570652"/>
      <trkpt lat="45.6474008" lon="-73.5699139"/>
      <trkpt lat="45.6484522" lon="-73.5678929"/>
      <trkpt lat="45.6494532" lon="-73.5659438"/>
      <trkpt lat="45.6511837" lon="-73.5677627"/>
      <trkpt lat="45.6535572" lon="-73.5702584"/>
      <trkpt lat="45.6531739" lon="-73.5710012"/>
      <trkpt lat="45.6535572" lon="-73.5702584"/>
      <trkpt lat="45.6511837" lon="-73.5677627"/>
      <trkpt lat="45.6507997" lon="-73.5684984"/>
      <trkpt lat="45.6503622" lon="-73.56931"/>
      <trkpt lat="45.6507997" lon="-73.5684984"/>
      <trkpt lat="45.6531739" lon="-73.5710012"/>
      <trkpt lat="45.6507997" lon="-73.5684984"/>
      <trkpt lat="45.6511837" lon="-73.5677627"/>
      <trkpt lat="45.6515213" lon="-73.567112"/>
      <trkpt lat="45.65187" lon="-73.5664759"/>
      <trkpt lat="45.6522691" lon="-73.5656966"/>
      <trkpt lat="45.65187" lon="-73.5664759"/>
      <trkpt lat="45.6495227" lon="-73.5639917"/>
      <trkpt lat="45.649196" lon="-73.5646594"/>
      <trkpt lat="45.6515213" lon="-73.567112"/>
      <trkpt lat="45.649196" lon="-73.5646594"/>
      <trkpt lat="45.6488557" lon="-73.5653149"/>
      <trkpt lat="45.6478528" lon="-73.5672623"/>
      <trkpt lat="45.6484522" lon="-73.5678929"/>
      <trkpt lat="45.6478528" lon="-73.5672623"/>
      <trkpt lat="45.6477736" lon="-73.5671736"/>
      <trkpt lat="45.6478528" lon="-73.5672623"/>
      <trkpt lat="45.6468144" lon="-73.5692721"/>
      <trkpt lat="45.646728" lon="-73.5691834"/>
      <trkpt lat="45.6468144" lon="-73.5692721"/>
      <trkpt lat="45.6474008" lon="-73.5699139"/>
      <trkpt lat="45.6484704" lon="-73.5710375"/>
      <trkpt lat="45.6480367" lon="-73.571822"/>
      <trkpt lat="45.6476211" lon="-73.5726347"/>
      <trkpt lat="45.646952" lon="-73.570652"/>
      <trkpt lat="45.6480367" lon="-73.571822"/>
      <trkpt lat="45.646952" lon="-73.570652"/>
      <trkpt lat="45.6476211" lon="-73.5726347"/>
      <trkpt lat="45.6469283" lon="-73.5739882"/>
      <trkpt lat="45.6475081" lon="-73.5745979"/>
      <trkpt lat="45.6469283" lon="-73.5739882"/>
      <trkpt lat="45.6465832" lon="-73.574643"/>
      <trkpt lat="45.645984" lon="-73.5740183"/>
      <trkpt lat="45.645984" lon="-73.5740183"/>
      <trkpt lat="45.6465832" lon="-73.574643"/>
      <trkpt lat="45.6461427" lon="-73.5754703"/>
      <trkpt lat="45.6465832" lon="-73.574643"/>
      <trkpt lat="45.6469283" lon="-73.5739882"/>
      <trkpt lat="45.6476211" lon="-73.5726347"/>
    </trkseg>
  </trk>
</gpx>
