{
"type": "FeatureCollection",
"name": "tous_quartiers_zones",
"crs": { "type": "name", "properties": { "name": "urn:ogc:def:crs:OGC:1.3:CRS84" } },
"features": [
{ "type": "Feature", "properties": { "display_name": "Outremont, Montreal, Urban agglomeration of Montreal, Montreal (administrative region), Quebec, Canada", "quartier": "outremont" }, "geometry": { "type": "Polygon", "coordinates": [ [ [ -73.6267238, 45.5165802 ], [ -73.6176554, 45.512506 ], [ -73.6188789, 45.5111335 ], [ -73.6169176, 45.5102798 ], [ -73.6178926, 45.509174 ], [ -73.6160406, 45.5083294 ], [ -73.6189511, 45.5051268 ], [ -73.6182356, 45.5047201 ], [ -73.6130492, 45.5104458 ], [ -73.6097772, 45.5089891 ], [ -73.6063926, 45.5074822 ], [ -73.6061902, 45.5070057 ], [ -73.6033158, 45.505652 ], [ -73.6022505, 45.5068087 ], [ -73.6021617, 45.5067731 ], [ -73.6021433, 45.5067653 ], [ -73.6021229, 45.5067567 ], [ -73.6014086, 45.5064456 ], [ -73.6003457, 45.505939 ], [ -73.599281, 45.5054741 ], [ -73.5990019, 45.505343 ], [ -73.5987179, 45.5052097 ], [ -73.5982246, 45.5049863 ], [ -73.5977935, 45.5047896 ], [ -73.5971486, 45.5044809 ], [ -73.5970411, 45.5044286 ], [ -73.5960059, 45.5039745 ], [ -73.5958451, 45.503904 ], [ -73.5956117, 45.5040629 ], [ -73.5914615, 45.5080505 ], [ -73.5915107, 45.5080813 ], [ -73.5942088, 45.509773 ], [ -73.5935084, 45.5105314 ], [ -73.5943697, 45.5109033 ], [ -73.5949709, 45.5109071 ], [ -73.5956937, 45.5111262 ], [ -73.5960864, 45.5112856 ], [ -73.5963869, 45.5113995 ], [ -73.5966624, 45.5115483 ], [ -73.5971211, 45.5117089 ], [ -73.5970518, 45.5125866 ], [ -73.5970163, 45.5129743 ], [ -73.5974268, 45.5131422 ], [ -73.5992999, 45.5128271 ], [ -73.5991479, 45.5129898 ], [ -73.5989387, 45.5131668 ], [ -73.5983813, 45.5137219 ], [ -73.5978018, 45.5142129 ], [ -73.597386, 45.5144614 ], [ -73.5971131, 45.5145491 ], [ -73.5964608, 45.5146213 ], [ -73.5949502, 45.5146393 ], [ -73.5932851, 45.5145731 ], [ -73.5924611, 45.5145371 ], [ -73.5919118, 45.5145371 ], [ -73.5914655, 45.5146032 ], [ -73.5902655, 45.5157881 ], [ -73.5908988, 45.5160891 ], [ -73.591215, 45.5161836 ], [ -73.5914602, 45.5162677 ], [ -73.5918681, 45.5164844 ], [ -73.5932402, 45.517134 ], [ -73.5940481, 45.5174682 ], [ -73.5941305, 45.5175023 ], [ -73.5943038, 45.517574 ], [ -73.5946587, 45.5177207 ], [ -73.5946238, 45.5177542 ], [ -73.5949591, 45.5178896 ], [ -73.5952668, 45.5180138 ], [ -73.5953823, 45.5180655 ], [ -73.5958783, 45.5182758 ], [ -73.5959796, 45.5183195 ], [ -73.5962591, 45.518444 ], [ -73.5965457, 45.5185698 ], [ -73.5965763, 45.5185832 ], [ -73.5966936, 45.5186331 ], [ -73.5966188, 45.5187197 ], [ -73.5967288, 45.5187696 ], [ -73.5967546, 45.518781 ], [ -73.5967974, 45.5187999 ], [ -73.597079, 45.5189241 ], [ -73.6028568, 45.5214734 ], [ -73.6060215, 45.5228807 ], [ -73.6108413, 45.525022 ], [ -73.6109237, 45.5250574 ], [ -73.6109674, 45.5250763 ], [ -73.6121188, 45.5255732 ], [ -73.6124648, 45.5257221 ], [ -73.6164962, 45.5274599 ], [ -73.6169256, 45.5276177 ], [ -73.6170765, 45.5276672 ], [ -73.6171391, 45.5275358 ], [ -73.6172175, 45.5273963 ], [ -73.6172904, 45.5272755 ], [ -73.6173675, 45.5271591 ], [ -73.6174319, 45.5270781 ], [ -73.6175047, 45.5269954 ], [ -73.6175942, 45.5268892 ], [ -73.6176851, 45.526787 ], [ -73.6177942, 45.5266662 ], [ -73.6180068, 45.5264286 ], [ -73.6181874, 45.5262264 ], [ -73.6187072, 45.5256481 ], [ -73.6192197, 45.5250815 ], [ -73.6195902, 45.5246682 ], [ -73.6201249, 45.5240738 ], [ -73.620471, 45.5236915 ], [ -73.6208122, 45.5233104 ], [ -73.6208619, 45.5233319 ], [ -73.6209354, 45.5232562 ], [ -73.6213207, 45.5228323 ], [ -73.622124, 45.5219991 ], [ -73.6229037, 45.5210755 ], [ -73.6245552, 45.5189073 ], [ -73.6254245, 45.5184025 ], [ -73.6257045, 45.5180042 ], [ -73.6261505, 45.5173842 ], [ -73.6267238, 45.5165802 ] ] ] } },
{ "type": "Feature", "properties": { "display_name": "Verdun, Montreal, Urban agglomeration of Montreal, Montreal (administrative region), Quebec, Canada", "quartier": "verdun" }, "geometry": { "type": "Polygon", "coordinates": [ [ [ -73.599432, 45.4375005 ], [ -73.599329, 45.4374922 ], [ -73.5989985, 45.437438 ], [ -73.5979839, 45.4372488 ], [ -73.5978644, 45.4372285 ], [ -73.5861344, 45.4353741 ], [ -73.5858596, 45.4353309 ], [ -73.5855908, 45.4352885 ], [ -73.5838274, 45.4350097 ], [ -73.5397979, 45.4280493 ], [ -73.5393355, 45.4283757 ], [ -73.5388078, 45.4287368 ], [ -73.5363079, 45.4306813 ], [ -73.5348078, 45.4319591 ], [ -73.5334743, 45.4331535 ], [ -73.5312521, 45.4354312 ], [ -73.5296965, 45.4371535 ], [ -73.5283631, 45.4388757 ], [ -73.5273907, 45.4401535 ], [ -73.5260296, 45.4422924 ], [ -73.5241687, 45.4457646 ], [ -73.5232241, 45.4478757 ], [ -73.5226132, 45.4495146 ], [ -73.5217129, 45.4521066 ], [ -73.520583, 45.4556878 ], [ -73.5197273, 45.4590996 ], [ -73.51936, 45.4608933 ], [ -73.5191102, 45.4623084 ], [ -73.5187969, 45.4646167 ], [ -73.5187971, 45.4653387 ], [ -73.5188441, 45.465899 ], [ -73.5191615, 45.4671717 ], [ -73.519647, 45.4686856 ], [ -73.5205851, 45.4709162 ], [ -73.5216741, 45.4732446 ], [ -73.5297152, 45.475068 ], [ -73.534184, 45.476081 ], [ -73.535551, 45.476354 ], [ -73.536838, 45.476504 ], [ -73.537774, 45.476594 ], [ -73.538445, 45.476594 ], [ -73.538909, 45.476535 ], [ -73.539167, 45.47647 ], [ -73.540931, 45.475866 ], [ -73.54206, 45.475346 ], [ -73.546021, 45.473118 ], [ -73.5484786, 45.4713793 ], [ -73.549262, 45.470825 ], [ -73.550037, 45.470267 ], [ -73.550878, 45.469758 ], [ -73.55199, 45.469207 ], [ -73.5528872, 45.4689082 ], [ -73.5538197, 45.4686686 ], [ -73.5565612, 45.4696504 ], [ -73.5587855, 45.4705292 ], [ -73.5604418, 45.4711497 ], [ -73.5607005, 45.471244 ], [ -73.5608632, 45.4713033 ], [ -73.561503, 45.4715464 ], [ -73.562198, 45.4718091 ], [ -73.5628927, 45.4720745 ], [ -73.5629569, 45.4720989 ], [ -73.5630015, 45.4721158 ], [ -73.5630924, 45.4721503 ], [ -73.562929, 45.4723698 ], [ -73.5631276, 45.4724321 ], [ -73.5637703, 45.4726497 ], [ -73.5640159, 45.4727416 ], [ -73.5642878, 45.4728449 ], [ -73.5646726, 45.4729933 ], [ -73.565037, 45.4731325 ], [ -73.5670022, 45.4738867 ], [ -73.5681575, 45.4743316 ], [ -73.5684615, 45.4744414 ], [ -73.5687701, 45.4745482 ], [ -73.5700885, 45.4746064 ], [ -73.5701923, 45.4746084 ], [ -73.5707163, 45.4745842 ], [ -73.5711515, 45.4745391 ], [ -73.5716282, 45.4744633 ], [ -73.572227, 45.4743234 ], [ -73.5723006, 45.4743062 ], [ -73.5721098, 45.4738188 ], [ -73.5720235, 45.4736077 ], [ -73.5717222, 45.472848 ], [ -73.5713992, 45.4725379 ], [ -73.5717189, 45.472298 ], [ -73.5721509, 45.4674639 ], [ -73.5721622, 45.4673238 ], [ -73.572228, 45.4666065 ], [ -73.5722313, 45.4665851 ], [ -73.5722371, 45.466564 ], [ -73.5722456, 45.4665433 ], [ -73.5722566, 45.4665232 ], [ -73.5722701, 45.4665039 ], [ -73.5722859, 45.4664855 ], [ -73.5723039, 45.4664681 ], [ -73.572324, 45.4664519 ], [ -73.572346, 45.466437 ], [ -73.5723698, 45.4664234 ], [ -73.5723952, 45.4664114 ], [ -73.5724219, 45.466401 ], [ -73.5724499, 45.4663923 ], [ -73.5724788, 45.4663853 ], [ -73.5725085, 45.4663801 ], [ -73.5725387, 45.4663768 ], [ -73.5725692, 45.4663753 ], [ -73.5725997, 45.4663757 ], [ -73.5760759, 45.4665272 ], [ -73.5759695, 45.4677302 ], [ -73.5774575, 45.4677954 ], [ -73.5776956, 45.4675311 ], [ -73.5787638, 45.4675778 ], [ -73.5788269, 45.4668624 ], [ -73.5788605, 45.4664834 ], [ -73.5794935, 45.466511 ], [ -73.579752, 45.4665222 ], [ -73.5801246, 45.4665384 ], [ -73.5807271, 45.4665646 ], [ -73.5807879, 45.4663344 ], [ -73.5808379, 45.4661229 ], [ -73.5808827, 45.4659107 ], [ -73.5809221, 45.465698 ], [ -73.5809629, 45.4654558 ], [ -73.580952, 45.4653154 ], [ -73.5809346, 45.4651593 ], [ -73.5809288, 45.4650102 ], [ -73.5809386, 45.464808 ], [ -73.5809898, 45.46431 ], [ -73.5810429, 45.4638302 ], [ -73.5810776, 45.4634952 ], [ -73.5810717, 45.4633125 ], [ -73.5810907, 45.4631267 ], [ -73.5811065, 45.4629629 ], [ -73.5811057, 45.4628405 ], [ -73.5811012, 45.462736 ], [ -73.5810851, 45.462636 ], [ -73.58093, 45.4626164 ], [ -73.5808803, 45.4624964 ], [ -73.5808537, 45.4624256 ], [ -73.5805945, 45.4615131 ], [ -73.5804253, 45.4607609 ], [ -73.5803984, 45.4605943 ], [ -73.5803552, 45.4601437 ], [ -73.5803424, 45.4600071 ], [ -73.5803289, 45.45987 ], [ -73.5803034, 45.4592918 ], [ -73.5803353, 45.4589801 ], [ -73.5804076, 45.4582444 ], [ -73.5806503, 45.4572698 ], [ -73.5806572, 45.4572451 ], [ -73.5806641, 45.4572205 ], [ -73.5806712, 45.457196 ], [ -73.5806783, 45.4571714 ], [ -73.5806856, 45.4571469 ], [ -73.5806929, 45.4571223 ], [ -73.5807004, 45.4570978 ], [ -73.5807079, 45.4570733 ], [ -73.5807155, 45.4570488 ], [ -73.5807233, 45.4570243 ], [ -73.5807311, 45.4569998 ], [ -73.580739, 45.4569754 ], [ -73.580747, 45.456951 ], [ -73.5807551, 45.4569266 ], [ -73.5807633, 45.4569022 ], [ -73.5807716, 45.4568778 ], [ -73.58078, 45.4568534 ], [ -73.5807885, 45.456829 ], [ -73.5807971, 45.4568047 ], [ -73.5808058, 45.4567804 ], [ -73.5808146, 45.4567561 ], [ -73.5808235, 45.4567318 ], [ -73.5808324, 45.4567075 ], [ -73.5808415, 45.4566833 ], [ -73.5808507, 45.4566591 ], [ -73.5808599, 45.4566348 ], [ -73.5808693, 45.4566106 ], [ -73.5808787, 45.4565865 ], [ -73.5808883, 45.4565623 ], [ -73.5808979, 45.4565382 ], [ -73.5809076, 45.456514 ], [ -73.5809175, 45.4564899 ], [ -73.5809274, 45.4564659 ], [ -73.5809374, 45.4564418 ], [ -73.5809475, 45.4564178 ], [ -73.5809577, 45.4563937 ], [ -73.580968, 45.4563697 ], [ -73.5809784, 45.4563457 ], [ -73.5809889, 45.4563218 ], [ -73.5809995, 45.4562978 ], [ -73.5810102, 45.4562739 ], [ -73.5810209, 45.45625 ], [ -73.5810304, 45.4562293 ], [ -73.5810399, 45.4562086 ], [ -73.5810494, 45.4561879 ], [ -73.5810591, 45.4561672 ], [ -73.5810688, 45.4561465 ], [ -73.5810786, 45.4561258 ], [ -73.5810884, 45.4561052 ], [ -73.5810983, 45.4560846 ], [ -73.5811121, 45.4560575 ], [ -73.5811261, 45.4560305 ], [ -73.5811401, 45.4560034 ], [ -73.5811542, 45.4559764 ], [ -73.5811684, 45.4559495 ], [ -73.5811826, 45.4559225 ], [ -73.581197, 45.4558956 ], [ -73.5812115, 45.4558687 ], [ -73.5812261, 45.4558418 ], [ -73.5812407, 45.455815 ], [ -73.5812555, 45.4557882 ], [ -73.5812704, 45.4557614 ], [ -73.5812853, 45.4557346 ], [ -73.5813004, 45.4557078 ], [ -73.5813155, 45.4556811 ], [ -73.5813307, 45.4556544 ], [ -73.5813461, 45.4556278 ], [ -73.5813615, 45.4556011 ], [ -73.581377, 45.4555745 ], [ -73.5813926, 45.4555479 ], [ -73.5814083, 45.4555214 ], [ -73.5814241, 45.4554949 ], [ -73.58144, 45.4554684 ], [ -73.581456, 45.4554419 ], [ -73.5814721, 45.4554154 ], [ -73.5814882, 45.455389 ], [ -73.5815045, 45.4553626 ], [ -73.5815208, 45.4553363 ], [ -73.5815373, 45.4553099 ], [ -73.5815538, 45.4552836 ], [ -73.5815705, 45.4552574 ], [ -73.5815872, 45.4552311 ], [ -73.581604, 45.4552049 ], [ -73.5816209, 45.4551787 ], [ -73.5816379, 45.4551526 ], [ -73.581655, 45.4551264 ], [ -73.5816722, 45.4551003 ], [ -73.5816895, 45.4550743 ], [ -73.5817068, 45.4550482 ], [ -73.5817243, 45.4550222 ], [ -73.5817419, 45.4549963 ], [ -73.5817595, 45.4549703 ], [ -73.5817772, 45.4549444 ], [ -73.5817951, 45.4549185 ], [ -73.581813, 45.4548927 ], [ -73.581831, 45.4548668 ], [ -73.5818491, 45.454841 ], [ -73.5818673, 45.4548153 ], [ -73.5818856, 45.4547896 ], [ -73.5819039, 45.4547639 ], [ -73.5819224, 45.4547382 ], [ -73.5819409, 45.4547126 ], [ -73.5819596, 45.454687 ], [ -73.5819783, 45.4546614 ], [ -73.5819971, 45.4546359 ], [ -73.582016, 45.4546104 ], [ -73.5820351, 45.4545849 ], [ -73.5820541, 45.4545595 ], [ -73.5820733, 45.4545341 ], [ -73.5820926, 45.4545087 ], [ -73.582112, 45.4544834 ], [ -73.5821314, 45.4544581 ], [ -73.5821509, 45.4544328 ], [ -73.5821706, 45.4544076 ], [ -73.5821903, 45.4543824 ], [ -73.5822101, 45.4543572 ], [ -73.58223, 45.4543321 ], [ -73.58225, 45.454307 ], [ -73.58227, 45.454282 ], [ -73.5822902, 45.4542569 ], [ -73.5823104, 45.454232 ], [ -73.5823308, 45.454207 ], [ -73.5823512, 45.4541821 ], [ -73.5823717, 45.4541572 ], [ -73.5823923, 45.4541324 ], [ -73.582413, 45.4541076 ], [ -73.5824337, 45.4540828 ], [ -73.5824546, 45.454058 ], [ -73.5824755, 45.4540333 ], [ -73.5824966, 45.4540087 ], [ -73.5825177, 45.4539841 ], [ -73.5825389, 45.4539595 ], [ -73.5825602, 45.4539349 ], [ -73.5825816, 45.4539104 ], [ -73.582603, 45.4538859 ], [ -73.5826246, 45.4538615 ], [ -73.5826462, 45.4538371 ], [ -73.5826679, 45.4538127 ], [ -73.5826897, 45.4537884 ], [ -73.5827116, 45.4537641 ], [ -73.5827336, 45.4537399 ], [ -73.5827557, 45.4537156 ], [ -73.5827778, 45.4536915 ], [ -73.5828001, 45.4536673 ], [ -73.5828224, 45.4536432 ], [ -73.5828448, 45.4536192 ], [ -73.5828673, 45.4535952 ], [ -73.5828898, 45.4535712 ], [ -73.5829125, 45.4535472 ], [ -73.5829352, 45.4535233 ], [ -73.5829581, 45.4534995 ], [ -73.582981, 45.4534757 ], [ -73.583004, 45.4534519 ], [ -73.583027, 45.4534282 ], [ -73.5830502, 45.4534045 ], [ -73.5830735, 45.4533808 ], [ -73.5830968, 45.4533572 ], [ -73.5832479, 45.4532113 ], [ -73.5835121, 45.4529563 ], [ -73.5835834, 45.4528965 ], [ -73.5839296, 45.4526221 ], [ -73.584302, 45.4523477 ], [ -73.5846973, 45.4520733 ], [ -73.5851055, 45.4517989 ], [ -73.5855165, 45.4515245 ], [ -73.5859313, 45.45125 ], [ -73.5863286, 45.4509756 ], [ -73.5867265, 45.4506718 ], [ -73.5869984, 45.4504269 ], [ -73.5875167, 45.4499635 ], [ -73.5879448, 45.4495574 ], [ -73.5889707, 45.4485062 ], [ -73.5892062, 45.4482319 ], [ -73.5893475, 45.4480376 ], [ -73.5894002, 45.4479652 ], [ -73.5897417, 45.4479139 ], [ -73.5903587, 45.4478212 ], [ -73.5904698, 45.4478045 ], [ -73.5905385, 45.4477942 ], [ -73.5905669, 45.4477566 ], [ -73.5907544, 45.4475089 ], [ -73.5909319, 45.4472745 ], [ -73.5910249, 45.4471516 ], [ -73.5914742, 45.4465576 ], [ -73.5917612, 45.4461725 ], [ -73.5921929, 45.4457283 ], [ -73.5924948, 45.445412 ], [ -73.5927177, 45.4451812 ], [ -73.5940264, 45.4438428 ], [ -73.594359, 45.4435062 ], [ -73.5945925, 45.4432549 ], [ -73.599432, 45.4375005 ] ] ] } },
{ "type": "Feature", "properties": { "display_name": "Anjou, Montreal, Urban agglomeration of Montreal, Montreal (administrative region), Quebec, Canada", "quartier": "anjou" }, "geometry": { "type": "Polygon", "coordinates": [ [ [ -73.6030852, 45.6111439 ], [ -73.5891015, 45.6050316 ], [ -73.5772116, 45.599834 ], [ -73.5772825, 45.5997101 ], [ -73.5774137, 45.5994969 ], [ -73.5775312, 45.5993435 ], [ -73.577428, 45.5992977 ], [ -73.5773328, 45.5992648 ], [ -73.5772607, 45.5992469 ], [ -73.5771983, 45.5992357 ], [ -73.5771319, 45.5992273 ], [ -73.5770677, 45.5992245 ], [ -73.5769989, 45.5992243 ], [ -73.5769026, 45.5992302 ], [ -73.5767881, 45.5992293 ], [ -73.5766756, 45.5992244 ], [ -73.57658, 45.599217 ], [ -73.5764549, 45.5992031 ], [ -73.5763178, 45.5991812 ], [ -73.5761882, 45.599152 ], [ -73.5760251, 45.5991063 ], [ -73.5758451, 45.5990488 ], [ -73.5756918, 45.5989943 ], [ -73.575521, 45.598923 ], [ -73.5753848, 45.5988484 ], [ -73.5753471, 45.5988481 ], [ -73.5753078, 45.5988428 ], [ -73.5752623, 45.598831 ], [ -73.5751815, 45.5988015 ], [ -73.5747104, 45.598606 ], [ -73.5744247, 45.5984714 ], [ -73.5740648, 45.5983072 ], [ -73.5720303, 45.5974253 ], [ -73.5717053, 45.5974713 ], [ -73.57163, 45.5974768 ], [ -73.5715674, 45.5974744 ], [ -73.5715132, 45.5974648 ], [ -73.5714328, 45.5974438 ], [ -73.5707466, 45.5971827 ], [ -73.5705472, 45.5970191 ], [ -73.5696991, 45.596637 ], [ -73.5694212, 45.5971483 ], [ -73.5577747, 45.5932553 ], [ -73.5577023, 45.5932311 ], [ -73.5575353, 45.5931753 ], [ -73.5575188, 45.5931698 ], [ -73.5574585, 45.5931455 ], [ -73.5523676, 45.5910898 ], [ -73.5489741, 45.5900352 ], [ -73.5473712, 45.5924689 ], [ -73.5467387, 45.5937505 ], [ -73.5468832, 45.5941875 ], [ -73.5479811, 45.5945592 ], [ -73.5473737, 45.5955573 ], [ -73.5463623, 45.5952806 ], [ -73.5460181, 45.5953274 ], [ -73.5456347, 45.5954272 ], [ -73.5454387, 45.5956704 ], [ -73.545051, 45.5963419 ], [ -73.5453669, 45.5964924 ], [ -73.5441825, 45.5983199 ], [ -73.5445496, 45.5984299 ], [ -73.5450267, 45.5995924 ], [ -73.5448805, 45.5999608 ], [ -73.5451086, 45.6002504 ], [ -73.5448311, 45.6009871 ], [ -73.544482, 45.6018495 ], [ -73.5441451, 45.6017566 ], [ -73.5407878, 45.6008297 ], [ -73.5403979, 45.6015203 ], [ -73.5402318, 45.6020394 ], [ -73.5429407, 45.6027996 ], [ -73.5422259, 45.6041585 ], [ -73.5397059, 45.6029985 ], [ -73.5392033, 45.6032761 ], [ -73.5372535, 45.6024849 ], [ -73.5368877, 45.6024619 ], [ -73.536526, 45.6034857 ], [ -73.5369946, 45.603641 ], [ -73.5369699, 45.6041298 ], [ -73.5372857, 45.6046485 ], [ -73.5378969, 45.6046787 ], [ -73.5377371, 45.6052292 ], [ -73.5416361, 45.6069421 ], [ -73.5408353, 45.6078463 ], [ -73.541265, 45.607995 ], [ -73.5415903, 45.6084101 ], [ -73.5415003, 45.6086618 ], [ -73.5414402, 45.608901 ], [ -73.541151, 45.609487 ], [ -73.5429864, 45.6099651 ], [ -73.5432909, 45.6100524 ], [ -73.5441494, 45.6102715 ], [ -73.5453519, 45.6107683 ], [ -73.5451893, 45.6109307 ], [ -73.545065, 45.6111479 ], [ -73.5444919, 45.6121874 ], [ -73.5465269, 45.6127348 ], [ -73.5461004, 45.6128993 ], [ -73.5457795, 45.6133507 ], [ -73.5457248, 45.6133359 ], [ -73.5456958, 45.6133767 ], [ -73.5457524, 45.6133899 ], [ -73.5453886, 45.6139156 ], [ -73.5453037, 45.6140788 ], [ -73.545278, 45.6141651 ], [ -73.5440575, 45.6150535 ], [ -73.5437245, 45.6149107 ], [ -73.5378547, 45.6138811 ], [ -73.5371918, 45.6158199 ], [ -73.5371866, 45.6158358 ], [ -73.5362223, 45.6200731 ], [ -73.5428878, 45.6234404 ], [ -73.5512366, 45.627006 ], [ -73.5514296, 45.6270884 ], [ -73.554054, 45.6281947 ], [ -73.5551882, 45.6286728 ], [ -73.5627593, 45.6318642 ], [ -73.5638341, 45.6323173 ], [ -73.5683375, 45.6342151 ], [ -73.5685568, 45.6340631 ], [ -73.5698461, 45.6332164 ], [ -73.5701051, 45.6330675 ], [ -73.5704035, 45.6328697 ], [ -73.5706158, 45.6327159 ], [ -73.572576, 45.631429 ], [ -73.5728302, 45.6312795 ], [ -73.5734507, 45.630859 ], [ -73.5737683, 45.6306639 ], [ -73.5739973, 45.6305144 ], [ -73.5741502, 45.6304047 ], [ -73.574422, 45.6302046 ], [ -73.57465, 45.630072 ], [ -73.5752467, 45.629657 ], [ -73.5754259, 45.6295239 ], [ -73.5760353, 45.6291079 ], [ -73.5763437, 45.6288775 ], [ -73.5769459, 45.6284666 ], [ -73.5774668, 45.6281276 ], [ -73.5783764, 45.6275051 ], [ -73.5785853, 45.6273438 ], [ -73.578987, 45.6270695 ], [ -73.5792808, 45.6269055 ], [ -73.5797997, 45.6265454 ], [ -73.5800646, 45.6263597 ], [ -73.5805267, 45.6260369 ], [ -73.5806357, 45.6259491 ], [ -73.5813731, 45.625437 ], [ -73.581757, 45.6252133 ], [ -73.582213, 45.6249019 ], [ -73.5830473, 45.6243257 ], [ -73.5832716, 45.6241633 ], [ -73.5840518, 45.6236291 ], [ -73.5843242, 45.6234586 ], [ -73.5847534, 45.6231642 ], [ -73.5849375, 45.6230304 ], [ -73.5851051, 45.622908 ], [ -73.5855417, 45.6226105 ], [ -73.5865666, 45.6219068 ], [ -73.5868462, 45.6217379 ], [ -73.5873036, 45.6214106 ], [ -73.5875283, 45.6212356 ], [ -73.5881386, 45.6208133 ], [ -73.5884273, 45.620656 ], [ -73.5889167, 45.6203161 ], [ -73.5892846, 45.6200514 ], [ -73.5900203, 45.6195449 ], [ -73.590319, 45.619362 ], [ -73.5906965, 45.6191006 ], [ -73.5907889, 45.6190324 ], [ -73.5910678, 45.6188336 ], [ -73.5913102, 45.6186501 ], [ -73.5914873, 45.6185249 ], [ -73.5920005, 45.6181748 ], [ -73.5926171, 45.6177912 ], [ -73.5927681, 45.6176754 ], [ -73.593086, 45.6174506 ], [ -73.5936178, 45.617084 ], [ -73.5937547, 45.6169929 ], [ -73.5941118, 45.6167698 ], [ -73.5949657, 45.6161641 ], [ -73.5954629, 45.6158269 ], [ -73.595944, 45.6154943 ], [ -73.5962654, 45.6152647 ], [ -73.5963913, 45.6151786 ], [ -73.5965639, 45.6150726 ], [ -73.5967022, 45.6149897 ], [ -73.5968546, 45.614902 ], [ -73.5971146, 45.6147522 ], [ -73.5973578, 45.6146207 ], [ -73.5976119, 45.6144908 ], [ -73.5980521, 45.6142797 ], [ -73.5984941, 45.614065 ], [ -73.5989156, 45.6138692 ], [ -73.5992865, 45.6137334 ], [ -73.5995878, 45.6135954 ], [ -73.5997436, 45.6135088 ], [ -73.5999623, 45.6134178 ], [ -73.6001461, 45.6133459 ], [ -73.6003385, 45.6132807 ], [ -73.6005365, 45.6132185 ], [ -73.6007581, 45.6131544 ], [ -73.6023246, 45.6125908 ], [ -73.6016417, 45.6119604 ], [ -73.6030852, 45.6111439 ] ] ] } },
{ "type": "Feature", "properties": { "display_name": "Rivière-des-Prairies–Pointe-aux-Trembles, Montreal, Urban agglomeration of Montreal, Montreal (administrative region), Quebec, Canada", "quartier": "riviere_des_prairies" }, "geometry": { "type": "Polygon", "coordinates": [ [ [ -73.6238275, 45.6334297 ], [ -73.620717, 45.6298612 ], [ -73.6197879, 45.6289777 ], [ -73.6197374, 45.6289309 ], [ -73.6168951, 45.6262928 ], [ -73.6165548, 45.6259729 ], [ -73.6124545, 45.6220826 ], [ -73.6071424, 45.6170469 ], [ -73.6033987, 45.6135728 ], [ -73.6023246, 45.6125908 ], [ -73.6007581, 45.6131544 ], [ -73.6005365, 45.6132185 ], [ -73.6003385, 45.6132807 ], [ -73.6001461, 45.6133459 ], [ -73.5999623, 45.6134178 ], [ -73.5997436, 45.6135088 ], [ -73.5995878, 45.6135954 ], [ -73.5992865, 45.6137334 ], [ -73.5989156, 45.6138692 ], [ -73.5984941, 45.614065 ], [ -73.5980521, 45.6142797 ], [ -73.5976119, 45.6144908 ], [ -73.5973578, 45.6146207 ], [ -73.5971146, 45.6147522 ], [ -73.5968546, 45.614902 ], [ -73.5967022, 45.6149897 ], [ -73.5965639, 45.6150726 ], [ -73.5963913, 45.6151786 ], [ -73.5962654, 45.6152647 ], [ -73.595944, 45.6154943 ], [ -73.5954629, 45.6158269 ], [ -73.5949657, 45.6161641 ], [ -73.5941118, 45.6167698 ], [ -73.5937547, 45.6169929 ], [ -73.5936178, 45.617084 ], [ -73.593086, 45.6174506 ], [ -73.5927681, 45.6176754 ], [ -73.5926171, 45.6177912 ], [ -73.5920005, 45.6181748 ], [ -73.5914873, 45.6185249 ], [ -73.5913102, 45.6186501 ], [ -73.5910678, 45.6188336 ], [ -73.5907889, 45.6190324 ], [ -73.5906965, 45.6191006 ], [ -73.590319, 45.619362 ], [ -73.5900203, 45.6195449 ], [ -73.5892846, 45.6200514 ], [ -73.5889167, 45.6203161 ], [ -73.5884273, 45.620656 ], [ -73.5881386, 45.6208133 ], [ -73.5875283, 45.6212356 ], [ -73.5873036, 45.6214106 ], [ -73.5868462, 45.6217379 ], [ -73.5865666, 45.6219068 ], [ -73.5855417, 45.6226105 ], [ -73.5851051, 45.622908 ], [ -73.5849375, 45.6230304 ], [ -73.5847534, 45.6231642 ], [ -73.5843242, 45.6234586 ], [ -73.5840518, 45.6236291 ], [ -73.5832716, 45.6241633 ], [ -73.5830473, 45.6243257 ], [ -73.582213, 45.6249019 ], [ -73.581757, 45.6252133 ], [ -73.5813731, 45.625437 ], [ -73.5806357, 45.6259491 ], [ -73.5805267, 45.6260369 ], [ -73.5800646, 45.6263597 ], [ -73.5797997, 45.6265454 ], [ -73.5792808, 45.6269055 ], [ -73.578987, 45.6270695 ], [ -73.5785853, 45.6273438 ], [ -73.5783764, 45.6275051 ], [ -73.5774668, 45.6281276 ], [ -73.5769459, 45.6284666 ], [ -73.5763437, 45.6288775 ], [ -73.5760353, 45.6291079 ], [ -73.5754259, 45.6295239 ], [ -73.5752467, 45.629657 ], [ -73.57465, 45.630072 ], [ -73.574422, 45.6302046 ], [ -73.5741502, 45.6304047 ], [ -73.5739973, 45.6305144 ], [ -73.5737683, 45.6306639 ], [ -73.5734507, 45.630859 ], [ -73.5728302, 45.6312795 ], [ -73.572576, 45.631429 ], [ -73.5706158, 45.6327159 ], [ -73.5704035, 45.6328697 ], [ -73.5701051, 45.6330675 ], [ -73.5698461, 45.6332164 ], [ -73.5685568, 45.6340631 ], [ -73.5683375, 45.6342151 ], [ -73.568153, 45.6343435 ], [ -73.5678009, 45.6345749 ], [ -73.567516, 45.6347426 ], [ -73.5666382, 45.6353187 ], [ -73.5664511, 45.6354573 ], [ -73.5657212, 45.6359382 ], [ -73.565442, 45.6361227 ], [ -73.565234, 45.6362428 ], [ -73.5650483, 45.6363445 ], [ -73.5641686, 45.6369189 ], [ -73.5639239, 45.6370965 ], [ -73.5636911, 45.6372509 ], [ -73.5633836, 45.6374327 ], [ -73.5629643, 45.6377133 ], [ -73.5628161, 45.6378243 ], [ -73.5625023, 45.6380384 ], [ -73.5620669, 45.6383332 ], [ -73.561417, 45.6387444 ], [ -73.5606632, 45.6392368 ], [ -73.5604189, 45.6394125 ], [ -73.560046, 45.6396563 ], [ -73.5599025, 45.6397433 ], [ -73.5598488, 45.6397753 ], [ -73.5597432, 45.6398365 ], [ -73.5582012, 45.6408459 ], [ -73.5577759, 45.6411263 ], [ -73.5572962, 45.6414178 ], [ -73.5569417, 45.6416507 ], [ -73.5567332, 45.6418017 ], [ -73.556461, 45.641988 ], [ -73.5562528, 45.6421392 ], [ -73.5556895, 45.6425089 ], [ -73.5553804, 45.6426924 ], [ -73.5551702, 45.6428356 ], [ -73.55502, 45.6429406 ], [ -73.5546769, 45.6431553 ], [ -73.5544398, 45.6433024 ], [ -73.5541659, 45.6434673 ], [ -73.5538378, 45.6436194 ], [ -73.5535174, 45.6438073 ], [ -73.5532221, 45.6439802 ], [ -73.5531325, 45.6440366 ], [ -73.5530141, 45.6441181 ], [ -73.5529031, 45.6441857 ], [ -73.5526167, 45.6443398 ], [ -73.5523043, 45.6444953 ], [ -73.5510391, 45.6451315 ], [ -73.5499554, 45.6456613 ], [ -73.5495001, 45.6458847 ], [ -73.5489968, 45.6461419 ], [ -73.5477802, 45.6466716 ], [ -73.5473888, 45.646887 ], [ -73.5446571, 45.648245 ], [ -73.53444, 45.6436418 ], [ -73.5307518, 45.6419702 ], [ -73.527752, 45.6406261 ], [ -73.5226788, 45.6383224 ], [ -73.52136, 45.6377257 ], [ -73.5203536, 45.6375405 ], [ -73.5182518, 45.6371646 ], [ -73.5164664, 45.6368743 ], [ -73.5160526, 45.6368118 ], [ -73.5113384, 45.6360506 ], [ -73.4918117, 45.6328974 ], [ -73.4847718, 45.6317689 ], [ -73.482573, 45.6350632 ], [ -73.4776377, 45.6452348 ], [ -73.4785389, 45.6523449 ], [ -73.4862637, 45.6619135 ], [ -73.4881091, 45.6715105 ], [ -73.4868276, 45.6794316 ], [ -73.4858775, 45.6853033 ], [ -73.4794831, 45.692678 ], [ -73.4783244, 45.6970544 ], [ -73.4760928, 45.6999619 ], [ -73.4753846, 45.7011536 ], [ -73.4742952, 45.7022103 ], [ -73.4762117, 45.7044072 ], [ -73.4883042, 45.7034332 ], [ -73.4903349, 45.7047897 ], [ -73.4949261, 45.7044197 ], [ -73.4972579, 45.7039483 ], [ -73.5089239, 45.7015899 ], [ -73.5184121, 45.6996717 ], [ -73.5235036, 45.6992671 ], [ -73.5277068, 45.6916678 ], [ -73.5301989, 45.6861203 ], [ -73.5333978, 45.6826772 ], [ -73.539219, 45.6798446 ], [ -73.5487041, 45.6756084 ], [ -73.5637314, 45.6659784 ], [ -73.5767873, 45.6599344 ], [ -73.579998, 45.6585365 ], [ -73.5839689, 45.6565624 ], [ -73.5964668, 45.6503487 ], [ -73.6023059, 45.6474454 ], [ -73.6098162, 45.6442502 ], [ -73.6151908, 45.6403039 ], [ -73.6238275, 45.6334297 ] ] ] } }
]
}
