<?xml version="1.0" ?>
<gpx xmlns="http://www.topografix.com/GPX/1/1" version="1.1" creator="ERO1">
  <trk>
    <name>outremont — securite — zone 0</name>
    <trkseg>
      <trkpt lat="45.5170085" lon="-73.6115837"/>
      <trkpt lat="45.5177958" lon="-73.6133377"/>
      <trkpt lat="45.5190181" lon="-73.616205"/>
      <trkpt lat="45.5176892" lon="-73.6134292"/>
      <trkpt lat="45.5170725" lon="-73.613968"/>
      <trkpt lat="45.5164072" lon="-73.6145623"/>
      <trkpt lat="45.5157404" lon="-73.6151581"/>
      <trkpt lat="45.5149245" lon="-73.6133375"/>
      <trkpt lat="45.5139592" lon="-73.6114035"/>
      <trkpt lat="45.5135449" lon="-73.6121351"/>
      <trkpt lat="45.5139592" lon="-73.6114035"/>
      <trkpt lat="45.5142015" lon="-73.6107074"/>
      <trkpt lat="45.5145825" lon="-73.6093183"/>
      <trkpt lat="45.5142015" lon="-73.6107074"/>
      <trkpt lat="45.5139592" lon="-73.6114035"/>
      <trkpt lat="45.5135449" lon="-73.6121351"/>
      <trkpt lat="45.5133226" lon="-73.6125329"/>
      <trkpt lat="45.5135449" lon="-73.6121351"/>
      <trkpt lat="45.5133226" lon="-73.6125329"/>
      <trkpt lat="45.5129989" lon="-73.6131074"/>
      <trkpt lat="45.5133226" lon="-73.6125329"/>
      <trkpt lat="45.513808" lon="-73.6149744"/>
      <trkpt lat="45.5144326" lon="-73.6163394"/>
      <trkpt lat="45.5137153" lon="-73.6169787"/>
      <trkpt lat="45.5131891" lon="-73.6158136"/>
      <trkpt lat="45.5137153" lon="-73.6169787"/>
      <trkpt lat="45.5131891" lon="-73.6158136"/>
      <trkpt lat="45.5125631" lon="-73.6163768"/>
      <trkpt lat="45.511782" lon="-73.6170727"/>
      <trkpt lat="45.5125631" lon="-73.6163768"/>
      <trkpt lat="45.5131891" lon="-73.6158136"/>
      <trkpt lat="45.5125631" lon="-73.6163768"/>
      <trkpt lat="45.5120665" lon="-73.6152552"/>
      <trkpt lat="45.5125631" lon="-73.6163768"/>
      <trkpt lat="45.511782" lon="-73.6170727"/>
      <trkpt lat="45.5113431" lon="-73.6170791"/>
      <trkpt lat="45.511782" lon="-73.6170727"/>
      <trkpt lat="45.5113431" lon="-73.6170791"/>
      <trkpt lat="45.5110056" lon="-73.6162905"/>
      <trkpt lat="45.511346" lon="-73.6159805"/>
      <trkpt lat="45.5117204" lon="-73.6155322"/>
      <trkpt lat="45.5109291" lon="-73.6138181"/>
      <trkpt lat="45.5107668" lon="-73.6135199"/>
      <trkpt lat="45.5106675" lon="-73.6132355"/>
      <trkpt lat="45.5105597" lon="-73.6130166"/>
      <trkpt lat="45.5106675" lon="-73.6132355"/>
      <trkpt lat="45.5108032" lon="-73.6134882"/>
      <trkpt lat="45.5109291" lon="-73.6138181"/>
      <trkpt lat="45.5117204" lon="-73.6155322"/>
      <trkpt lat="45.511346" lon="-73.6159805"/>
      <trkpt lat="45.5110056" lon="-73.6162905"/>
      <trkpt lat="45.511346" lon="-73.6159805"/>
      <trkpt lat="45.5117204" lon="-73.6155322"/>
      <trkpt lat="45.5109291" lon="-73.6138181"/>
      <trkpt lat="45.5107668" lon="-73.6135199"/>
      <trkpt lat="45.5100769" lon="-73.6141185"/>
      <trkpt lat="45.5110056" lon="-73.6162905"/>
      <trkpt lat="45.511346" lon="-73.6159805"/>
      <trkpt lat="45.5117204" lon="-73.6155322"/>
      <trkpt lat="45.5109291" lon="-73.6138181"/>
      <trkpt lat="45.5107668" lon="-73.6135199"/>
      <trkpt lat="45.5100769" lon="-73.6141185"/>
      <trkpt lat="45.5094536" lon="-73.6146718"/>
      <trkpt lat="45.5104142" lon="-73.6168235"/>
      <trkpt lat="45.5110056" lon="-73.6162905"/>
      <trkpt lat="45.5104142" lon="-73.6168235"/>
      <trkpt lat="45.5110056" lon="-73.6162905"/>
      <trkpt lat="45.5113431" lon="-73.6170791"/>
      <trkpt lat="45.5110056" lon="-73.6162905"/>
      <trkpt lat="45.511346" lon="-73.6159805"/>
      <trkpt lat="45.5117204" lon="-73.6155322"/>
      <trkpt lat="45.5124292" lon="-73.6141684"/>
      <trkpt lat="45.5117204" lon="-73.6155322"/>
      <trkpt lat="45.5124292" lon="-73.6141684"/>
      <trkpt lat="45.512744" lon="-73.6148041"/>
      <trkpt lat="45.5124292" lon="-73.6141684"/>
      <trkpt lat="45.512744" lon="-73.6148041"/>
      <trkpt lat="45.5127952" lon="-73.6149172"/>
      <trkpt lat="45.5130975" lon="-73.615592"/>
      <trkpt lat="45.513808" lon="-73.6149744"/>
      <trkpt lat="45.5144326" lon="-73.6163394"/>
      <trkpt lat="45.5137153" lon="-73.6169787"/>
      <trkpt lat="45.5144326" lon="-73.6163394"/>
      <trkpt lat="45.5150753" lon="-73.6157759"/>
      <trkpt lat="45.5157404" lon="-73.6151581"/>
      <trkpt lat="45.5164072" lon="-73.6145623"/>
      <trkpt lat="45.5170725" lon="-73.613968"/>
      <trkpt lat="45.5176892" lon="-73.6134292"/>
      <trkpt lat="45.5169007" lon="-73.6116802"/>
      <trkpt lat="45.5162515" lon="-73.6121529"/>
      <trkpt lat="45.5170725" lon="-73.613968"/>
      <trkpt lat="45.5176892" lon="-73.6134292"/>
      <trkpt lat="45.5169007" lon="-73.6116802"/>
      <trkpt lat="45.516836" lon="-73.611528"/>
      <trkpt lat="45.5169441" lon="-73.6114344"/>
      <trkpt lat="45.5170085" lon="-73.6115837"/>
      <trkpt lat="45.5177958" lon="-73.6133377"/>
      <trkpt lat="45.5184175" lon="-73.6127974"/>
      <trkpt lat="45.519684" lon="-73.6156104"/>
      <trkpt lat="45.520371" lon="-73.6149963"/>
      <trkpt lat="45.5199666" lon="-73.6140126"/>
      <trkpt lat="45.5208774" lon="-73.6132124"/>
      <trkpt lat="45.5213102" lon="-73.6141634"/>
      <trkpt lat="45.5216695" lon="-73.6149676"/>
      <trkpt lat="45.5221276" lon="-73.6159994"/>
      <trkpt lat="45.522795" lon="-73.6154163"/>
      <trkpt lat="45.5219691" lon="-73.613579"/>
      <trkpt lat="45.5226189" lon="-73.6129941"/>
      <trkpt lat="45.5232536" lon="-73.6124254"/>
      <trkpt lat="45.5237835" lon="-73.6119538"/>
      <trkpt lat="45.5243631" lon="-73.6114318"/>
      <trkpt lat="45.5237835" lon="-73.6119538"/>
      <trkpt lat="45.5232536" lon="-73.6124254"/>
      <trkpt lat="45.5226189" lon="-73.6129941"/>
      <trkpt lat="45.52344" lon="-73.6148427"/>
      <trkpt lat="45.522795" lon="-73.6154163"/>
      <trkpt lat="45.5219691" lon="-73.613579"/>
      <trkpt lat="45.5226189" lon="-73.6129941"/>
      <trkpt lat="45.5213539" lon="-73.6101456"/>
      <trkpt lat="45.5205444" lon="-73.6083178"/>
      <trkpt lat="45.5211766" lon="-73.6077603"/>
      <trkpt lat="45.5217064" lon="-73.6072877"/>
      <trkpt lat="45.5211766" lon="-73.6077603"/>
      <trkpt lat="45.5205444" lon="-73.6083178"/>
      <trkpt lat="45.5211766" lon="-73.6077603"/>
      <trkpt lat="45.5219925" lon="-73.6095833"/>
      <trkpt lat="45.5213539" lon="-73.6101456"/>
      <trkpt lat="45.5226189" lon="-73.6129941"/>
      <trkpt lat="45.5219691" lon="-73.613579"/>
      <trkpt lat="45.5207018" lon="-73.6107347"/>
      <trkpt lat="45.520048" lon="-73.6113323"/>
      <trkpt lat="45.5204372" lon="-73.6122208"/>
      <trkpt lat="45.5208774" lon="-73.6132124"/>
      <trkpt lat="45.5213102" lon="-73.6141634"/>
      <trkpt lat="45.5208774" lon="-73.6132124"/>
      <trkpt lat="45.5213102" lon="-73.6141634"/>
      <trkpt lat="45.5219691" lon="-73.613579"/>
      <trkpt lat="45.5213102" lon="-73.6141634"/>
      <trkpt lat="45.5216695" lon="-73.6149676"/>
      <trkpt lat="45.5207288" lon="-73.6158042"/>
      <trkpt lat="45.520371" lon="-73.6149963"/>
      <trkpt lat="45.5213102" lon="-73.6141634"/>
      <trkpt lat="45.520371" lon="-73.6149963"/>
      <trkpt lat="45.5199666" lon="-73.6140126"/>
      <trkpt lat="45.5195273" lon="-73.613036"/>
      <trkpt lat="45.5191318" lon="-73.6121688"/>
      <trkpt lat="45.5184175" lon="-73.6127974"/>
      <trkpt lat="45.519684" lon="-73.6156104"/>
      <trkpt lat="45.520371" lon="-73.6149963"/>
      <trkpt lat="45.5199666" lon="-73.6140126"/>
      <trkpt lat="45.5195273" lon="-73.613036"/>
      <trkpt lat="45.5191318" lon="-73.6121688"/>
      <trkpt lat="45.5187443" lon="-73.611317"/>
      <trkpt lat="45.5183018" lon="-73.6103261"/>
      <trkpt lat="45.5178644" lon="-73.6093628"/>
      <trkpt lat="45.5187972" lon="-73.6085216"/>
      <trkpt lat="45.5178644" lon="-73.6093628"/>
      <trkpt lat="45.5174658" lon="-73.6084965"/>
      <trkpt lat="45.5183953" lon="-73.6076403"/>
      <trkpt lat="45.5174658" lon="-73.6084965"/>
      <trkpt lat="45.5178644" lon="-73.6093628"/>
      <trkpt lat="45.5174658" lon="-73.6084965"/>
      <trkpt lat="45.5183953" lon="-73.6076403"/>
      <trkpt lat="45.5177565" lon="-73.6061747"/>
      <trkpt lat="45.5167581" lon="-73.6070659"/>
      <trkpt lat="45.5160885" lon="-73.6076636"/>
      <trkpt lat="45.5175548" lon="-73.6108934"/>
      <trkpt lat="45.5183018" lon="-73.6103261"/>
      <trkpt lat="45.5178644" lon="-73.6093628"/>
      <trkpt lat="45.5183018" lon="-73.6103261"/>
      <trkpt lat="45.5178644" lon="-73.6093628"/>
      <trkpt lat="45.5174658" lon="-73.6084965"/>
      <trkpt lat="45.5167581" lon="-73.6070659"/>
      <trkpt lat="45.5161807" lon="-73.6059535"/>
      <trkpt lat="45.5155011" lon="-73.6052538"/>
      <trkpt lat="45.5158251" lon="-73.602091"/>
      <trkpt lat="45.5158853" lon="-73.6011137"/>
      <trkpt lat="45.5159063" lon="-73.6006812"/>
      <trkpt lat="45.5160659" lon="-73.5987386"/>
      <trkpt lat="45.5161351" lon="-73.5968218"/>
      <trkpt lat="45.5158884" lon="-73.5944049"/>
      <trkpt lat="45.5158219" lon="-73.5939384"/>
      <trkpt lat="45.5157397" lon="-73.5931958"/>
      <trkpt lat="45.5160787" lon="-73.5918987"/>
      <trkpt lat="45.5157881" lon="-73.5902655"/>
      <trkpt lat="45.5160787" lon="-73.5918987"/>
      <trkpt lat="45.5157397" lon="-73.5931958"/>
      <trkpt lat="45.5158219" lon="-73.5939384"/>
      <trkpt lat="45.5158884" lon="-73.5944049"/>
      <trkpt lat="45.5161351" lon="-73.5968218"/>
      <trkpt lat="45.5163084" lon="-73.5967568"/>
      <trkpt lat="45.5168319" lon="-73.5963052"/>
      <trkpt lat="45.5170957" lon="-73.5960742"/>
      <trkpt lat="45.5177078" lon="-73.5955344"/>
      <trkpt lat="45.5180138" lon="-73.5952668"/>
      <trkpt lat="45.5177078" lon="-73.5955344"/>
      <trkpt lat="45.5170957" lon="-73.5960742"/>
      <trkpt lat="45.5168319" lon="-73.5963052"/>
      <trkpt lat="45.5163084" lon="-73.5967568"/>
      <trkpt lat="45.5161351" lon="-73.5968218"/>
      <trkpt lat="45.5160659" lon="-73.5987386"/>
      <trkpt lat="45.5159063" lon="-73.6006812"/>
      <trkpt lat="45.5158853" lon="-73.6011137"/>
      <trkpt lat="45.5158251" lon="-73.602091"/>
      <trkpt lat="45.5155011" lon="-73.6052538"/>
      <trkpt lat="45.5152892" lon="-73.6063294"/>
      <trkpt lat="45.5148055" lon="-73.6084948"/>
      <trkpt lat="45.5152892" lon="-73.6063294"/>
      <trkpt lat="45.5155011" lon="-73.6052538"/>
      <trkpt lat="45.5152892" lon="-73.6063294"/>
      <trkpt lat="45.5148055" lon="-73.6084948"/>
      <trkpt lat="45.5146708" lon="-73.6089907"/>
      <trkpt lat="45.5148055" lon="-73.6084948"/>
      <trkpt lat="45.5146708" lon="-73.6089907"/>
      <trkpt lat="45.5145825" lon="-73.6093183"/>
      <trkpt lat="45.5146708" lon="-73.6089907"/>
      <trkpt lat="45.5162515" lon="-73.6121529"/>
      <trkpt lat="45.5170725" lon="-73.613968"/>
      <trkpt lat="45.5183439" lon="-73.6168034"/>
      <trkpt lat="45.5176783" lon="-73.6174017"/>
      <trkpt lat="45.5170145" lon="-73.617995"/>
      <trkpt lat="45.5157404" lon="-73.6151581"/>
      <trkpt lat="45.5150753" lon="-73.6157759"/>
      <trkpt lat="45.5144326" lon="-73.6163394"/>
      <trkpt lat="45.515696" lon="-73.6191698"/>
      <trkpt lat="45.5149885" lon="-73.6198045"/>
      <trkpt lat="45.5142831" lon="-73.6204361"/>
      <trkpt lat="45.5149885" lon="-73.6198045"/>
      <trkpt lat="45.515696" lon="-73.6191698"/>
      <trkpt lat="45.5163438" lon="-73.6185917"/>
      <trkpt lat="45.5170145" lon="-73.617995"/>
      <trkpt lat="45.5176783" lon="-73.6174017"/>
      <trkpt lat="45.5183439" lon="-73.6168034"/>
      <trkpt lat="45.5191664" lon="-73.6186355"/>
      <trkpt lat="45.5185047" lon="-73.6192337"/>
      <trkpt lat="45.5178321" lon="-73.6198309"/>
      <trkpt lat="45.5170145" lon="-73.617995"/>
      <trkpt lat="45.5176783" lon="-73.6174017"/>
      <trkpt lat="45.5183439" lon="-73.6168034"/>
      <trkpt lat="45.5191664" lon="-73.6186355"/>
      <trkpt lat="45.5199414" lon="-73.6203285"/>
      <trkpt lat="45.5198148" lon="-73.6206074"/>
      <trkpt lat="45.5192935" lon="-73.6209981"/>
      <trkpt lat="45.5185047" lon="-73.6192337"/>
      <trkpt lat="45.5178321" lon="-73.6198309"/>
      <trkpt lat="45.5170145" lon="-73.617995"/>
      <trkpt lat="45.5176783" lon="-73.6174017"/>
      <trkpt lat="45.5183439" lon="-73.6168034"/>
      <trkpt lat="45.5191664" lon="-73.6186355"/>
      <trkpt lat="45.5199414" lon="-73.6203285"/>
      <trkpt lat="45.5200778" lon="-73.6206345"/>
      <trkpt lat="45.5201783" lon="-73.6208883"/>
      <trkpt lat="45.520411" lon="-73.6214133"/>
      <trkpt lat="45.5191312" lon="-73.6229407"/>
      <trkpt lat="45.5189458" lon="-73.6222801"/>
      <trkpt lat="45.5191312" lon="-73.6229407"/>
      <trkpt lat="45.520411" lon="-73.6214133"/>
      <trkpt lat="45.5191312" lon="-73.6229407"/>
      <trkpt lat="45.5189458" lon="-73.6222801"/>
      <trkpt lat="45.5186232" lon="-73.6216251"/>
      <trkpt lat="45.5185851" lon="-73.6215153"/>
      <trkpt lat="45.5178321" lon="-73.6198309"/>
      <trkpt lat="45.5185851" lon="-73.6215153"/>
      <trkpt lat="45.5178321" lon="-73.6198309"/>
      <trkpt lat="45.5170145" lon="-73.617995"/>
      <trkpt lat="45.5163438" lon="-73.6185917"/>
      <trkpt lat="45.5171594" lon="-73.620438"/>
      <trkpt lat="45.5173144" lon="-73.6227689"/>
      <trkpt lat="45.5171594" lon="-73.620438"/>
      <trkpt lat="45.5178321" lon="-73.6198309"/>
      <trkpt lat="45.5170145" lon="-73.617995"/>
      <trkpt lat="45.5176783" lon="-73.6174017"/>
      <trkpt lat="45.5183439" lon="-73.6168034"/>
      <trkpt lat="45.5190181" lon="-73.616205"/>
      <trkpt lat="45.5183439" lon="-73.6168034"/>
      <trkpt lat="45.5191664" lon="-73.6186355"/>
      <trkpt lat="45.5198334" lon="-73.6180413"/>
      <trkpt lat="45.5190181" lon="-73.616205"/>
      <trkpt lat="45.5176892" lon="-73.6134292"/>
      <trkpt lat="45.5169007" lon="-73.6116802"/>
      <trkpt lat="45.516836" lon="-73.611528"/>
      <trkpt lat="45.5166375" lon="-73.6110779"/>
      <trkpt lat="45.5167429" lon="-73.6109899"/>
      <trkpt lat="45.5166375" lon="-73.6110779"/>
      <trkpt lat="45.5167429" lon="-73.6109899"/>
      <trkpt lat="45.5169441" lon="-73.6114344"/>
      <trkpt lat="45.5170085" lon="-73.6115837"/>
      <trkpt lat="45.5177958" lon="-73.6133377"/>
      <trkpt lat="45.5184175" lon="-73.6127974"/>
      <trkpt lat="45.5177958" lon="-73.6133377"/>
      <trkpt lat="45.5184175" lon="-73.6127974"/>
      <trkpt lat="45.519684" lon="-73.6156104"/>
      <trkpt lat="45.5205115" lon="-73.6174373"/>
      <trkpt lat="45.5198334" lon="-73.6180413"/>
      <trkpt lat="45.5190181" lon="-73.616205"/>
      <trkpt lat="45.5176892" lon="-73.6134292"/>
      <trkpt lat="45.5177958" lon="-73.6133377"/>
      <trkpt lat="45.5184175" lon="-73.6127974"/>
      <trkpt lat="45.519684" lon="-73.6156104"/>
      <trkpt lat="45.520371" lon="-73.6149963"/>
      <trkpt lat="45.5199666" lon="-73.6140126"/>
      <trkpt lat="45.5195273" lon="-73.613036"/>
      <trkpt lat="45.5191318" lon="-73.6121688"/>
      <trkpt lat="45.5187443" lon="-73.611317"/>
      <trkpt lat="45.5196736" lon="-73.6104744"/>
      <trkpt lat="45.520048" lon="-73.6113323"/>
      <trkpt lat="45.5191318" lon="-73.6121688"/>
      <trkpt lat="45.5187443" lon="-73.611317"/>
      <trkpt lat="45.5183018" lon="-73.6103261"/>
      <trkpt lat="45.5192324" lon="-73.6094942"/>
      <trkpt lat="45.5196736" lon="-73.6104744"/>
      <trkpt lat="45.520048" lon="-73.6113323"/>
      <trkpt lat="45.5196736" lon="-73.6104744"/>
      <trkpt lat="45.520048" lon="-73.6113323"/>
      <trkpt lat="45.5191318" lon="-73.6121688"/>
      <trkpt lat="45.5187443" lon="-73.611317"/>
      <trkpt lat="45.5183018" lon="-73.6103261"/>
      <trkpt lat="45.5187443" lon="-73.611317"/>
      <trkpt lat="45.5183018" lon="-73.6103261"/>
      <trkpt lat="45.5176239" lon="-73.6110337"/>
      <trkpt lat="45.5184175" lon="-73.6127974"/>
      <trkpt lat="45.519684" lon="-73.6156104"/>
      <trkpt lat="45.5190181" lon="-73.616205"/>
      <trkpt lat="45.519684" lon="-73.6156104"/>
      <trkpt lat="45.520371" lon="-73.6149963"/>
      <trkpt lat="45.519684" lon="-73.6156104"/>
      <trkpt lat="45.520371" lon="-73.6149963"/>
      <trkpt lat="45.5213102" lon="-73.6141634"/>
      <trkpt lat="45.5219691" lon="-73.613579"/>
      <trkpt lat="45.5207018" lon="-73.6107347"/>
      <trkpt lat="45.5213539" lon="-73.6101456"/>
      <trkpt lat="45.5205444" lon="-73.6083178"/>
      <trkpt lat="45.5213539" lon="-73.6101456"/>
      <trkpt lat="45.5207018" lon="-73.6107347"/>
      <trkpt lat="45.5198898" lon="-73.6089123"/>
      <trkpt lat="45.5184122" lon="-73.6055894"/>
      <trkpt lat="45.5190679" lon="-73.6050041"/>
      <trkpt lat="45.5205444" lon="-73.6083178"/>
      <trkpt lat="45.5190679" lon="-73.6050041"/>
      <trkpt lat="45.5205444" lon="-73.6083178"/>
      <trkpt lat="45.5198898" lon="-73.6089123"/>
      <trkpt lat="45.5192324" lon="-73.6094942"/>
      <trkpt lat="45.5183018" lon="-73.6103261"/>
      <trkpt lat="45.5176239" lon="-73.6110337"/>
      <trkpt lat="45.5170085" lon="-73.6115837"/>
    </trkseg>
  </trk>
</gpx>
