<?xml version="1.0" ?>
<gpx xmlns="http://www.topografix.com/GPX/1/1" version="1.1" creator="ERO1">
  <trk>
    <name>riviere_des_prairies — economique — zone 1</name>
    <trkseg>
      <trkpt lat="45.6605613" lon="-73.5081828"/>
      <trkpt lat="45.6605382" lon="-73.5080134"/>
      <trkpt lat="45.6635806" lon="-73.5069472"/>
      <trkpt lat="45.6648611" lon="-73.5065027"/>
      <trkpt lat="45.6654794" lon="-73.5061339"/>
      <trkpt lat="45.6663089" lon="-73.505809"/>
      <trkpt lat="45.667843" lon="-73.5052818"/>
      <trkpt lat="45.6685814" lon="-73.5050529"/>
      <trkpt lat="45.6687884" lon="-73.5050102"/>
      <trkpt lat="45.6692994" lon="-73.5049055"/>
      <trkpt lat="45.6694072" lon="-73.5048867"/>
      <trkpt lat="45.6694618" lon="-73.5052215"/>
      <trkpt lat="45.6693661" lon="-73.5052823"/>
      <trkpt lat="45.6688644" lon="-73.5056509"/>
      <trkpt lat="45.6687885" lon="-73.505718"/>
      <trkpt lat="45.6681191" lon="-73.5063097"/>
      <trkpt lat="45.6664097" lon="-73.5069824"/>
      <trkpt lat="45.6663089" lon="-73.505809"/>
      <trkpt lat="45.667843" lon="-73.5052818"/>
      <trkpt lat="45.6685814" lon="-73.5050529"/>
      <trkpt lat="45.6687884" lon="-73.5050102"/>
      <trkpt lat="45.6692994" lon="-73.5049055"/>
      <trkpt lat="45.6691599" lon="-73.5040397"/>
      <trkpt lat="45.6689789" lon="-73.5029166"/>
      <trkpt lat="45.6690645" lon="-73.5028879"/>
      <trkpt lat="45.6694072" lon="-73.5048867"/>
      <trkpt lat="45.6705956" lon="-73.5046077"/>
      <trkpt lat="45.6694618" lon="-73.5052215"/>
      <trkpt lat="45.6693661" lon="-73.5052823"/>
      <trkpt lat="45.6688644" lon="-73.5056509"/>
      <trkpt lat="45.6687885" lon="-73.505718"/>
      <trkpt lat="45.6681191" lon="-73.5063097"/>
      <trkpt lat="45.6664097" lon="-73.5069824"/>
      <trkpt lat="45.6663089" lon="-73.505809"/>
      <trkpt lat="45.667843" lon="-73.5052818"/>
      <trkpt lat="45.6685814" lon="-73.5050529"/>
      <trkpt lat="45.6687884" lon="-73.5050102"/>
      <trkpt lat="45.6692994" lon="-73.5049055"/>
      <trkpt lat="45.6691599" lon="-73.5040397"/>
      <trkpt lat="45.6689789" lon="-73.5029166"/>
      <trkpt lat="45.6684268" lon="-73.4996364"/>
      <trkpt lat="45.667748" lon="-73.4956459"/>
      <trkpt lat="45.6675582" lon="-73.4943689"/>
      <trkpt lat="45.6678413" lon="-73.4956667"/>
      <trkpt lat="45.6685122" lon="-73.4996111"/>
      <trkpt lat="45.6691419" lon="-73.4993953"/>
      <trkpt lat="45.6698312" lon="-73.4991628"/>
      <trkpt lat="45.6705356" lon="-73.4989232"/>
      <trkpt lat="45.6712424" lon="-73.4986905"/>
      <trkpt lat="45.6707891" lon="-73.4960204"/>
      <trkpt lat="45.6704631" lon="-73.494047"/>
      <trkpt lat="45.6708572" lon="-73.493947"/>
      <trkpt lat="45.671623" lon="-73.4937635"/>
      <trkpt lat="45.6708572" lon="-73.493947"/>
      <trkpt lat="45.6704631" lon="-73.494047"/>
      <trkpt lat="45.669744" lon="-73.4942408"/>
      <trkpt lat="45.6675582" lon="-73.4943689"/>
      <trkpt lat="45.669744" lon="-73.4942408"/>
      <trkpt lat="45.6704631" lon="-73.494047"/>
      <trkpt lat="45.6708572" lon="-73.493947"/>
      <trkpt lat="45.671623" lon="-73.4937635"/>
      <trkpt lat="45.6723798" lon="-73.4935739"/>
      <trkpt lat="45.6731038" lon="-73.4933749"/>
      <trkpt lat="45.6737271" lon="-73.4932343"/>
      <trkpt lat="45.6745792" lon="-73.4930503"/>
      <trkpt lat="45.6754239" lon="-73.4928724"/>
      <trkpt lat="45.6760699" lon="-73.4927365"/>
      <trkpt lat="45.6754239" lon="-73.4928724"/>
      <trkpt lat="45.6760699" lon="-73.4927365"/>
      <trkpt lat="45.6761218" lon="-73.4927275"/>
      <trkpt lat="45.6764196" lon="-73.4926665"/>
      <trkpt lat="45.6770898" lon="-73.4925367"/>
      <trkpt lat="45.6773508" lon="-73.492484"/>
      <trkpt lat="45.6779724" lon="-73.4923697"/>
      <trkpt lat="45.6773508" lon="-73.492484"/>
      <trkpt lat="45.6779724" lon="-73.4923697"/>
      <trkpt lat="45.6785985" lon="-73.4922523"/>
      <trkpt lat="45.6788728" lon="-73.4922057"/>
      <trkpt lat="45.6793352" lon="-73.4921006"/>
      <trkpt lat="45.6827707" lon="-73.4911627"/>
      <trkpt lat="45.6849027" lon="-73.4905846"/>
      <trkpt lat="45.6873057" lon="-73.4899213"/>
      <trkpt lat="45.6849027" lon="-73.4905846"/>
      <trkpt lat="45.6827707" lon="-73.4911627"/>
      <trkpt lat="45.6849027" lon="-73.4905846"/>
      <trkpt lat="45.6873057" lon="-73.4899213"/>
      <trkpt lat="45.6875249" lon="-73.4898581"/>
      <trkpt lat="45.6882452" lon="-73.4896589"/>
      <trkpt lat="45.689027" lon="-73.4894494"/>
      <trkpt lat="45.6898077" lon="-73.4892309"/>
      <trkpt lat="45.6905225" lon="-73.4890304"/>
      <trkpt lat="45.6918602" lon="-73.4886641"/>
      <trkpt lat="45.6925873" lon="-73.488462"/>
      <trkpt lat="45.6933914" lon="-73.488243"/>
      <trkpt lat="45.6953901" lon="-73.4872394"/>
      <trkpt lat="45.6975437" lon="-73.4848259"/>
      <trkpt lat="45.6983659" lon="-73.4842578"/>
      <trkpt lat="45.6985622" lon="-73.4840939"/>
      <trkpt lat="45.6994088" lon="-73.4837824"/>
      <trkpt lat="45.6994284" lon="-73.4837739"/>
      <trkpt lat="45.7012533" lon="-73.4834701"/>
      <trkpt lat="45.6999559" lon="-73.4837377"/>
      <trkpt lat="45.6998389" lon="-73.483821"/>
      <trkpt lat="45.6993373" lon="-73.4840611"/>
      <trkpt lat="45.6986958" lon="-73.4844962"/>
      <trkpt lat="45.6984543" lon="-73.4845941"/>
      <trkpt lat="45.6983856" lon="-73.4845086"/>
      <trkpt lat="45.6983659" lon="-73.4842578"/>
      <trkpt lat="45.6985622" lon="-73.4840939"/>
      <trkpt lat="45.6994088" lon="-73.4837824"/>
      <trkpt lat="45.6994284" lon="-73.4837739"/>
      <trkpt lat="45.6999559" lon="-73.4837377"/>
      <trkpt lat="45.6998389" lon="-73.483821"/>
      <trkpt lat="45.6993373" lon="-73.4840611"/>
      <trkpt lat="45.6986958" lon="-73.4844962"/>
      <trkpt lat="45.6984543" lon="-73.4845941"/>
      <trkpt lat="45.6983856" lon="-73.4845086"/>
      <trkpt lat="45.6953901" lon="-73.4872394"/>
      <trkpt lat="45.6933914" lon="-73.488243"/>
      <trkpt lat="45.6953901" lon="-73.4872394"/>
      <trkpt lat="45.6975437" lon="-73.4848259"/>
      <trkpt lat="45.6983659" lon="-73.4842578"/>
      <trkpt lat="45.6985622" lon="-73.4840939"/>
      <trkpt lat="45.6986958" lon="-73.4844962"/>
      <trkpt lat="45.698559" lon="-73.4852737"/>
      <trkpt lat="45.6982502" lon="-73.4878427"/>
      <trkpt lat="45.6981124" lon="-73.4889203"/>
      <trkpt lat="45.6975306" lon="-73.4909401"/>
      <trkpt lat="45.6974483" lon="-73.4911438"/>
      <trkpt lat="45.6975148" lon="-73.491219"/>
      <trkpt lat="45.6972749" lon="-73.4921563"/>
      <trkpt lat="45.6976124" lon="-73.4942831"/>
      <trkpt lat="45.6976892" lon="-73.4948018"/>
      <trkpt lat="45.6976124" lon="-73.4942831"/>
      <trkpt lat="45.6972749" lon="-73.4921563"/>
      <trkpt lat="45.6971071" lon="-73.4918539"/>
      <trkpt lat="45.6960372" lon="-73.4939131"/>
      <trkpt lat="45.6941425" lon="-73.4962779"/>
      <trkpt lat="45.6903543" lon="-73.4978486"/>
      <trkpt lat="45.6888278" lon="-73.498295"/>
      <trkpt lat="45.6903166" lon="-73.4976412"/>
      <trkpt lat="45.6940736" lon="-73.4960764"/>
      <trkpt lat="45.6959153" lon="-73.4937746"/>
      <trkpt lat="45.6970076" lon="-73.4916877"/>
      <trkpt lat="45.6971071" lon="-73.4918539"/>
      <trkpt lat="45.6960372" lon="-73.4939131"/>
      <trkpt lat="45.6941425" lon="-73.4962779"/>
      <trkpt lat="45.6903543" lon="-73.4978486"/>
      <trkpt lat="45.6888278" lon="-73.498295"/>
      <trkpt lat="45.6840047" lon="-73.4999527"/>
      <trkpt lat="45.6810459" lon="-73.5009609"/>
      <trkpt lat="45.6840047" lon="-73.4999527"/>
      <trkpt lat="45.6810459" lon="-73.5009609"/>
      <trkpt lat="45.6790404" lon="-73.5016608"/>
      <trkpt lat="45.6769948" lon="-73.5023747"/>
      <trkpt lat="45.6721382" lon="-73.5040694"/>
      <trkpt lat="45.6714426" lon="-73.5043122"/>
      <trkpt lat="45.6721382" lon="-73.5040694"/>
      <trkpt lat="45.6769948" lon="-73.5023747"/>
      <trkpt lat="45.6721382" lon="-73.5040694"/>
      <trkpt lat="45.6714426" lon="-73.5043122"/>
      <trkpt lat="45.6707317" lon="-73.5045602"/>
      <trkpt lat="45.6705956" lon="-73.5046077"/>
      <trkpt lat="45.6694618" lon="-73.5052215"/>
      <trkpt lat="45.6693661" lon="-73.5052823"/>
      <trkpt lat="45.6688644" lon="-73.5056509"/>
      <trkpt lat="45.6687885" lon="-73.505718"/>
      <trkpt lat="45.6681191" lon="-73.5063097"/>
      <trkpt lat="45.6664097" lon="-73.5069824"/>
      <trkpt lat="45.6656357" lon="-73.5067097"/>
      <trkpt lat="45.6649241" lon="-73.5066756"/>
      <trkpt lat="45.6642063" lon="-73.5069073"/>
      <trkpt lat="45.6636073" lon="-73.5071227"/>
      <trkpt lat="45.6628308" lon="-73.5073972"/>
      <trkpt lat="45.6605613" lon="-73.5081828"/>
      <trkpt lat="45.6584534" lon="-73.5089054"/>
      <trkpt lat="45.6578316" lon="-73.5091206"/>
      <trkpt lat="45.6569065" lon="-73.509442"/>
      <trkpt lat="45.6562615" lon="-73.5096624"/>
      <trkpt lat="45.6555347" lon="-73.5099132"/>
      <trkpt lat="45.6555106" lon="-73.5096894"/>
      <trkpt lat="45.6551984" lon="-73.5077201"/>
      <trkpt lat="45.6561496" lon="-73.5073978"/>
      <trkpt lat="45.6568029" lon="-73.5071108"/>
      <trkpt lat="45.6574419" lon="-73.5067399"/>
      <trkpt lat="45.6569284" lon="-73.5034369"/>
      <trkpt lat="45.656289" lon="-73.5036466"/>
      <trkpt lat="45.6556112" lon="-73.5038892"/>
      <trkpt lat="45.6549561" lon="-73.5041066"/>
      <trkpt lat="45.6527481" lon="-73.5025987"/>
      <trkpt lat="45.6549561" lon="-73.5041066"/>
      <trkpt lat="45.6556112" lon="-73.5038892"/>
      <trkpt lat="45.656289" lon="-73.5036466"/>
      <trkpt lat="45.6569284" lon="-73.5034369"/>
      <trkpt lat="45.6574419" lon="-73.5067399"/>
      <trkpt lat="45.6577974" lon="-73.5088973"/>
      <trkpt lat="45.6584192" lon="-73.5086816"/>
      <trkpt lat="45.6584534" lon="-73.5089054"/>
      <trkpt lat="45.6578316" lon="-73.5091206"/>
      <trkpt lat="45.6569065" lon="-73.509442"/>
      <trkpt lat="45.6562615" lon="-73.5096624"/>
      <trkpt lat="45.6555347" lon="-73.5099132"/>
      <trkpt lat="45.6547727" lon="-73.5101766"/>
      <trkpt lat="45.6539776" lon="-73.5104505"/>
      <trkpt lat="45.6528497" lon="-73.5108397"/>
      <trkpt lat="45.6533173" lon="-73.5137644"/>
      <trkpt lat="45.6537719" lon="-73.51679"/>
      <trkpt lat="45.6543015" lon="-73.5194321"/>
      <trkpt lat="45.6555081" lon="-73.5212868"/>
      <trkpt lat="45.6576777" lon="-73.5193695"/>
      <trkpt lat="45.6637895" lon="-73.517625"/>
      <trkpt lat="45.6664171" lon="-73.5181114"/>
      <trkpt lat="45.6706043" lon="-73.5199997"/>
      <trkpt lat="45.6649692" lon="-73.5326617"/>
      <trkpt lat="45.6643973" lon="-73.5335967"/>
      <trkpt lat="45.6632084" lon="-73.5355057"/>
      <trkpt lat="45.6627416" lon="-73.5363174"/>
      <trkpt lat="45.6603326" lon="-73.5402948"/>
      <trkpt lat="45.6593747" lon="-73.5418642"/>
      <trkpt lat="45.6593117" lon="-73.5419608"/>
      <trkpt lat="45.6592327" lon="-73.5418747"/>
      <trkpt lat="45.6593074" lon="-73.5417657"/>
      <trkpt lat="45.6593747" lon="-73.5418642"/>
      <trkpt lat="45.6593117" lon="-73.5419608"/>
      <trkpt lat="45.6592327" lon="-73.5418747"/>
      <trkpt lat="45.6577648" lon="-73.5401786"/>
      <trkpt lat="45.6539572" lon="-73.5374045"/>
      <trkpt lat="45.6523755" lon="-73.5363328"/>
      <trkpt lat="45.6499574" lon="-73.5413441"/>
      <trkpt lat="45.6464945" lon="-73.5484808"/>
      <trkpt lat="45.6444619" lon="-73.5525018"/>
      <trkpt lat="45.6440444" lon="-73.5532533"/>
      <trkpt lat="45.643819" lon="-73.5536384"/>
      <trkpt lat="45.6439162" lon="-73.5543615"/>
      <trkpt lat="45.6456109" lon="-73.5561263"/>
      <trkpt lat="45.6477266" lon="-73.5583497"/>
      <trkpt lat="45.648158" lon="-73.5582615"/>
      <trkpt lat="45.6483749" lon="-73.5578372"/>
      <trkpt lat="45.6510661" lon="-73.5607"/>
      <trkpt lat="45.6514791" lon="-73.5598867"/>
      <trkpt lat="45.6519366" lon="-73.5589937"/>
      <trkpt lat="45.6523647" lon="-73.5581599"/>
      <trkpt lat="45.6535337" lon="-73.5558381"/>
      <trkpt lat="45.6540634" lon="-73.5544116"/>
      <trkpt lat="45.6541831" lon="-73.5544902"/>
      <trkpt lat="45.6544141" lon="-73.5546541"/>
      <trkpt lat="45.6572603" lon="-73.5566178"/>
      <trkpt lat="45.659863" lon="-73.5584191"/>
      <trkpt lat="45.6610964" lon="-73.5592899"/>
      <trkpt lat="45.6616048" lon="-73.5583689"/>
      <trkpt lat="45.6633196" lon="-73.5559715"/>
      <trkpt lat="45.6646265" lon="-73.5543825"/>
      <trkpt lat="45.6659815" lon="-73.5527111"/>
      <trkpt lat="45.6685059" lon="-73.5486153"/>
      <trkpt lat="45.666039" lon="-73.5468398"/>
      <trkpt lat="45.6598046" lon="-73.5423451"/>
      <trkpt lat="45.6593117" lon="-73.5419608"/>
      <trkpt lat="45.6592327" lon="-73.5418747"/>
      <trkpt lat="45.6593074" lon="-73.5417657"/>
      <trkpt lat="45.6602722" lon="-73.5402208"/>
      <trkpt lat="45.6631381" lon="-73.5354463"/>
      <trkpt lat="45.6643321" lon="-73.5335077"/>
      <trkpt lat="45.6649692" lon="-73.5326617"/>
      <trkpt lat="45.6643973" lon="-73.5335967"/>
      <trkpt lat="45.6658329" lon="-73.5346642"/>
      <trkpt lat="45.665471" lon="-73.5356343"/>
      <trkpt lat="45.6607072" lon="-73.5320642"/>
      <trkpt lat="45.6561783" lon="-73.5285881"/>
      <trkpt lat="45.656043" lon="-73.5285003"/>
      <trkpt lat="45.6587055" lon="-73.5229209"/>
      <trkpt lat="45.6588257" lon="-73.5226287"/>
      <trkpt lat="45.6581657" lon="-73.5208498"/>
      <trkpt lat="45.6566663" lon="-73.5211274"/>
      <trkpt lat="45.6545134" lon="-73.5230422"/>
      <trkpt lat="45.652018" lon="-73.5252436"/>
      <trkpt lat="45.6502931" lon="-73.5267474"/>
      <trkpt lat="45.6491289" lon="-73.5293242"/>
      <trkpt lat="45.648858" lon="-73.5295475"/>
      <trkpt lat="45.6487485" lon="-73.5296059"/>
      <trkpt lat="45.6475464" lon="-73.5268885"/>
      <trkpt lat="45.6476084" lon="-73.5267738"/>
      <trkpt lat="45.647957" lon="-73.5265096"/>
      <trkpt lat="45.6495002" lon="-73.5266649"/>
      <trkpt lat="45.6512179" lon="-73.5250935"/>
      <trkpt lat="45.6530332" lon="-73.5234912"/>
      <trkpt lat="45.6545164" lon="-73.5221872"/>
      <trkpt lat="45.6548052" lon="-73.5219127"/>
      <trkpt lat="45.6555081" lon="-73.5212868"/>
      <trkpt lat="45.6576777" lon="-73.5193695"/>
      <trkpt lat="45.6637895" lon="-73.517625"/>
      <trkpt lat="45.6664171" lon="-73.5181114"/>
      <trkpt lat="45.6706043" lon="-73.5199997"/>
      <trkpt lat="45.6669949" lon="-73.519137"/>
      <trkpt lat="45.6662095" lon="-73.5189662"/>
      <trkpt lat="45.6655471" lon="-73.5188441"/>
      <trkpt lat="45.6644197" lon="-73.5186228"/>
      <trkpt lat="45.6587963" lon="-73.5194463"/>
      <trkpt lat="45.6566663" lon="-73.5211274"/>
      <trkpt lat="45.6545134" lon="-73.5230422"/>
      <trkpt lat="45.652018" lon="-73.5252436"/>
      <trkpt lat="45.6502931" lon="-73.5267474"/>
      <trkpt lat="45.6491289" lon="-73.5293242"/>
      <trkpt lat="45.648858" lon="-73.5295475"/>
      <trkpt lat="45.6487485" lon="-73.5296059"/>
      <trkpt lat="45.6475464" lon="-73.5268885"/>
      <trkpt lat="45.6476084" lon="-73.5267738"/>
      <trkpt lat="45.647957" lon="-73.5265096"/>
      <trkpt lat="45.6495002" lon="-73.5266649"/>
      <trkpt lat="45.6512179" lon="-73.5250935"/>
      <trkpt lat="45.6530332" lon="-73.5234912"/>
      <trkpt lat="45.6545164" lon="-73.5221872"/>
      <trkpt lat="45.6548052" lon="-73.5219127"/>
      <trkpt lat="45.6541805" lon="-73.519538"/>
      <trkpt lat="45.653653" lon="-73.5168257"/>
      <trkpt lat="45.6531738" lon="-73.5138067"/>
      <trkpt lat="45.6527328" lon="-73.5108796"/>
      <trkpt lat="45.6510841" lon="-73.5114504"/>
      <trkpt lat="45.650545" lon="-73.511635"/>
      <trkpt lat="45.6491494" lon="-73.5121166"/>
      <trkpt lat="45.6486095" lon="-73.512303"/>
      <trkpt lat="45.6469994" lon="-73.5128586"/>
      <trkpt lat="45.6465689" lon="-73.5130078"/>
      <trkpt lat="45.6461742" lon="-73.5131445"/>
      <trkpt lat="45.6456517" lon="-73.5133255"/>
      <trkpt lat="45.6449813" lon="-73.5135612"/>
      <trkpt lat="45.6438353" lon="-73.5139521"/>
      <trkpt lat="45.6441159" lon="-73.5156587"/>
      <trkpt lat="45.6441819" lon="-73.5160665"/>
      <trkpt lat="45.6440784" lon="-73.5160979"/>
      <trkpt lat="45.644011" lon="-73.5156889"/>
      <trkpt lat="45.643749" lon="-73.5139794"/>
      <trkpt lat="45.6428197" lon="-73.5143042"/>
      <trkpt lat="45.6420337" lon="-73.5145691"/>
      <trkpt lat="45.6413773" lon="-73.5147859"/>
      <trkpt lat="45.641" lon="-73.5149146"/>
      <trkpt lat="45.6407332" lon="-73.5150057"/>
      <trkpt lat="45.6400445" lon="-73.5152398"/>
      <trkpt lat="45.6387606" lon="-73.5156763"/>
      <trkpt lat="45.6387332" lon="-73.5155208"/>
      <trkpt lat="45.6400178" lon="-73.5150595"/>
      <trkpt lat="45.6407017" lon="-73.5148382"/>
      <trkpt lat="45.6409877" lon="-73.5147484"/>
      <trkpt lat="45.6413483" lon="-73.5146327"/>
      <trkpt lat="45.6420024" lon="-73.5143982"/>
      <trkpt lat="45.6427801" lon="-73.5141177"/>
      <trkpt lat="45.6437186" lon="-73.5137815"/>
      <trkpt lat="45.6438075" lon="-73.513748"/>
      <trkpt lat="45.6449475" lon="-73.5133789"/>
      <trkpt lat="45.6456249" lon="-73.5131399"/>
      <trkpt lat="45.6461424" lon="-73.5129647"/>
      <trkpt lat="45.646536" lon="-73.5128148"/>
      <trkpt lat="45.6469674" lon="-73.5126506"/>
      <trkpt lat="45.6485748" lon="-73.5120932"/>
      <trkpt lat="45.6491126" lon="-73.5119067"/>
      <trkpt lat="45.6505102" lon="-73.5114221"/>
      <trkpt lat="45.6510396" lon="-73.5112385"/>
      <trkpt lat="45.6527001" lon="-73.5106624"/>
      <trkpt lat="45.652815" lon="-73.510623"/>
      <trkpt lat="45.6528497" lon="-73.5108397"/>
      <trkpt lat="45.6527328" lon="-73.5108796"/>
      <trkpt lat="45.6527001" lon="-73.5106624"/>
      <trkpt lat="45.652815" lon="-73.510623"/>
      <trkpt lat="45.6538142" lon="-73.5102862"/>
      <trkpt lat="45.6546551" lon="-73.5099955"/>
      <trkpt lat="45.6555106" lon="-73.5096894"/>
      <trkpt lat="45.6551984" lon="-73.5077201"/>
      <trkpt lat="45.6541723" lon="-73.5076276"/>
      <trkpt lat="45.6533571" lon="-73.5078803"/>
      <trkpt lat="45.652454" lon="-73.5081558"/>
      <trkpt lat="45.652329" lon="-73.5081988"/>
      <trkpt lat="45.6514396" lon="-73.5023607"/>
      <trkpt lat="45.6512639" lon="-73.5012475"/>
      <trkpt lat="45.6511459" lon="-73.5004999"/>
      <trkpt lat="45.651003" lon="-73.4995947"/>
      <trkpt lat="45.6508827" lon="-73.4988323"/>
      <trkpt lat="45.6505117" lon="-73.4964157"/>
      <trkpt lat="45.650304" lon="-73.4950633"/>
      <trkpt lat="45.6498135" lon="-73.4928108"/>
      <trkpt lat="45.6494302" lon="-73.4907846"/>
      <trkpt lat="45.6489962" lon="-73.4879231"/>
      <trkpt lat="45.6454345" lon="-73.4893285"/>
      <trkpt lat="45.6447389" lon="-73.4895858"/>
      <trkpt lat="45.6441201" lon="-73.489704"/>
      <trkpt lat="45.6447389" lon="-73.4895858"/>
      <trkpt lat="45.6454345" lon="-73.4893285"/>
      <trkpt lat="45.6489962" lon="-73.4879231"/>
      <trkpt lat="45.6491335" lon="-73.4879127"/>
      <trkpt lat="45.6497095" lon="-73.4880168"/>
      <trkpt lat="45.6512047" lon="-73.4888491"/>
      <trkpt lat="45.6521059" lon="-73.4894442"/>
      <trkpt lat="45.6528404" lon="-73.4898064"/>
      <trkpt lat="45.6536157" lon="-73.4900922"/>
      <trkpt lat="45.6546359" lon="-73.4905567"/>
      <trkpt lat="45.6536157" lon="-73.4900922"/>
      <trkpt lat="45.6528404" lon="-73.4898064"/>
      <trkpt lat="45.6521059" lon="-73.4894442"/>
      <trkpt lat="45.6512047" lon="-73.4888491"/>
      <trkpt lat="45.6497095" lon="-73.4880168"/>
      <trkpt lat="45.6491335" lon="-73.4879127"/>
      <trkpt lat="45.6497095" lon="-73.4880168"/>
      <trkpt lat="45.6512047" lon="-73.4888491"/>
      <trkpt lat="45.6521059" lon="-73.4894442"/>
      <trkpt lat="45.6528404" lon="-73.4898064"/>
      <trkpt lat="45.6536157" lon="-73.4900922"/>
      <trkpt lat="45.6546359" lon="-73.4905567"/>
      <trkpt lat="45.6551962" lon="-73.4909777"/>
      <trkpt lat="45.6557926" lon="-73.4913894"/>
      <trkpt lat="45.6564873" lon="-73.4918648"/>
      <trkpt lat="45.6567209" lon="-73.491978"/>
      <trkpt lat="45.6577106" lon="-73.4923333"/>
      <trkpt lat="45.6585149" lon="-73.4925999"/>
      <trkpt lat="45.6606981" lon="-73.4931626"/>
      <trkpt lat="45.6608613" lon="-73.4932016"/>
      <trkpt lat="45.6618589" lon="-73.4934268"/>
      <trkpt lat="45.6608613" lon="-73.4932016"/>
      <trkpt lat="45.6618589" lon="-73.4934268"/>
      <trkpt lat="45.6627652" lon="-73.4936373"/>
      <trkpt lat="45.6635955" lon="-73.4938272"/>
      <trkpt lat="45.6627652" lon="-73.4936373"/>
      <trkpt lat="45.6635955" lon="-73.4938272"/>
      <trkpt lat="45.6643285" lon="-73.4940014"/>
      <trkpt lat="45.6675582" lon="-73.4943689"/>
      <trkpt lat="45.669744" lon="-73.4942408"/>
      <trkpt lat="45.6704631" lon="-73.494047"/>
      <trkpt lat="45.6708572" lon="-73.493947"/>
      <trkpt lat="45.671623" lon="-73.4937635"/>
      <trkpt lat="45.6723798" lon="-73.4935739"/>
      <trkpt lat="45.6731038" lon="-73.4933749"/>
      <trkpt lat="45.6737271" lon="-73.4932343"/>
      <trkpt lat="45.6745792" lon="-73.4930503"/>
      <trkpt lat="45.6754239" lon="-73.4928724"/>
      <trkpt lat="45.6760699" lon="-73.4927365"/>
      <trkpt lat="45.6761218" lon="-73.4927275"/>
      <trkpt lat="45.6764196" lon="-73.4926665"/>
      <trkpt lat="45.6770898" lon="-73.4925367"/>
      <trkpt lat="45.6773508" lon="-73.492484"/>
      <trkpt lat="45.6779724" lon="-73.4923697"/>
      <trkpt lat="45.6785985" lon="-73.4922523"/>
      <trkpt lat="45.6788728" lon="-73.4922057"/>
      <trkpt lat="45.6793352" lon="-73.4921006"/>
      <trkpt lat="45.6827707" lon="-73.4911627"/>
      <trkpt lat="45.6849027" lon="-73.4905846"/>
      <trkpt lat="45.6873057" lon="-73.4899213"/>
      <trkpt lat="45.6875249" lon="-73.4898581"/>
      <trkpt lat="45.6882452" lon="-73.4896589"/>
      <trkpt lat="45.689027" lon="-73.4894494"/>
      <trkpt lat="45.6898077" lon="-73.4892309"/>
      <trkpt lat="45.6905225" lon="-73.4890304"/>
      <trkpt lat="45.6918602" lon="-73.4886641"/>
      <trkpt lat="45.6925873" lon="-73.488462"/>
      <trkpt lat="45.6933914" lon="-73.488243"/>
      <trkpt lat="45.6953901" lon="-73.4872394"/>
      <trkpt lat="45.6975437" lon="-73.4848259"/>
      <trkpt lat="45.6983659" lon="-73.4842578"/>
      <trkpt lat="45.6985622" lon="-73.4840939"/>
      <trkpt lat="45.6986958" lon="-73.4844962"/>
      <trkpt lat="45.698559" lon="-73.4852737"/>
      <trkpt lat="45.6982502" lon="-73.4878427"/>
      <trkpt lat="45.6981124" lon="-73.4889203"/>
      <trkpt lat="45.6975306" lon="-73.4909401"/>
      <trkpt lat="45.6974483" lon="-73.4911438"/>
      <trkpt lat="45.6971071" lon="-73.4918539"/>
      <trkpt lat="45.6960372" lon="-73.4939131"/>
      <trkpt lat="45.6941425" lon="-73.4962779"/>
      <trkpt lat="45.6903543" lon="-73.4978486"/>
      <trkpt lat="45.6888278" lon="-73.498295"/>
      <trkpt lat="45.6840047" lon="-73.4999527"/>
      <trkpt lat="45.6810459" lon="-73.5009609"/>
      <trkpt lat="45.6790404" lon="-73.5016608"/>
      <trkpt lat="45.6769948" lon="-73.5023747"/>
      <trkpt lat="45.6721382" lon="-73.5040694"/>
      <trkpt lat="45.6714426" lon="-73.5043122"/>
      <trkpt lat="45.6707317" lon="-73.5045602"/>
      <trkpt lat="45.6705956" lon="-73.5046077"/>
      <trkpt lat="45.6694618" lon="-73.5052215"/>
      <trkpt lat="45.6693661" lon="-73.5052823"/>
      <trkpt lat="45.6688644" lon="-73.5056509"/>
      <trkpt lat="45.6687885" lon="-73.505718"/>
      <trkpt lat="45.6681191" lon="-73.5063097"/>
      <trkpt lat="45.6660448" lon="-73.5086521"/>
      <trkpt lat="45.6654603" lon="-73.5099158"/>
      <trkpt lat="45.6648416" lon="-73.511128"/>
      <trkpt lat="45.6644058" lon="-73.5119972"/>
      <trkpt lat="45.6634235" lon="-73.5140121"/>
      <trkpt lat="45.6625049" lon="-73.5158268"/>
      <trkpt lat="45.6637895" lon="-73.517625"/>
      <trkpt lat="45.6664171" lon="-73.5181114"/>
      <trkpt lat="45.6679046" lon="-73.5186951"/>
      <trkpt lat="45.693156" lon="-73.509964"/>
      <trkpt lat="45.6989725" lon="-73.5084983"/>
      <trkpt lat="45.6967784" lon="-73.5002439"/>
      <trkpt lat="45.6971202" lon="-73.4981919"/>
      <trkpt lat="45.6967784" lon="-73.5002439"/>
      <trkpt lat="45.6989725" lon="-73.5084983"/>
      <trkpt lat="45.6987395" lon="-73.5096424"/>
      <trkpt lat="45.6768183" lon="-73.5353083"/>
      <trkpt lat="45.675381" lon="-73.5369672"/>
      <trkpt lat="45.6746919" lon="-73.5378808"/>
      <trkpt lat="45.673129" lon="-73.5401332"/>
      <trkpt lat="45.6746919" lon="-73.5378808"/>
      <trkpt lat="45.675381" lon="-73.5369672"/>
      <trkpt lat="45.6746919" lon="-73.5378808"/>
      <trkpt lat="45.673129" lon="-73.5401332"/>
      <trkpt lat="45.6725465" lon="-73.540956"/>
      <trkpt lat="45.6719376" lon="-73.5420185"/>
      <trkpt lat="45.6712989" lon="-73.5415369"/>
      <trkpt lat="45.6685059" lon="-73.5486153"/>
      <trkpt lat="45.6706026" lon="-73.5505305"/>
      <trkpt lat="45.6719376" lon="-73.5420185"/>
      <trkpt lat="45.6712989" lon="-73.5415369"/>
      <trkpt lat="45.6719376" lon="-73.5420185"/>
      <trkpt lat="45.6712989" lon="-73.5415369"/>
      <trkpt lat="45.6685059" lon="-73.5486153"/>
      <trkpt lat="45.6712989" lon="-73.5415369"/>
      <trkpt lat="45.6685059" lon="-73.5486153"/>
      <trkpt lat="45.666039" lon="-73.5468398"/>
      <trkpt lat="45.6598046" lon="-73.5423451"/>
      <trkpt lat="45.6593117" lon="-73.5419608"/>
      <trkpt lat="45.6592327" lon="-73.5418747"/>
      <trkpt lat="45.6593074" lon="-73.5417657"/>
      <trkpt lat="45.6602722" lon="-73.5402208"/>
      <trkpt lat="45.6631381" lon="-73.5354463"/>
      <trkpt lat="45.6643321" lon="-73.5335077"/>
      <trkpt lat="45.6643973" lon="-73.5335967"/>
      <trkpt lat="45.6658329" lon="-73.5346642"/>
      <trkpt lat="45.665471" lon="-73.5356343"/>
      <trkpt lat="45.6607072" lon="-73.5320642"/>
      <trkpt lat="45.6561783" lon="-73.5285881"/>
      <trkpt lat="45.656043" lon="-73.5285003"/>
      <trkpt lat="45.6587055" lon="-73.5229209"/>
      <trkpt lat="45.6588257" lon="-73.5226287"/>
      <trkpt lat="45.6596948" lon="-73.5199611"/>
      <trkpt lat="45.6609293" lon="-73.516146"/>
      <trkpt lat="45.6615933" lon="-73.5152429"/>
      <trkpt lat="45.6619002" lon="-73.5148202"/>
      <trkpt lat="45.6629469" lon="-73.5134088"/>
      <trkpt lat="45.6636085" lon="-73.5124587"/>
      <trkpt lat="45.6637691" lon="-73.5121927"/>
      <trkpt lat="45.6642894" lon="-73.5112746"/>
      <trkpt lat="45.6648149" lon="-73.5101813"/>
      <trkpt lat="45.6643707" lon="-73.5078762"/>
      <trkpt lat="45.6637589" lon="-73.5080711"/>
      <trkpt lat="45.6636073" lon="-73.5071227"/>
      <trkpt lat="45.6628308" lon="-73.5073972"/>
      <trkpt lat="45.6605613" lon="-73.5081828"/>
      <trkpt lat="45.6605382" lon="-73.5080134"/>
      <trkpt lat="45.6603867" lon="-73.5070512"/>
      <trkpt lat="45.6587113" lon="-73.5063355"/>
      <trkpt lat="45.6580804" lon="-73.5065378"/>
      <trkpt lat="45.6574419" lon="-73.5067399"/>
      <trkpt lat="45.6569284" lon="-73.5034369"/>
      <trkpt lat="45.656289" lon="-73.5036466"/>
      <trkpt lat="45.6556112" lon="-73.5038892"/>
      <trkpt lat="45.6549561" lon="-73.5041066"/>
      <trkpt lat="45.6527481" lon="-73.5025987"/>
      <trkpt lat="45.6515665" lon="-73.502322"/>
      <trkpt lat="45.652454" lon="-73.5081558"/>
      <trkpt lat="45.652815" lon="-73.510623"/>
      <trkpt lat="45.6538142" lon="-73.5102862"/>
      <trkpt lat="45.6546551" lon="-73.5099955"/>
      <trkpt lat="45.6555106" lon="-73.5096894"/>
      <trkpt lat="45.6562264" lon="-73.5094415"/>
      <trkpt lat="45.6568559" lon="-73.509226"/>
      <trkpt lat="45.6577974" lon="-73.5088973"/>
      <trkpt lat="45.6584192" lon="-73.5086816"/>
      <trkpt lat="45.6605382" lon="-73.5080134"/>
      <trkpt lat="45.6603867" lon="-73.5070512"/>
      <trkpt lat="45.6587113" lon="-73.5063355"/>
      <trkpt lat="45.6580804" lon="-73.5065378"/>
      <trkpt lat="45.6574419" lon="-73.5067399"/>
      <trkpt lat="45.6569284" lon="-73.5034369"/>
      <trkpt lat="45.656289" lon="-73.5036466"/>
      <trkpt lat="45.6556112" lon="-73.5038892"/>
      <trkpt lat="45.6549561" lon="-73.5041066"/>
      <trkpt lat="45.6527481" lon="-73.5025987"/>
      <trkpt lat="45.6515665" lon="-73.502322"/>
      <trkpt lat="45.6527481" lon="-73.5025987"/>
      <trkpt lat="45.6515665" lon="-73.502322"/>
      <trkpt lat="45.6514396" lon="-73.5023607"/>
      <trkpt lat="45.6512639" lon="-73.5012475"/>
      <trkpt lat="45.6511459" lon="-73.5004999"/>
      <trkpt lat="45.651003" lon="-73.4995947"/>
      <trkpt lat="45.6508827" lon="-73.4988323"/>
      <trkpt lat="45.6505117" lon="-73.4964157"/>
      <trkpt lat="45.650304" lon="-73.4950633"/>
      <trkpt lat="45.6498135" lon="-73.4928108"/>
      <trkpt lat="45.6499512" lon="-73.4927844"/>
      <trkpt lat="45.6504269" lon="-73.4950209"/>
      <trkpt lat="45.6506377" lon="-73.4963655"/>
      <trkpt lat="45.6510134" lon="-73.4987917"/>
      <trkpt lat="45.6511326" lon="-73.4995531"/>
      <trkpt lat="45.6512735" lon="-73.5004533"/>
      <trkpt lat="45.6513926" lon="-73.5012131"/>
      <trkpt lat="45.6515665" lon="-73.502322"/>
      <trkpt lat="45.6514396" lon="-73.5023607"/>
      <trkpt lat="45.6512639" lon="-73.5012475"/>
      <trkpt lat="45.6511459" lon="-73.5004999"/>
      <trkpt lat="45.651003" lon="-73.4995947"/>
      <trkpt lat="45.6508827" lon="-73.4988323"/>
      <trkpt lat="45.6505117" lon="-73.4964157"/>
      <trkpt lat="45.650304" lon="-73.4950633"/>
      <trkpt lat="45.6498135" lon="-73.4928108"/>
      <trkpt lat="45.6484249" lon="-73.4926131"/>
      <trkpt lat="45.6459121" lon="-73.4921924"/>
      <trkpt lat="45.6451037" lon="-73.4920808"/>
      <trkpt lat="45.6444362" lon="-73.4920378"/>
      <trkpt lat="45.6437779" lon="-73.4920451"/>
      <trkpt lat="45.6436994" lon="-73.4915712"/>
      <trkpt lat="45.6430463" lon="-73.4916216"/>
      <trkpt lat="45.6423241" lon="-73.4916811"/>
      <trkpt lat="45.6420451" lon="-73.4898995"/>
      <trkpt lat="45.6427719" lon="-73.4898257"/>
      <trkpt lat="45.6420451" lon="-73.4898995"/>
      <trkpt lat="45.6413005" lon="-73.4899863"/>
      <trkpt lat="45.6399858" lon="-73.4902341"/>
      <trkpt lat="45.6413005" lon="-73.4899863"/>
      <trkpt lat="45.6420451" lon="-73.4898995"/>
      <trkpt lat="45.6427719" lon="-73.4898257"/>
      <trkpt lat="45.6434282" lon="-73.4897694"/>
      <trkpt lat="45.6441201" lon="-73.489704"/>
      <trkpt lat="45.6447389" lon="-73.4895858"/>
      <trkpt lat="45.6454345" lon="-73.4893285"/>
      <trkpt lat="45.6489962" lon="-73.4879231"/>
      <trkpt lat="45.6491335" lon="-73.4879127"/>
      <trkpt lat="45.6497095" lon="-73.4880168"/>
      <trkpt lat="45.6512047" lon="-73.4888491"/>
      <trkpt lat="45.6521059" lon="-73.4894442"/>
      <trkpt lat="45.6528404" lon="-73.4898064"/>
      <trkpt lat="45.6536157" lon="-73.4900922"/>
      <trkpt lat="45.6546359" lon="-73.4905567"/>
      <trkpt lat="45.6551962" lon="-73.4909777"/>
      <trkpt lat="45.6557926" lon="-73.4913894"/>
      <trkpt lat="45.6564873" lon="-73.4918648"/>
      <trkpt lat="45.6567209" lon="-73.491978"/>
      <trkpt lat="45.6577106" lon="-73.4923333"/>
      <trkpt lat="45.6585149" lon="-73.4925999"/>
      <trkpt lat="45.6606981" lon="-73.4931626"/>
      <trkpt lat="45.6608613" lon="-73.4932016"/>
      <trkpt lat="45.6618589" lon="-73.4934268"/>
      <trkpt lat="45.6627652" lon="-73.4936373"/>
      <trkpt lat="45.6635955" lon="-73.4938272"/>
      <trkpt lat="45.6643285" lon="-73.4940014"/>
      <trkpt lat="45.6675582" lon="-73.4943689"/>
      <trkpt lat="45.669744" lon="-73.4942408"/>
      <trkpt lat="45.6704631" lon="-73.494047"/>
      <trkpt lat="45.6708572" lon="-73.493947"/>
      <trkpt lat="45.671623" lon="-73.4937635"/>
      <trkpt lat="45.6723798" lon="-73.4935739"/>
      <trkpt lat="45.6731038" lon="-73.4933749"/>
      <trkpt lat="45.6737271" lon="-73.4932343"/>
      <trkpt lat="45.6745792" lon="-73.4930503"/>
      <trkpt lat="45.6754239" lon="-73.4928724"/>
      <trkpt lat="45.6760699" lon="-73.4927365"/>
      <trkpt lat="45.6761218" lon="-73.4927275"/>
      <trkpt lat="45.6764196" lon="-73.4926665"/>
      <trkpt lat="45.6770898" lon="-73.4925367"/>
      <trkpt lat="45.6773508" lon="-73.492484"/>
      <trkpt lat="45.6779724" lon="-73.4923697"/>
      <trkpt lat="45.6785985" lon="-73.4922523"/>
      <trkpt lat="45.6788728" lon="-73.4922057"/>
      <trkpt lat="45.6793352" lon="-73.4921006"/>
      <trkpt lat="45.6827707" lon="-73.4911627"/>
      <trkpt lat="45.6849027" lon="-73.4905846"/>
      <trkpt lat="45.6873057" lon="-73.4899213"/>
      <trkpt lat="45.6875249" lon="-73.4898581"/>
      <trkpt lat="45.6882452" lon="-73.4896589"/>
      <trkpt lat="45.689027" lon="-73.4894494"/>
      <trkpt lat="45.6898077" lon="-73.4892309"/>
      <trkpt lat="45.6905225" lon="-73.4890304"/>
      <trkpt lat="45.6918602" lon="-73.4886641"/>
      <trkpt lat="45.6925873" lon="-73.488462"/>
      <trkpt lat="45.6933914" lon="-73.488243"/>
      <trkpt lat="45.6953901" lon="-73.4872394"/>
      <trkpt lat="45.6975437" lon="-73.4848259"/>
      <trkpt lat="45.6983659" lon="-73.4842578"/>
      <trkpt lat="45.6985622" lon="-73.4840939"/>
      <trkpt lat="45.6986958" lon="-73.4844962"/>
      <trkpt lat="45.698559" lon="-73.4852737"/>
      <trkpt lat="45.6982502" lon="-73.4878427"/>
      <trkpt lat="45.6981124" lon="-73.4889203"/>
      <trkpt lat="45.6975306" lon="-73.4909401"/>
      <trkpt lat="45.6974483" lon="-73.4911438"/>
      <trkpt lat="45.6971071" lon="-73.4918539"/>
      <trkpt lat="45.6972749" lon="-73.4921563"/>
      <trkpt lat="45.6976124" lon="-73.4942831"/>
      <trkpt lat="45.6976892" lon="-73.4948018"/>
      <trkpt lat="45.6974271" lon="-73.4972317"/>
      <trkpt lat="45.6971202" lon="-73.4981919"/>
      <trkpt lat="45.6967784" lon="-73.5002439"/>
      <trkpt lat="45.6989725" lon="-73.5084983"/>
      <trkpt lat="45.6987395" lon="-73.5096424"/>
      <trkpt lat="45.6768183" lon="-73.5353083"/>
      <trkpt lat="45.6987395" lon="-73.5096424"/>
      <trkpt lat="45.6943672" lon="-73.5097206"/>
      <trkpt lat="45.6680989" lon="-73.5190277"/>
      <trkpt lat="45.6556099" lon="-73.5217508"/>
      <trkpt lat="45.6545134" lon="-73.5230422"/>
      <trkpt lat="45.652018" lon="-73.5252436"/>
      <trkpt lat="45.6502931" lon="-73.5267474"/>
      <trkpt lat="45.648456" lon="-73.5282754"/>
      <trkpt lat="45.6476605" lon="-73.5289984"/>
      <trkpt lat="45.6435134" lon="-73.5328099"/>
      <trkpt lat="45.6432061" lon="-73.5322335"/>
      <trkpt lat="45.6474885" lon="-73.5284758"/>
      <trkpt lat="45.6484187" lon="-73.5276493"/>
      <trkpt lat="45.6495002" lon="-73.5266649"/>
      <trkpt lat="45.6512179" lon="-73.5250935"/>
      <trkpt lat="45.6530332" lon="-73.5234912"/>
      <trkpt lat="45.6505521" lon="-73.5177776"/>
      <trkpt lat="45.6476566" lon="-73.5186882"/>
      <trkpt lat="45.6463796" lon="-73.5190659"/>
      <trkpt lat="45.6452139" lon="-73.5194241"/>
      <trkpt lat="45.6447579" lon="-73.5195644"/>
      <trkpt lat="45.6446421" lon="-73.5196058"/>
      <trkpt lat="45.6443364" lon="-73.5176652"/>
      <trkpt lat="45.6440784" lon="-73.5160979"/>
      <trkpt lat="45.644011" lon="-73.5156889"/>
      <trkpt lat="45.643749" lon="-73.5139794"/>
      <trkpt lat="45.6428197" lon="-73.5143042"/>
      <trkpt lat="45.6420337" lon="-73.5145691"/>
      <trkpt lat="45.6413773" lon="-73.5147859"/>
      <trkpt lat="45.641" lon="-73.5149146"/>
      <trkpt lat="45.6407332" lon="-73.5150057"/>
      <trkpt lat="45.6400445" lon="-73.5152398"/>
      <trkpt lat="45.6400178" lon="-73.5150595"/>
      <trkpt lat="45.6407017" lon="-73.5148382"/>
      <trkpt lat="45.6409877" lon="-73.5147484"/>
      <trkpt lat="45.6413483" lon="-73.5146327"/>
      <trkpt lat="45.6420024" lon="-73.5143982"/>
      <trkpt lat="45.6427801" lon="-73.5141177"/>
      <trkpt lat="45.6437186" lon="-73.5137815"/>
      <trkpt lat="45.643553" lon="-73.5126773"/>
      <trkpt lat="45.6434889" lon="-73.5122538"/>
      <trkpt lat="45.6433262" lon="-73.5112128"/>
      <trkpt lat="45.6429752" lon="-73.5089613"/>
      <trkpt lat="45.6425643" lon="-73.5064297"/>
      <trkpt lat="45.6422227" lon="-73.5043773"/>
      <trkpt lat="45.6418405" lon="-73.5020385"/>
      <trkpt lat="45.6419273" lon="-73.5020071"/>
      <trkpt lat="45.6423101" lon="-73.5043414"/>
      <trkpt lat="45.6426476" lon="-73.5064033"/>
      <trkpt lat="45.6430526" lon="-73.508946"/>
      <trkpt lat="45.6434037" lon="-73.5111731"/>
      <trkpt lat="45.6435681" lon="-73.5122265"/>
      <trkpt lat="45.6436384" lon="-73.5126515"/>
      <trkpt lat="45.6438075" lon="-73.513748"/>
      <trkpt lat="45.6438353" lon="-73.5139521"/>
      <trkpt lat="45.6441159" lon="-73.5156587"/>
      <trkpt lat="45.6441819" lon="-73.5160665"/>
      <trkpt lat="45.6444349" lon="-73.5176321"/>
      <trkpt lat="45.6446248" lon="-73.5188066"/>
      <trkpt lat="45.6447579" lon="-73.5195644"/>
      <trkpt lat="45.6446421" lon="-73.5196058"/>
      <trkpt lat="45.6443364" lon="-73.5176652"/>
      <trkpt lat="45.6440784" lon="-73.5160979"/>
      <trkpt lat="45.644011" lon="-73.5156889"/>
      <trkpt lat="45.643749" lon="-73.5139794"/>
      <trkpt lat="45.6428197" lon="-73.5143042"/>
      <trkpt lat="45.6427801" lon="-73.5141177"/>
      <trkpt lat="45.6437186" lon="-73.5137815"/>
      <trkpt lat="45.643553" lon="-73.5126773"/>
      <trkpt lat="45.6434889" lon="-73.5122538"/>
      <trkpt lat="45.6433262" lon="-73.5112128"/>
      <trkpt lat="45.6429752" lon="-73.5089613"/>
      <trkpt lat="45.6425643" lon="-73.5064297"/>
      <trkpt lat="45.6422227" lon="-73.5043773"/>
      <trkpt lat="45.6418405" lon="-73.5020385"/>
      <trkpt lat="45.6415859" lon="-73.5004689"/>
      <trkpt lat="45.6411104" lon="-73.4976004"/>
      <trkpt lat="45.6405944" lon="-73.4944775"/>
      <trkpt lat="45.6405043" lon="-73.4939321"/>
      <trkpt lat="45.6403022" lon="-73.4927093"/>
      <trkpt lat="45.6402235" lon="-73.4922643"/>
      <trkpt lat="45.6400808" lon="-73.4914023"/>
      <trkpt lat="45.640177" lon="-73.4913626"/>
      <trkpt lat="45.6403259" lon="-73.4922345"/>
      <trkpt lat="45.6403961" lon="-73.492669"/>
      <trkpt lat="45.6406016" lon="-73.4939094"/>
      <trkpt lat="45.6406871" lon="-73.4944315"/>
      <trkpt lat="45.6412007" lon="-73.4975692"/>
      <trkpt lat="45.641665" lon="-73.5004058"/>
      <trkpt lat="45.6419273" lon="-73.5020071"/>
      <trkpt lat="45.6423101" lon="-73.5043414"/>
      <trkpt lat="45.6426476" lon="-73.5064033"/>
      <trkpt lat="45.6430526" lon="-73.508946"/>
      <trkpt lat="45.6434037" lon="-73.5111731"/>
      <trkpt lat="45.6435681" lon="-73.5122265"/>
      <trkpt lat="45.6436384" lon="-73.5126515"/>
      <trkpt lat="45.6438075" lon="-73.513748"/>
      <trkpt lat="45.6438353" lon="-73.5139521"/>
      <trkpt lat="45.643749" lon="-73.5139794"/>
      <trkpt lat="45.6437186" lon="-73.5137815"/>
      <trkpt lat="45.643553" lon="-73.5126773"/>
      <trkpt lat="45.6434889" lon="-73.5122538"/>
      <trkpt lat="45.6433262" lon="-73.5112128"/>
      <trkpt lat="45.6429752" lon="-73.5089613"/>
      <trkpt lat="45.6425643" lon="-73.5064297"/>
      <trkpt lat="45.6422227" lon="-73.5043773"/>
      <trkpt lat="45.6418405" lon="-73.5020385"/>
      <trkpt lat="45.6415859" lon="-73.5004689"/>
      <trkpt lat="45.6411104" lon="-73.4976004"/>
      <trkpt lat="45.6412007" lon="-73.4975692"/>
      <trkpt lat="45.641665" lon="-73.5004058"/>
      <trkpt lat="45.6415859" lon="-73.5004689"/>
      <trkpt lat="45.6411104" lon="-73.4976004"/>
      <trkpt lat="45.6405944" lon="-73.4944775"/>
      <trkpt lat="45.6405043" lon="-73.4939321"/>
      <trkpt lat="45.6403022" lon="-73.4927093"/>
      <trkpt lat="45.6402235" lon="-73.4922643"/>
      <trkpt lat="45.6400808" lon="-73.4914023"/>
      <trkpt lat="45.6398943" lon="-73.4902566"/>
      <trkpt lat="45.6399858" lon="-73.4902341"/>
      <trkpt lat="45.6398943" lon="-73.4902566"/>
      <trkpt lat="45.6394712" lon="-73.4903953"/>
      <trkpt lat="45.6393381" lon="-73.4904625"/>
      <trkpt lat="45.6388918" lon="-73.4906911"/>
      <trkpt lat="45.6382549" lon="-73.4910409"/>
      <trkpt lat="45.6376097" lon="-73.4913822"/>
      <trkpt lat="45.6369823" lon="-73.4917171"/>
      <trkpt lat="45.6363537" lon="-73.4920515"/>
      <trkpt lat="45.6357089" lon="-73.4923917"/>
      <trkpt lat="45.6350669" lon="-73.4927138"/>
      <trkpt lat="45.6343466" lon="-73.4930698"/>
      <trkpt lat="45.6340944" lon="-73.4932503"/>
      <trkpt lat="45.6335738" lon="-73.4936228"/>
      <trkpt lat="45.6340944" lon="-73.4932503"/>
      <trkpt lat="45.6343466" lon="-73.4930698"/>
      <trkpt lat="45.6350669" lon="-73.4927138"/>
      <trkpt lat="45.6357089" lon="-73.4923917"/>
      <trkpt lat="45.6363537" lon="-73.4920515"/>
      <trkpt lat="45.6369823" lon="-73.4917171"/>
      <trkpt lat="45.6376097" lon="-73.4913822"/>
      <trkpt lat="45.6382549" lon="-73.4910409"/>
      <trkpt lat="45.6388918" lon="-73.4906911"/>
      <trkpt lat="45.6393381" lon="-73.4904625"/>
      <trkpt lat="45.6394712" lon="-73.4903953"/>
      <trkpt lat="45.6398943" lon="-73.4902566"/>
      <trkpt lat="45.6399858" lon="-73.4902341"/>
      <trkpt lat="45.6413005" lon="-73.4899863"/>
      <trkpt lat="45.6420451" lon="-73.4898995"/>
      <trkpt lat="45.6427719" lon="-73.4898257"/>
      <trkpt lat="45.6434282" lon="-73.4897694"/>
      <trkpt lat="45.6427719" lon="-73.4898257"/>
      <trkpt lat="45.6434282" lon="-73.4897694"/>
      <trkpt lat="45.6441201" lon="-73.489704"/>
      <trkpt lat="45.6434282" lon="-73.4897694"/>
      <trkpt lat="45.6441201" lon="-73.489704"/>
      <trkpt lat="45.6447389" lon="-73.4895858"/>
      <trkpt lat="45.6454345" lon="-73.4893285"/>
      <trkpt lat="45.6489962" lon="-73.4879231"/>
      <trkpt lat="45.6491335" lon="-73.4879127"/>
      <trkpt lat="45.6497095" lon="-73.4880168"/>
      <trkpt lat="45.6512047" lon="-73.4888491"/>
      <trkpt lat="45.6521059" lon="-73.4894442"/>
      <trkpt lat="45.6528404" lon="-73.4898064"/>
      <trkpt lat="45.6536157" lon="-73.4900922"/>
      <trkpt lat="45.6546359" lon="-73.4905567"/>
      <trkpt lat="45.6551962" lon="-73.4909777"/>
      <trkpt lat="45.6557926" lon="-73.4913894"/>
      <trkpt lat="45.6564873" lon="-73.4918648"/>
      <trkpt lat="45.6567209" lon="-73.491978"/>
      <trkpt lat="45.6577106" lon="-73.4923333"/>
      <trkpt lat="45.6585149" lon="-73.4925999"/>
      <trkpt lat="45.6606981" lon="-73.4931626"/>
      <trkpt lat="45.6608613" lon="-73.4932016"/>
      <trkpt lat="45.6618589" lon="-73.4934268"/>
      <trkpt lat="45.6627652" lon="-73.4936373"/>
      <trkpt lat="45.6635955" lon="-73.4938272"/>
      <trkpt lat="45.6643285" lon="-73.4940014"/>
      <trkpt lat="45.6675582" lon="-73.4943689"/>
      <trkpt lat="45.669744" lon="-73.4942408"/>
      <trkpt lat="45.6704631" lon="-73.494047"/>
      <trkpt lat="45.6708572" lon="-73.493947"/>
      <trkpt lat="45.671623" lon="-73.4937635"/>
      <trkpt lat="45.6723798" lon="-73.4935739"/>
      <trkpt lat="45.6731038" lon="-73.4933749"/>
      <trkpt lat="45.6737271" lon="-73.4932343"/>
      <trkpt lat="45.6745792" lon="-73.4930503"/>
      <trkpt lat="45.6754239" lon="-73.4928724"/>
      <trkpt lat="45.6760699" lon="-73.4927365"/>
      <trkpt lat="45.6761218" lon="-73.4927275"/>
      <trkpt lat="45.6764196" lon="-73.4926665"/>
      <trkpt lat="45.6770898" lon="-73.4925367"/>
      <trkpt lat="45.6773508" lon="-73.492484"/>
      <trkpt lat="45.6779724" lon="-73.4923697"/>
      <trkpt lat="45.6785985" lon="-73.4922523"/>
      <trkpt lat="45.6788728" lon="-73.4922057"/>
      <trkpt lat="45.6793352" lon="-73.4921006"/>
      <trkpt lat="45.6827707" lon="-73.4911627"/>
      <trkpt lat="45.6849027" lon="-73.4905846"/>
      <trkpt lat="45.6873057" lon="-73.4899213"/>
      <trkpt lat="45.6875249" lon="-73.4898581"/>
      <trkpt lat="45.6882452" lon="-73.4896589"/>
      <trkpt lat="45.689027" lon="-73.4894494"/>
      <trkpt lat="45.6898077" lon="-73.4892309"/>
      <trkpt lat="45.6905225" lon="-73.4890304"/>
      <trkpt lat="45.6918602" lon="-73.4886641"/>
      <trkpt lat="45.6925873" lon="-73.488462"/>
      <trkpt lat="45.6933914" lon="-73.488243"/>
      <trkpt lat="45.6953901" lon="-73.4872394"/>
      <trkpt lat="45.6975437" lon="-73.4848259"/>
      <trkpt lat="45.6983659" lon="-73.4842578"/>
      <trkpt lat="45.6985622" lon="-73.4840939"/>
      <trkpt lat="45.6986958" lon="-73.4844962"/>
      <trkpt lat="45.698559" lon="-73.4852737"/>
      <trkpt lat="45.6982502" lon="-73.4878427"/>
      <trkpt lat="45.6981124" lon="-73.4889203"/>
      <trkpt lat="45.6975306" lon="-73.4909401"/>
      <trkpt lat="45.6974483" lon="-73.4911438"/>
      <trkpt lat="45.6971071" lon="-73.4918539"/>
      <trkpt lat="45.6960372" lon="-73.4939131"/>
      <trkpt lat="45.6941425" lon="-73.4962779"/>
      <trkpt lat="45.6903543" lon="-73.4978486"/>
      <trkpt lat="45.6888278" lon="-73.498295"/>
      <trkpt lat="45.6840047" lon="-73.4999527"/>
      <trkpt lat="45.6810459" lon="-73.5009609"/>
      <trkpt lat="45.6790404" lon="-73.5016608"/>
      <trkpt lat="45.6769948" lon="-73.5023747"/>
      <trkpt lat="45.6721382" lon="-73.5040694"/>
      <trkpt lat="45.6714426" lon="-73.5043122"/>
      <trkpt lat="45.6707317" lon="-73.5045602"/>
      <trkpt lat="45.6705956" lon="-73.5046077"/>
      <trkpt lat="45.6694618" lon="-73.5052215"/>
      <trkpt lat="45.6693661" lon="-73.5052823"/>
      <trkpt lat="45.6688644" lon="-73.5056509"/>
      <trkpt lat="45.6687885" lon="-73.505718"/>
      <trkpt lat="45.6681191" lon="-73.5063097"/>
      <trkpt lat="45.6664097" lon="-73.5069824"/>
      <trkpt lat="45.6663089" lon="-73.505809"/>
      <trkpt lat="45.667843" lon="-73.5052818"/>
      <trkpt lat="45.6675288" lon="-73.5034002"/>
      <trkpt lat="45.6664884" lon="-73.502588"/>
      <trkpt lat="45.6663093" lon="-73.5015157"/>
      <trkpt lat="45.6656613" lon="-73.5017186"/>
      <trkpt lat="45.6649474" lon="-73.5019376"/>
      <trkpt lat="45.6647635" lon="-73.5008318"/>
      <trkpt lat="45.6640044" lon="-73.5010849"/>
      <trkpt lat="45.6632785" lon="-73.5013286"/>
      <trkpt lat="45.6627041" lon="-73.5015198"/>
      <trkpt lat="45.662041" lon="-73.5017488"/>
      <trkpt lat="45.6600305" lon="-73.5024181"/>
      <trkpt lat="45.6582186" lon="-73.5030192"/>
      <trkpt lat="45.6575767" lon="-73.503235"/>
      <trkpt lat="45.6569284" lon="-73.5034369"/>
      <trkpt lat="45.6564333" lon="-73.5001766"/>
      <trkpt lat="45.6570668" lon="-73.499956"/>
      <trkpt lat="45.6575767" lon="-73.503235"/>
      <trkpt lat="45.6580804" lon="-73.5065378"/>
      <trkpt lat="45.6584192" lon="-73.5086816"/>
      <trkpt lat="45.6580804" lon="-73.5065378"/>
      <trkpt lat="45.6575767" lon="-73.503235"/>
      <trkpt lat="45.6569284" lon="-73.5034369"/>
      <trkpt lat="45.6564333" lon="-73.5001766"/>
      <trkpt lat="45.6570668" lon="-73.499956"/>
      <trkpt lat="45.6565631" lon="-73.4966545"/>
      <trkpt lat="45.6561228" lon="-73.4938219"/>
      <trkpt lat="45.6565631" lon="-73.4966545"/>
      <trkpt lat="45.6561228" lon="-73.4938219"/>
      <trkpt lat="45.6559615" lon="-73.4927637"/>
      <trkpt lat="45.6561228" lon="-73.4938219"/>
      <trkpt lat="45.6559615" lon="-73.4927637"/>
      <trkpt lat="45.6558186" lon="-73.4918803"/>
      <trkpt lat="45.6557926" lon="-73.4913894"/>
      <trkpt lat="45.6558186" lon="-73.4918803"/>
      <trkpt lat="45.6557926" lon="-73.4913894"/>
      <trkpt lat="45.6564873" lon="-73.4918648"/>
      <trkpt lat="45.6567209" lon="-73.491978"/>
      <trkpt lat="45.6577106" lon="-73.4923333"/>
      <trkpt lat="45.6585149" lon="-73.4925999"/>
      <trkpt lat="45.6577106" lon="-73.4923333"/>
      <trkpt lat="45.6585149" lon="-73.4925999"/>
      <trkpt lat="45.6606981" lon="-73.4931626"/>
      <trkpt lat="45.6585149" lon="-73.4925999"/>
      <trkpt lat="45.6606981" lon="-73.4931626"/>
      <trkpt lat="45.6608613" lon="-73.4932016"/>
      <trkpt lat="45.6618589" lon="-73.4934268"/>
      <trkpt lat="45.6627652" lon="-73.4936373"/>
      <trkpt lat="45.6635955" lon="-73.4938272"/>
      <trkpt lat="45.6643285" lon="-73.4940014"/>
      <trkpt lat="45.6675582" lon="-73.4943689"/>
      <trkpt lat="45.6643285" lon="-73.4940014"/>
      <trkpt lat="45.6675582" lon="-73.4943689"/>
      <trkpt lat="45.669744" lon="-73.4942408"/>
      <trkpt lat="45.6704631" lon="-73.494047"/>
      <trkpt lat="45.6708572" lon="-73.493947"/>
      <trkpt lat="45.671623" lon="-73.4937635"/>
      <trkpt lat="45.6723798" lon="-73.4935739"/>
      <trkpt lat="45.6731038" lon="-73.4933749"/>
      <trkpt lat="45.6737271" lon="-73.4932343"/>
      <trkpt lat="45.6731038" lon="-73.4933749"/>
      <trkpt lat="45.6737271" lon="-73.4932343"/>
      <trkpt lat="45.6745792" lon="-73.4930503"/>
      <trkpt lat="45.6737271" lon="-73.4932343"/>
      <trkpt lat="45.6745792" lon="-73.4930503"/>
      <trkpt lat="45.6754239" lon="-73.4928724"/>
      <trkpt lat="45.6760699" lon="-73.4927365"/>
      <trkpt lat="45.6761218" lon="-73.4927275"/>
      <trkpt lat="45.6764196" lon="-73.4926665"/>
      <trkpt lat="45.6770898" lon="-73.4925367"/>
      <trkpt lat="45.6773508" lon="-73.492484"/>
      <trkpt lat="45.6770898" lon="-73.4925367"/>
      <trkpt lat="45.6773508" lon="-73.492484"/>
      <trkpt lat="45.6779724" lon="-73.4923697"/>
      <trkpt lat="45.6785985" lon="-73.4922523"/>
      <trkpt lat="45.6788728" lon="-73.4922057"/>
      <trkpt lat="45.6785985" lon="-73.4922523"/>
      <trkpt lat="45.6788728" lon="-73.4922057"/>
      <trkpt lat="45.6793352" lon="-73.4921006"/>
      <trkpt lat="45.6827707" lon="-73.4911627"/>
      <trkpt lat="45.6849027" lon="-73.4905846"/>
      <trkpt lat="45.6873057" lon="-73.4899213"/>
      <trkpt lat="45.6875249" lon="-73.4898581"/>
      <trkpt lat="45.6882452" lon="-73.4896589"/>
      <trkpt lat="45.689027" lon="-73.4894494"/>
      <trkpt lat="45.6898077" lon="-73.4892309"/>
      <trkpt lat="45.6905225" lon="-73.4890304"/>
      <trkpt lat="45.6898077" lon="-73.4892309"/>
      <trkpt lat="45.6905225" lon="-73.4890304"/>
      <trkpt lat="45.6918602" lon="-73.4886641"/>
      <trkpt lat="45.6925873" lon="-73.488462"/>
      <trkpt lat="45.6918602" lon="-73.4886641"/>
      <trkpt lat="45.6925873" lon="-73.488462"/>
      <trkpt lat="45.6933914" lon="-73.488243"/>
      <trkpt lat="45.6953901" lon="-73.4872394"/>
      <trkpt lat="45.6975437" lon="-73.4848259"/>
      <trkpt lat="45.6983659" lon="-73.4842578"/>
      <trkpt lat="45.6985622" lon="-73.4840939"/>
      <trkpt lat="45.6986958" lon="-73.4844962"/>
      <trkpt lat="45.698559" lon="-73.4852737"/>
      <trkpt lat="45.6982502" lon="-73.4878427"/>
      <trkpt lat="45.6981124" lon="-73.4889203"/>
      <trkpt lat="45.6975306" lon="-73.4909401"/>
      <trkpt lat="45.6974483" lon="-73.4911438"/>
      <trkpt lat="45.6971071" lon="-73.4918539"/>
      <trkpt lat="45.6970076" lon="-73.4916877"/>
      <trkpt lat="45.6973357" lon="-73.4910089"/>
      <trkpt lat="45.6981194" lon="-73.4877635"/>
      <trkpt lat="45.6982502" lon="-73.4878427"/>
      <trkpt lat="45.6981124" lon="-73.4889203"/>
      <trkpt lat="45.6975306" lon="-73.4909401"/>
      <trkpt lat="45.6974483" lon="-73.4911438"/>
      <trkpt lat="45.6973357" lon="-73.4910089"/>
      <trkpt lat="45.6974483" lon="-73.4911438"/>
      <trkpt lat="45.6971071" lon="-73.4918539"/>
      <trkpt lat="45.6960372" lon="-73.4939131"/>
      <trkpt lat="45.6941425" lon="-73.4962779"/>
      <trkpt lat="45.6903543" lon="-73.4978486"/>
      <trkpt lat="45.6888278" lon="-73.498295"/>
      <trkpt lat="45.6903166" lon="-73.4976412"/>
      <trkpt lat="45.6903543" lon="-73.4978486"/>
      <trkpt lat="45.6888278" lon="-73.498295"/>
      <trkpt lat="45.6840047" lon="-73.4999527"/>
      <trkpt lat="45.6888278" lon="-73.498295"/>
      <trkpt lat="45.6840047" lon="-73.4999527"/>
      <trkpt lat="45.6810459" lon="-73.5009609"/>
      <trkpt lat="45.6790404" lon="-73.5016608"/>
      <trkpt lat="45.6810459" lon="-73.5009609"/>
      <trkpt lat="45.6790404" lon="-73.5016608"/>
      <trkpt lat="45.6769948" lon="-73.5023747"/>
      <trkpt lat="45.6790404" lon="-73.5016608"/>
      <trkpt lat="45.6769948" lon="-73.5023747"/>
      <trkpt lat="45.6721382" lon="-73.5040694"/>
      <trkpt lat="45.6714426" lon="-73.5043122"/>
      <trkpt lat="45.6707317" lon="-73.5045602"/>
      <trkpt lat="45.6714426" lon="-73.5043122"/>
      <trkpt lat="45.6707317" lon="-73.5045602"/>
      <trkpt lat="45.6705956" lon="-73.5046077"/>
      <trkpt lat="45.6707317" lon="-73.5045602"/>
      <trkpt lat="45.6705956" lon="-73.5046077"/>
      <trkpt lat="45.6694618" lon="-73.5052215"/>
      <trkpt lat="45.6696459" lon="-73.5063361"/>
      <trkpt lat="45.6697997" lon="-73.5072713"/>
      <trkpt lat="45.6697272" lon="-73.5072993"/>
      <trkpt lat="45.6695613" lon="-73.5063727"/>
      <trkpt lat="45.6695032" lon="-73.506048"/>
      <trkpt lat="45.6693661" lon="-73.5052823"/>
      <trkpt lat="45.6688644" lon="-73.5056509"/>
      <trkpt lat="45.6687885" lon="-73.505718"/>
      <trkpt lat="45.6681191" lon="-73.5063097"/>
      <trkpt lat="45.6660448" lon="-73.5086521"/>
      <trkpt lat="45.6654603" lon="-73.5099158"/>
      <trkpt lat="45.6648416" lon="-73.511128"/>
      <trkpt lat="45.6644058" lon="-73.5119972"/>
      <trkpt lat="45.6634235" lon="-73.5140121"/>
      <trkpt lat="45.6625049" lon="-73.5158268"/>
      <trkpt lat="45.6604112" lon="-73.5199159"/>
      <trkpt lat="45.6598108" lon="-73.5211921"/>
      <trkpt lat="45.6589103" lon="-73.5228738"/>
      <trkpt lat="45.658637" lon="-73.5234275"/>
      <trkpt lat="45.6561783" lon="-73.5285881"/>
      <trkpt lat="45.6527105" lon="-73.5356494"/>
      <trkpt lat="45.6524355" lon="-73.5362198"/>
      <trkpt lat="45.6526919" lon="-73.5363834"/>
      <trkpt lat="45.6539572" lon="-73.5374045"/>
      <trkpt lat="45.6523755" lon="-73.5363328"/>
      <trkpt lat="45.6522728" lon="-73.5362798"/>
      <trkpt lat="45.6520447" lon="-73.5361046"/>
      <trkpt lat="45.6514164" lon="-73.5355405"/>
      <trkpt lat="45.6493178" lon="-73.5306805"/>
      <trkpt lat="45.6489434" lon="-73.5299967"/>
      <trkpt lat="45.6487485" lon="-73.5296059"/>
      <trkpt lat="45.6475464" lon="-73.5268885"/>
      <trkpt lat="45.6472727" lon="-73.5263296"/>
      <trkpt lat="45.6461957" lon="-73.5238723"/>
      <trkpt lat="45.6446421" lon="-73.5196058"/>
      <trkpt lat="45.6447579" lon="-73.5195644"/>
      <trkpt lat="45.6449151" lon="-73.5203645"/>
      <trkpt lat="45.6462743" lon="-73.5238033"/>
      <trkpt lat="45.6473782" lon="-73.5262403"/>
      <trkpt lat="45.6476084" lon="-73.5267738"/>
      <trkpt lat="45.6479177" lon="-73.5274181"/>
      <trkpt lat="45.6485743" lon="-73.5288753"/>
      <trkpt lat="45.648858" lon="-73.5295475"/>
      <trkpt lat="45.6490716" lon="-73.5300282"/>
      <trkpt lat="45.6493178" lon="-73.5306805"/>
      <trkpt lat="45.6514164" lon="-73.5355405"/>
      <trkpt lat="45.652327" lon="-73.5361619"/>
      <trkpt lat="45.6524355" lon="-73.5362198"/>
      <trkpt lat="45.6523755" lon="-73.5363328"/>
      <trkpt lat="45.6522728" lon="-73.5362798"/>
      <trkpt lat="45.652327" lon="-73.5361619"/>
      <trkpt lat="45.656043" lon="-73.5285003"/>
      <trkpt lat="45.6587055" lon="-73.5229209"/>
      <trkpt lat="45.6588257" lon="-73.5226287"/>
      <trkpt lat="45.6596948" lon="-73.5199611"/>
      <trkpt lat="45.6609293" lon="-73.516146"/>
      <trkpt lat="45.6615933" lon="-73.5152429"/>
      <trkpt lat="45.6619002" lon="-73.5148202"/>
      <trkpt lat="45.6629469" lon="-73.5134088"/>
      <trkpt lat="45.6634235" lon="-73.5140121"/>
      <trkpt lat="45.6625049" lon="-73.5158268"/>
      <trkpt lat="45.6637895" lon="-73.517625"/>
      <trkpt lat="45.6664171" lon="-73.5181114"/>
      <trkpt lat="45.6706043" lon="-73.5199997"/>
      <trkpt lat="45.6669949" lon="-73.519137"/>
      <trkpt lat="45.6662095" lon="-73.5189662"/>
      <trkpt lat="45.6655471" lon="-73.5188441"/>
      <trkpt lat="45.6644197" lon="-73.5186228"/>
      <trkpt lat="45.6587963" lon="-73.5194463"/>
      <trkpt lat="45.6596948" lon="-73.5199611"/>
      <trkpt lat="45.6609293" lon="-73.516146"/>
      <trkpt lat="45.6615933" lon="-73.5152429"/>
      <trkpt lat="45.661552" lon="-73.5145823"/>
      <trkpt lat="45.6614904" lon="-73.5141965"/>
      <trkpt lat="45.6610759" lon="-73.5143218"/>
      <trkpt lat="45.6609414" lon="-73.5134593"/>
      <trkpt lat="45.6597401" lon="-73.5129294"/>
      <trkpt lat="45.6595969" lon="-73.5120165"/>
      <trkpt lat="45.6594553" lon="-73.5111204"/>
      <trkpt lat="45.6593119" lon="-73.5102156"/>
      <trkpt lat="45.6585933" lon="-73.5098283"/>
      <trkpt lat="45.6584534" lon="-73.5089054"/>
      <trkpt lat="45.6585933" lon="-73.5098283"/>
      <trkpt lat="45.6590986" lon="-73.5131234"/>
      <trkpt lat="45.6596124" lon="-73.5164225"/>
      <trkpt lat="45.6590986" lon="-73.5131234"/>
      <trkpt lat="45.6596124" lon="-73.5164225"/>
      <trkpt lat="45.6598087" lon="-73.5174977"/>
      <trkpt lat="45.6609293" lon="-73.516146"/>
      <trkpt lat="45.6615933" lon="-73.5152429"/>
      <trkpt lat="45.6619002" lon="-73.5148202"/>
      <trkpt lat="45.6629469" lon="-73.5134088"/>
      <trkpt lat="45.6636085" lon="-73.5124587"/>
      <trkpt lat="45.6637691" lon="-73.5121927"/>
      <trkpt lat="45.6642894" lon="-73.5112746"/>
      <trkpt lat="45.6637589" lon="-73.5080711"/>
      <trkpt lat="45.6636073" lon="-73.5071227"/>
      <trkpt lat="45.6628308" lon="-73.5073972"/>
      <trkpt lat="45.6605613" lon="-73.5081828"/>
    </trkseg>
  </trk>
</gpx>
