<?xml version="1.0" ?>
<gpx xmlns="http://www.topografix.com/GPX/1/1" version="1.1" creator="ERO1">
  <trk>
    <name>riviere_des_prairies — economique — zone 0</name>
    <trkseg>
      <trkpt lat="45.6385947" lon="-73.5802261"/>
      <trkpt lat="45.6364276" lon="-73.5830685"/>
      <trkpt lat="45.6363417" lon="-73.5829827"/>
      <trkpt lat="45.6385084" lon="-73.5801412"/>
      <trkpt lat="45.6412741" lon="-73.5765025"/>
      <trkpt lat="45.6425805" lon="-73.5747875"/>
      <trkpt lat="45.6438006" lon="-73.5731721"/>
      <trkpt lat="45.6438878" lon="-73.5730623"/>
      <trkpt lat="45.6439841" lon="-73.5731497"/>
      <trkpt lat="45.6461427" lon="-73.5754703"/>
      <trkpt lat="45.6471871" lon="-73.5765873"/>
      <trkpt lat="45.6485011" lon="-73.5779858"/>
      <trkpt lat="45.6493564" lon="-73.5789121"/>
      <trkpt lat="45.6494515" lon="-73.5790065"/>
      <trkpt lat="45.6507739" lon="-73.5804335"/>
      <trkpt lat="45.6512777" lon="-73.5809803"/>
      <trkpt lat="45.6507739" lon="-73.5804335"/>
      <trkpt lat="45.6512777" lon="-73.5809803"/>
      <trkpt lat="45.6514025" lon="-73.5811179"/>
      <trkpt lat="45.651885" lon="-73.5816448"/>
      <trkpt lat="45.6514025" lon="-73.5811179"/>
      <trkpt lat="45.6512777" lon="-73.5809803"/>
      <trkpt lat="45.6514025" lon="-73.5811179"/>
      <trkpt lat="45.651885" lon="-73.5816448"/>
      <trkpt lat="45.652012" lon="-73.5817843"/>
      <trkpt lat="45.6524955" lon="-73.5822782"/>
      <trkpt lat="45.652012" lon="-73.5817843"/>
      <trkpt lat="45.6524955" lon="-73.5822782"/>
      <trkpt lat="45.6526394" lon="-73.5824245"/>
      <trkpt lat="45.6531451" lon="-73.583002"/>
      <trkpt lat="45.6552589" lon="-73.5802559"/>
      <trkpt lat="45.6555679" lon="-73.5795882"/>
      <trkpt lat="45.6571715" lon="-73.5764921"/>
      <trkpt lat="45.6576968" lon="-73.5756191"/>
      <trkpt lat="45.6580034" lon="-73.5749439"/>
      <trkpt lat="45.658264" lon="-73.5741928"/>
      <trkpt lat="45.6585268" lon="-73.573455"/>
      <trkpt lat="45.6588287" lon="-73.5725612"/>
      <trkpt lat="45.6592818" lon="-73.5713687"/>
      <trkpt lat="45.6593718" lon="-73.5711709"/>
      <trkpt lat="45.6596012" lon="-73.5706859"/>
      <trkpt lat="45.659756" lon="-73.5702122"/>
      <trkpt lat="45.6611609" lon="-73.5663801"/>
      <trkpt lat="45.6615723" lon="-73.5654644"/>
      <trkpt lat="45.6620565" lon="-73.5644038"/>
      <trkpt lat="45.6608908" lon="-73.563529"/>
      <trkpt lat="45.6602455" lon="-73.564868"/>
      <trkpt lat="45.6608908" lon="-73.563529"/>
      <trkpt lat="45.6602455" lon="-73.564868"/>
      <trkpt lat="45.6599214" lon="-73.5654848"/>
      <trkpt lat="45.6586877" lon="-73.5642821"/>
      <trkpt lat="45.6583964" lon="-73.5648578"/>
      <trkpt lat="45.6580816" lon="-73.5654609"/>
      <trkpt lat="45.6576135" lon="-73.5663736"/>
      <trkpt lat="45.657229" lon="-73.567117"/>
      <trkpt lat="45.6568419" lon="-73.5678721"/>
      <trkpt lat="45.6567322" lon="-73.5677615"/>
      <trkpt lat="45.6568419" lon="-73.5678721"/>
      <trkpt lat="45.6565236" lon="-73.5684825"/>
      <trkpt lat="45.6559674" lon="-73.5695688"/>
      <trkpt lat="45.6555667" lon="-73.5703513"/>
      <trkpt lat="45.6552278" lon="-73.57101"/>
      <trkpt lat="45.6548876" lon="-73.5716687"/>
      <trkpt lat="45.6531032" lon="-73.5747394"/>
      <trkpt lat="45.6525222" lon="-73.5754275"/>
      <trkpt lat="45.6520445" lon="-73.5759832"/>
      <trkpt lat="45.6516672" lon="-73.5764266"/>
      <trkpt lat="45.6509057" lon="-73.577307"/>
      <trkpt lat="45.6502031" lon="-73.5781375"/>
      <trkpt lat="45.6494515" lon="-73.5790065"/>
      <trkpt lat="45.6507739" lon="-73.5804335"/>
      <trkpt lat="45.6502162" lon="-73.5799767"/>
      <trkpt lat="45.6498795" lon="-73.5796491"/>
      <trkpt lat="45.6493611" lon="-73.5791088"/>
      <trkpt lat="45.6485642" lon="-73.5800783"/>
      <trkpt lat="45.6480652" lon="-73.5806491"/>
      <trkpt lat="45.6467012" lon="-73.5822462"/>
      <trkpt lat="45.6461485" lon="-73.5828922"/>
      <trkpt lat="45.6460393" lon="-73.5827782"/>
      <trkpt lat="45.6465914" lon="-73.5821257"/>
      <trkpt lat="45.6479572" lon="-73.5805395"/>
      <trkpt lat="45.6484479" lon="-73.5799593"/>
      <trkpt lat="45.6492642" lon="-73.5790152"/>
      <trkpt lat="45.6493564" lon="-73.5789121"/>
      <trkpt lat="45.6494515" lon="-73.5790065"/>
      <trkpt lat="45.6493611" lon="-73.5791088"/>
      <trkpt lat="45.6485642" lon="-73.5800783"/>
      <trkpt lat="45.6480652" lon="-73.5806491"/>
      <trkpt lat="45.6467012" lon="-73.5822462"/>
      <trkpt lat="45.6461485" lon="-73.5828922"/>
      <trkpt lat="45.6441573" lon="-73.5860702"/>
      <trkpt lat="45.6424988" lon="-73.5893226"/>
      <trkpt lat="45.64204" lon="-73.5901968"/>
      <trkpt lat="45.6415761" lon="-73.5911134"/>
      <trkpt lat="45.6411224" lon="-73.5919816"/>
      <trkpt lat="45.6407807" lon="-73.5926381"/>
      <trkpt lat="45.6404223" lon="-73.5933392"/>
      <trkpt lat="45.6400921" lon="-73.5939595"/>
      <trkpt lat="45.6397019" lon="-73.5947409"/>
      <trkpt lat="45.6385595" lon="-73.5969406"/>
      <trkpt lat="45.6384761" lon="-73.5970947"/>
      <trkpt lat="45.6376478" lon="-73.5987149"/>
      <trkpt lat="45.636462" lon="-73.6010178"/>
      <trkpt lat="45.6360597" lon="-73.6018324"/>
      <trkpt lat="45.6356252" lon="-73.6026733"/>
      <trkpt lat="45.6351206" lon="-73.6036521"/>
      <trkpt lat="45.6338788" lon="-73.6056717"/>
      <trkpt lat="45.6328378" lon="-73.6071437"/>
      <trkpt lat="45.6318295" lon="-73.6086057"/>
      <trkpt lat="45.6313794" lon="-73.6092945"/>
      <trkpt lat="45.6320118" lon="-73.609957"/>
      <trkpt lat="45.6335917" lon="-73.6116772"/>
      <trkpt lat="45.6353406" lon="-73.6091612"/>
      <trkpt lat="45.6358113" lon="-73.6083275"/>
      <trkpt lat="45.636917" lon="-73.606688"/>
      <trkpt lat="45.6373899" lon="-73.6060807"/>
      <trkpt lat="45.6379903" lon="-73.6051762"/>
      <trkpt lat="45.6384808" lon="-73.6044119"/>
      <trkpt lat="45.6396183" lon="-73.6030031"/>
      <trkpt lat="45.640127" lon="-73.6022238"/>
      <trkpt lat="45.6423453" lon="-73.5992473"/>
      <trkpt lat="45.6434218" lon="-73.5974577"/>
      <trkpt lat="45.6438046" lon="-73.5969063"/>
      <trkpt lat="45.6442094" lon="-73.5962721"/>
      <trkpt lat="45.6446119" lon="-73.595644"/>
      <trkpt lat="45.6458198" lon="-73.5941302"/>
      <trkpt lat="45.6479254" lon="-73.5916576"/>
      <trkpt lat="45.6499429" lon="-73.5880331"/>
      <trkpt lat="45.6503796" lon="-73.5873919"/>
      <trkpt lat="45.6508516" lon="-73.5866403"/>
      <trkpt lat="45.6519136" lon="-73.5847627"/>
      <trkpt lat="45.6523346" lon="-73.5841167"/>
      <trkpt lat="45.6531451" lon="-73.583002"/>
      <trkpt lat="45.6552589" lon="-73.5802559"/>
      <trkpt lat="45.6555679" lon="-73.5795882"/>
      <trkpt lat="45.6571715" lon="-73.5764921"/>
      <trkpt lat="45.6576968" lon="-73.5756191"/>
      <trkpt lat="45.6580034" lon="-73.5749439"/>
      <trkpt lat="45.658264" lon="-73.5741928"/>
      <trkpt lat="45.6585268" lon="-73.573455"/>
      <trkpt lat="45.6588287" lon="-73.5725612"/>
      <trkpt lat="45.6592818" lon="-73.5713687"/>
      <trkpt lat="45.6593718" lon="-73.5711709"/>
      <trkpt lat="45.6596012" lon="-73.5706859"/>
      <trkpt lat="45.659756" lon="-73.5702122"/>
      <trkpt lat="45.6611609" lon="-73.5663801"/>
      <trkpt lat="45.6615723" lon="-73.5654644"/>
      <trkpt lat="45.6620565" lon="-73.5644038"/>
      <trkpt lat="45.6608908" lon="-73.563529"/>
      <trkpt lat="45.6602455" lon="-73.564868"/>
      <trkpt lat="45.6599214" lon="-73.5654848"/>
      <trkpt lat="45.6586877" lon="-73.5642821"/>
      <trkpt lat="45.6583964" lon="-73.5648578"/>
      <trkpt lat="45.6580816" lon="-73.5654609"/>
      <trkpt lat="45.6576135" lon="-73.5663736"/>
      <trkpt lat="45.657229" lon="-73.567117"/>
      <trkpt lat="45.657124" lon="-73.5670084"/>
      <trkpt lat="45.6558897" lon="-73.565722"/>
      <trkpt lat="45.6535398" lon="-73.5632717"/>
      <trkpt lat="45.6531477" lon="-73.5640124"/>
      <trkpt lat="45.6554992" lon="-73.5664745"/>
      <trkpt lat="45.6567322" lon="-73.5677615"/>
      <trkpt lat="45.6554992" lon="-73.5664745"/>
      <trkpt lat="45.6567322" lon="-73.5677615"/>
      <trkpt lat="45.657124" lon="-73.5670084"/>
      <trkpt lat="45.6575145" lon="-73.5662463"/>
      <trkpt lat="45.6579772" lon="-73.5653514"/>
      <trkpt lat="45.6582854" lon="-73.5647506"/>
      <trkpt lat="45.6585814" lon="-73.5641722"/>
      <trkpt lat="45.6588963" lon="-73.563559"/>
      <trkpt lat="45.6590006" lon="-73.5636661"/>
      <trkpt lat="45.6602455" lon="-73.564868"/>
      <trkpt lat="45.6599214" lon="-73.5654848"/>
      <trkpt lat="45.6586877" lon="-73.5642821"/>
      <trkpt lat="45.6585814" lon="-73.5641722"/>
      <trkpt lat="45.6588963" lon="-73.563559"/>
      <trkpt lat="45.6610964" lon="-73.5592899"/>
      <trkpt lat="45.659863" lon="-73.5584191"/>
      <trkpt lat="45.6572603" lon="-73.5566178"/>
      <trkpt lat="45.659863" lon="-73.5584191"/>
      <trkpt lat="45.6610964" lon="-73.5592899"/>
      <trkpt lat="45.659863" lon="-73.5584191"/>
      <trkpt lat="45.6572603" lon="-73.5566178"/>
      <trkpt lat="45.6544141" lon="-73.5546541"/>
      <trkpt lat="45.6572603" lon="-73.5566178"/>
      <trkpt lat="45.6544141" lon="-73.5546541"/>
      <trkpt lat="45.6541831" lon="-73.5544902"/>
      <trkpt lat="45.6544141" lon="-73.5546541"/>
      <trkpt lat="45.6541831" lon="-73.5544902"/>
      <trkpt lat="45.6536445" lon="-73.555939"/>
      <trkpt lat="45.6524094" lon="-73.5583982"/>
      <trkpt lat="45.6520477" lon="-73.5590978"/>
      <trkpt lat="45.6515866" lon="-73.5599992"/>
      <trkpt lat="45.6511706" lon="-73.5608046"/>
      <trkpt lat="45.6507891" lon="-73.5615366"/>
      <trkpt lat="45.6504649" lon="-73.5621615"/>
      <trkpt lat="45.6499069" lon="-73.5632382"/>
      <trkpt lat="45.6495227" lon="-73.5639917"/>
      <trkpt lat="45.649196" lon="-73.5646594"/>
      <trkpt lat="45.6488557" lon="-73.5653149"/>
      <trkpt lat="45.6478528" lon="-73.5672623"/>
      <trkpt lat="45.6468144" lon="-73.5692721"/>
      <trkpt lat="45.6463138" lon="-73.5700499"/>
      <trkpt lat="45.6439841" lon="-73.5731497"/>
      <trkpt lat="45.6461427" lon="-73.5754703"/>
      <trkpt lat="45.6471871" lon="-73.5765873"/>
      <trkpt lat="45.6485011" lon="-73.5779858"/>
      <trkpt lat="45.6493564" lon="-73.5789121"/>
      <trkpt lat="45.6494515" lon="-73.5790065"/>
      <trkpt lat="45.6493611" lon="-73.5791088"/>
      <trkpt lat="45.6485642" lon="-73.5800783"/>
      <trkpt lat="45.6480652" lon="-73.5806491"/>
      <trkpt lat="45.6467012" lon="-73.5822462"/>
      <trkpt lat="45.6461485" lon="-73.5828922"/>
      <trkpt lat="45.6441573" lon="-73.5860702"/>
      <trkpt lat="45.644059" lon="-73.5859622"/>
      <trkpt lat="45.6460393" lon="-73.5827782"/>
      <trkpt lat="45.6465914" lon="-73.5821257"/>
      <trkpt lat="45.6479572" lon="-73.5805395"/>
      <trkpt lat="45.6484479" lon="-73.5799593"/>
      <trkpt lat="45.6492642" lon="-73.5790152"/>
      <trkpt lat="45.648432" lon="-73.5781294"/>
      <trkpt lat="45.6471187" lon="-73.5767181"/>
      <trkpt lat="45.6460684" lon="-73.5755826"/>
      <trkpt lat="45.6438957" lon="-73.5732561"/>
      <trkpt lat="45.6438006" lon="-73.5731721"/>
      <trkpt lat="45.6438878" lon="-73.5730623"/>
      <trkpt lat="45.6439841" lon="-73.5731497"/>
      <trkpt lat="45.6461427" lon="-73.5754703"/>
      <trkpt lat="45.6471871" lon="-73.5765873"/>
      <trkpt lat="45.6485011" lon="-73.5779858"/>
      <trkpt lat="45.6493564" lon="-73.5789121"/>
      <trkpt lat="45.6494515" lon="-73.5790065"/>
      <trkpt lat="45.6493611" lon="-73.5791088"/>
      <trkpt lat="45.6485642" lon="-73.5800783"/>
      <trkpt lat="45.6480652" lon="-73.5806491"/>
      <trkpt lat="45.6467012" lon="-73.5822462"/>
      <trkpt lat="45.6461485" lon="-73.5828922"/>
      <trkpt lat="45.6441573" lon="-73.5860702"/>
      <trkpt lat="45.6424988" lon="-73.5893226"/>
      <trkpt lat="45.64204" lon="-73.5901968"/>
      <trkpt lat="45.6415761" lon="-73.5911134"/>
      <trkpt lat="45.6411224" lon="-73.5919816"/>
      <trkpt lat="45.6407807" lon="-73.5926381"/>
      <trkpt lat="45.6404223" lon="-73.5933392"/>
      <trkpt lat="45.6400921" lon="-73.5939595"/>
      <trkpt lat="45.6397019" lon="-73.5947409"/>
      <trkpt lat="45.6385595" lon="-73.5969406"/>
      <trkpt lat="45.6384761" lon="-73.5970947"/>
      <trkpt lat="45.6383798" lon="-73.5969832"/>
      <trkpt lat="45.63656" lon="-73.5950419"/>
      <trkpt lat="45.6366487" lon="-73.5948756"/>
      <trkpt lat="45.6370484" lon="-73.5940924"/>
      <trkpt lat="45.6377043" lon="-73.5948135"/>
      <trkpt lat="45.6389809" lon="-73.593872"/>
      <trkpt lat="45.6393435" lon="-73.5931626"/>
      <trkpt lat="45.6399934" lon="-73.5938553"/>
      <trkpt lat="45.6403147" lon="-73.5932233"/>
      <trkpt lat="45.6406741" lon="-73.5925262"/>
      <trkpt lat="45.6410191" lon="-73.591874"/>
      <trkpt lat="45.6423868" lon="-73.5892068"/>
      <trkpt lat="45.644059" lon="-73.5859622"/>
      <trkpt lat="45.6434038" lon="-73.5852795"/>
      <trkpt lat="45.6429862" lon="-73.5860881"/>
      <trkpt lat="45.6425785" lon="-73.5868857"/>
      <trkpt lat="45.6421471" lon="-73.5877145"/>
      <trkpt lat="45.6417332" lon="-73.5885219"/>
      <trkpt lat="45.6402575" lon="-73.5869761"/>
      <trkpt lat="45.6398163" lon="-73.5878368"/>
      <trkpt lat="45.6391915" lon="-73.5885767"/>
      <trkpt lat="45.6386537" lon="-73.5893569"/>
      <trkpt lat="45.6382987" lon="-73.5900121"/>
      <trkpt lat="45.637157" lon="-73.5888029"/>
      <trkpt lat="45.6367789" lon="-73.5894588"/>
      <trkpt lat="45.6363487" lon="-73.5900007"/>
      <trkpt lat="45.6359718" lon="-73.5906374"/>
      <trkpt lat="45.635594" lon="-73.5913735"/>
      <trkpt lat="45.6351957" lon="-73.592126"/>
      <trkpt lat="45.6348019" lon="-73.5928943"/>
      <trkpt lat="45.6347101" lon="-73.5930712"/>
      <trkpt lat="45.634268" lon="-73.5938859"/>
      <trkpt lat="45.6338655" lon="-73.594647"/>
      <trkpt lat="45.6335278" lon="-73.5952947"/>
      <trkpt lat="45.6338655" lon="-73.594647"/>
      <trkpt lat="45.634268" lon="-73.5938859"/>
      <trkpt lat="45.6347101" lon="-73.5930712"/>
      <trkpt lat="45.6330871" lon="-73.5913113"/>
      <trkpt lat="45.6331771" lon="-73.5911558"/>
      <trkpt lat="45.6348019" lon="-73.5928943"/>
      <trkpt lat="45.6347101" lon="-73.5930712"/>
      <trkpt lat="45.634268" lon="-73.5938859"/>
      <trkpt lat="45.6338655" lon="-73.594647"/>
      <trkpt lat="45.6335278" lon="-73.5952947"/>
      <trkpt lat="45.6332236" lon="-73.5962929"/>
      <trkpt lat="45.6335278" lon="-73.5952947"/>
      <trkpt lat="45.6332236" lon="-73.5962929"/>
      <trkpt lat="45.6329399" lon="-73.5972495"/>
      <trkpt lat="45.6325479" lon="-73.5980991"/>
      <trkpt lat="45.6329399" lon="-73.5972495"/>
      <trkpt lat="45.6325479" lon="-73.5980991"/>
      <trkpt lat="45.6321063" lon="-73.5989416"/>
      <trkpt lat="45.6316684" lon="-73.5997741"/>
      <trkpt lat="45.6297657" lon="-73.60323"/>
      <trkpt lat="45.6316684" lon="-73.5997741"/>
      <trkpt lat="45.6297657" lon="-73.60323"/>
      <trkpt lat="45.6293359" lon="-73.6040607"/>
      <trkpt lat="45.6298905" lon="-73.6066083"/>
      <trkpt lat="45.6309281" lon="-73.6077"/>
      <trkpt lat="45.6298905" lon="-73.6066083"/>
      <trkpt lat="45.6309281" lon="-73.6077"/>
      <trkpt lat="45.6317115" lon="-73.6085188"/>
      <trkpt lat="45.6309281" lon="-73.6077"/>
      <trkpt lat="45.6313624" lon="-73.607206"/>
      <trkpt lat="45.6321216" lon="-73.6064068"/>
      <trkpt lat="45.6327376" lon="-73.6070436"/>
      <trkpt lat="45.6337901" lon="-73.6055164"/>
      <trkpt lat="45.6350079" lon="-73.603538"/>
      <trkpt lat="45.6355117" lon="-73.6025576"/>
      <trkpt lat="45.6359419" lon="-73.601703"/>
      <trkpt lat="45.6363615" lon="-73.6008941"/>
      <trkpt lat="45.6375488" lon="-73.5985888"/>
      <trkpt lat="45.6383798" lon="-73.5969832"/>
      <trkpt lat="45.6384632" lon="-73.5968322"/>
      <trkpt lat="45.6399934" lon="-73.5938553"/>
      <trkpt lat="45.6403147" lon="-73.5932233"/>
      <trkpt lat="45.6406741" lon="-73.5925262"/>
      <trkpt lat="45.6410191" lon="-73.591874"/>
      <trkpt lat="45.6423868" lon="-73.5892068"/>
      <trkpt lat="45.644059" lon="-73.5859622"/>
      <trkpt lat="45.6434038" lon="-73.5852795"/>
      <trkpt lat="45.6429862" lon="-73.5860881"/>
      <trkpt lat="45.6425785" lon="-73.5868857"/>
      <trkpt lat="45.6421471" lon="-73.5877145"/>
      <trkpt lat="45.6417332" lon="-73.5885219"/>
      <trkpt lat="45.6402575" lon="-73.5869761"/>
      <trkpt lat="45.6398163" lon="-73.5878368"/>
      <trkpt lat="45.6391915" lon="-73.5885767"/>
      <trkpt lat="45.6386537" lon="-73.5893569"/>
      <trkpt lat="45.6382987" lon="-73.5900121"/>
      <trkpt lat="45.637157" lon="-73.5888029"/>
      <trkpt lat="45.6367789" lon="-73.5894588"/>
      <trkpt lat="45.6363487" lon="-73.5900007"/>
      <trkpt lat="45.6359718" lon="-73.5906374"/>
      <trkpt lat="45.635594" lon="-73.5913735"/>
      <trkpt lat="45.6351957" lon="-73.592126"/>
      <trkpt lat="45.6348019" lon="-73.5928943"/>
      <trkpt lat="45.6347101" lon="-73.5930712"/>
      <trkpt lat="45.6330871" lon="-73.5913113"/>
      <trkpt lat="45.6314606" lon="-73.5896075"/>
      <trkpt lat="45.6308683" lon="-73.5903724"/>
      <trkpt lat="45.6294265" lon="-73.5922743"/>
      <trkpt lat="45.6286206" lon="-73.593311"/>
      <trkpt lat="45.6278777" lon="-73.5943824"/>
      <trkpt lat="45.6271848" lon="-73.5956324"/>
      <trkpt lat="45.6262551" lon="-73.5974146"/>
      <trkpt lat="45.6254442" lon="-73.5989704"/>
      <trkpt lat="45.6247608" lon="-73.6002932"/>
      <trkpt lat="45.6240927" lon="-73.6015767"/>
      <trkpt lat="45.6237741" lon="-73.6022012"/>
      <trkpt lat="45.6233624" lon="-73.6029734"/>
      <trkpt lat="45.6228957" lon="-73.6038705"/>
      <trkpt lat="45.629872" lon="-73.6112268"/>
      <trkpt lat="45.6303968" lon="-73.6104345"/>
      <trkpt lat="45.6308549" lon="-73.6097112"/>
      <trkpt lat="45.63125" lon="-73.6091531"/>
      <trkpt lat="45.6317115" lon="-73.6085188"/>
      <trkpt lat="45.6327376" lon="-73.6070436"/>
      <trkpt lat="45.6337901" lon="-73.6055164"/>
      <trkpt lat="45.6350079" lon="-73.603538"/>
      <trkpt lat="45.6355117" lon="-73.6025576"/>
      <trkpt lat="45.6359419" lon="-73.601703"/>
      <trkpt lat="45.6363615" lon="-73.6008941"/>
      <trkpt lat="45.6375488" lon="-73.5985888"/>
      <trkpt lat="45.6383798" lon="-73.5969832"/>
      <trkpt lat="45.6384632" lon="-73.5968322"/>
      <trkpt lat="45.6399934" lon="-73.5938553"/>
      <trkpt lat="45.6403147" lon="-73.5932233"/>
      <trkpt lat="45.6406741" lon="-73.5925262"/>
      <trkpt lat="45.6410191" lon="-73.591874"/>
      <trkpt lat="45.6423868" lon="-73.5892068"/>
      <trkpt lat="45.644059" lon="-73.5859622"/>
      <trkpt lat="45.6434038" lon="-73.5852795"/>
      <trkpt lat="45.6429862" lon="-73.5860881"/>
      <trkpt lat="45.6425785" lon="-73.5868857"/>
      <trkpt lat="45.6421471" lon="-73.5877145"/>
      <trkpt lat="45.6417332" lon="-73.5885219"/>
      <trkpt lat="45.6402575" lon="-73.5869761"/>
      <trkpt lat="45.6398163" lon="-73.5878368"/>
      <trkpt lat="45.6391915" lon="-73.5885767"/>
      <trkpt lat="45.6386537" lon="-73.5893569"/>
      <trkpt lat="45.6382987" lon="-73.5900121"/>
      <trkpt lat="45.637157" lon="-73.5888029"/>
      <trkpt lat="45.6375029" lon="-73.5881362"/>
      <trkpt lat="45.637946" lon="-73.5873266"/>
      <trkpt lat="45.6375029" lon="-73.5881362"/>
      <trkpt lat="45.637157" lon="-73.5888029"/>
      <trkpt lat="45.6367789" lon="-73.5894588"/>
      <trkpt lat="45.637157" lon="-73.5888029"/>
      <trkpt lat="45.6367789" lon="-73.5894588"/>
      <trkpt lat="45.6363487" lon="-73.5900007"/>
      <trkpt lat="45.6367789" lon="-73.5894588"/>
      <trkpt lat="45.6363487" lon="-73.5900007"/>
      <trkpt lat="45.6359718" lon="-73.5906374"/>
      <trkpt lat="45.6363487" lon="-73.5900007"/>
      <trkpt lat="45.6359718" lon="-73.5906374"/>
      <trkpt lat="45.635594" lon="-73.5913735"/>
      <trkpt lat="45.6359718" lon="-73.5906374"/>
      <trkpt lat="45.635594" lon="-73.5913735"/>
      <trkpt lat="45.6351957" lon="-73.592126"/>
      <trkpt lat="45.635594" lon="-73.5913735"/>
      <trkpt lat="45.6351957" lon="-73.592126"/>
      <trkpt lat="45.6348019" lon="-73.5928943"/>
      <trkpt lat="45.6351957" lon="-73.592126"/>
      <trkpt lat="45.6348019" lon="-73.5928943"/>
      <trkpt lat="45.6347101" lon="-73.5930712"/>
      <trkpt lat="45.6348019" lon="-73.5928943"/>
      <trkpt lat="45.6366487" lon="-73.5948756"/>
      <trkpt lat="45.6384632" lon="-73.5968322"/>
      <trkpt lat="45.6399934" lon="-73.5938553"/>
      <trkpt lat="45.6403147" lon="-73.5932233"/>
      <trkpt lat="45.6406741" lon="-73.5925262"/>
      <trkpt lat="45.6410191" lon="-73.591874"/>
      <trkpt lat="45.6423868" lon="-73.5892068"/>
      <trkpt lat="45.644059" lon="-73.5859622"/>
      <trkpt lat="45.6460393" lon="-73.5827782"/>
      <trkpt lat="45.6453681" lon="-73.5820731"/>
      <trkpt lat="45.6448615" lon="-73.5826691"/>
      <trkpt lat="45.6442243" lon="-73.58199"/>
      <trkpt lat="45.6434202" lon="-73.5811563"/>
      <trkpt lat="45.6427285" lon="-73.5816587"/>
      <trkpt lat="45.6419719" lon="-73.5823171"/>
      <trkpt lat="45.641414" lon="-73.5831948"/>
      <trkpt lat="45.6408276" lon="-73.5825799"/>
      <trkpt lat="45.640251" lon="-73.5819722"/>
      <trkpt lat="45.6397145" lon="-73.581415"/>
      <trkpt lat="45.6392005" lon="-73.58087"/>
      <trkpt lat="45.6383003" lon="-73.5820486"/>
      <trkpt lat="45.6377954" lon="-73.5827158"/>
      <trkpt lat="45.6370393" lon="-73.5837055"/>
      <trkpt lat="45.6364772" lon="-73.5844545"/>
      <trkpt lat="45.6359074" lon="-73.5851914"/>
      <trkpt lat="45.6364772" lon="-73.5844545"/>
      <trkpt lat="45.6370393" lon="-73.5837055"/>
      <trkpt lat="45.6377954" lon="-73.5827158"/>
      <trkpt lat="45.6383003" lon="-73.5820486"/>
      <trkpt lat="45.6392005" lon="-73.58087"/>
      <trkpt lat="45.6398106" lon="-73.5800625"/>
      <trkpt lat="45.6404244" lon="-73.5792535"/>
      <trkpt lat="45.6409726" lon="-73.5785357"/>
      <trkpt lat="45.6414417" lon="-73.5779167"/>
      <trkpt lat="45.6419586" lon="-73.5772319"/>
      <trkpt lat="45.6413563" lon="-73.5765901"/>
      <trkpt lat="45.6412741" lon="-73.5765025"/>
      <trkpt lat="45.6406587" lon="-73.575862"/>
      <trkpt lat="45.6401446" lon="-73.5765333"/>
      <trkpt lat="45.6396712" lon="-73.577156"/>
      <trkpt lat="45.6391552" lon="-73.5778328"/>
      <trkpt lat="45.6396712" lon="-73.577156"/>
      <trkpt lat="45.6401446" lon="-73.5765333"/>
      <trkpt lat="45.6406587" lon="-73.575862"/>
      <trkpt lat="45.639257" lon="-73.5743712"/>
      <trkpt lat="45.6397276" lon="-73.5734521"/>
      <trkpt lat="45.6402722" lon="-73.5724045"/>
      <trkpt lat="45.6407199" lon="-73.571574"/>
      <trkpt lat="45.6411805" lon="-73.5706888"/>
      <trkpt lat="45.641136" lon="-73.5706399"/>
      <trkpt lat="45.6371603" lon="-73.5663743"/>
      <trkpt lat="45.636247" lon="-73.565362"/>
      <trkpt lat="45.6284209" lon="-73.5771459"/>
      <trkpt lat="45.6282774" lon="-73.5773812"/>
      <trkpt lat="45.6270392" lon="-73.579202"/>
      <trkpt lat="45.6254087" lon="-73.5815407"/>
      <trkpt lat="45.6262667" lon="-73.5827467"/>
      <trkpt lat="45.6264124" lon="-73.5830371"/>
      <trkpt lat="45.6291688" lon="-73.5867681"/>
      <trkpt lat="45.6292429" lon="-73.5866619"/>
      <trkpt lat="45.6297224" lon="-73.5859827"/>
      <trkpt lat="45.6305126" lon="-73.5868337"/>
      <trkpt lat="45.6320984" lon="-73.5871234"/>
      <trkpt lat="45.6328332" lon="-73.5861451"/>
      <trkpt lat="45.633645" lon="-73.5850997"/>
      <trkpt lat="45.6341022" lon="-73.5844664"/>
      <trkpt lat="45.6345919" lon="-73.5838332"/>
      <trkpt lat="45.6357331" lon="-73.5823526"/>
      <trkpt lat="45.6363417" lon="-73.5829827"/>
      <trkpt lat="45.6385084" lon="-73.5801412"/>
      <trkpt lat="45.6412741" lon="-73.5765025"/>
      <trkpt lat="45.6425805" lon="-73.5747875"/>
      <trkpt lat="45.6438006" lon="-73.5731721"/>
      <trkpt lat="45.6438878" lon="-73.5730623"/>
      <trkpt lat="45.6462369" lon="-73.5699593"/>
      <trkpt lat="45.646728" lon="-73.5691834"/>
      <trkpt lat="45.6474242" lon="-73.5678563"/>
      <trkpt lat="45.6477736" lon="-73.5671736"/>
      <trkpt lat="45.6487734" lon="-73.5652301"/>
      <trkpt lat="45.6491032" lon="-73.5645825"/>
      <trkpt lat="45.6494476" lon="-73.5639211"/>
      <trkpt lat="45.649832" lon="-73.5631528"/>
      <trkpt lat="45.6507055" lon="-73.561447"/>
      <trkpt lat="45.6510661" lon="-73.5607"/>
      <trkpt lat="45.6514791" lon="-73.5598867"/>
      <trkpt lat="45.6519366" lon="-73.5589937"/>
      <trkpt lat="45.6523647" lon="-73.5581599"/>
      <trkpt lat="45.6535337" lon="-73.5558381"/>
      <trkpt lat="45.6540634" lon="-73.5544116"/>
      <trkpt lat="45.6541831" lon="-73.5544902"/>
      <trkpt lat="45.6536445" lon="-73.555939"/>
      <trkpt lat="45.6524094" lon="-73.5583982"/>
      <trkpt lat="45.6520477" lon="-73.5590978"/>
      <trkpt lat="45.6515866" lon="-73.5599992"/>
      <trkpt lat="45.6511706" lon="-73.5608046"/>
      <trkpt lat="45.6507891" lon="-73.5615366"/>
      <trkpt lat="45.6507055" lon="-73.561447"/>
      <trkpt lat="45.6510661" lon="-73.5607"/>
      <trkpt lat="45.6514791" lon="-73.5598867"/>
      <trkpt lat="45.6519366" lon="-73.5589937"/>
      <trkpt lat="45.6523647" lon="-73.5581599"/>
      <trkpt lat="45.6535337" lon="-73.5558381"/>
      <trkpt lat="45.6540634" lon="-73.5544116"/>
      <trkpt lat="45.654408" lon="-73.5533954"/>
      <trkpt lat="45.6547295" lon="-73.5524579"/>
      <trkpt lat="45.6554072" lon="-73.5509033"/>
      <trkpt lat="45.6548537" lon="-73.552549"/>
      <trkpt lat="45.6545312" lon="-73.5534746"/>
      <trkpt lat="45.6541831" lon="-73.5544902"/>
      <trkpt lat="45.6536445" lon="-73.555939"/>
      <trkpt lat="45.6524094" lon="-73.5583982"/>
      <trkpt lat="45.6520477" lon="-73.5590978"/>
      <trkpt lat="45.6515866" lon="-73.5599992"/>
      <trkpt lat="45.6511706" lon="-73.5608046"/>
      <trkpt lat="45.6507891" lon="-73.5615366"/>
      <trkpt lat="45.6507055" lon="-73.561447"/>
      <trkpt lat="45.6510661" lon="-73.5607"/>
      <trkpt lat="45.6514791" lon="-73.5598867"/>
      <trkpt lat="45.6519366" lon="-73.5589937"/>
      <trkpt lat="45.6523647" lon="-73.5581599"/>
      <trkpt lat="45.6535337" lon="-73.5558381"/>
      <trkpt lat="45.6540634" lon="-73.5544116"/>
      <trkpt lat="45.654408" lon="-73.5533954"/>
      <trkpt lat="45.6547295" lon="-73.5524579"/>
      <trkpt lat="45.6554072" lon="-73.5509033"/>
      <trkpt lat="45.6584611" lon="-73.5432986"/>
      <trkpt lat="45.6554072" lon="-73.5509033"/>
      <trkpt lat="45.6584611" lon="-73.5432986"/>
      <trkpt lat="45.6592327" lon="-73.5418747"/>
      <trkpt lat="45.6577648" lon="-73.5401786"/>
      <trkpt lat="45.6539572" lon="-73.5374045"/>
      <trkpt lat="45.6523755" lon="-73.5363328"/>
      <trkpt lat="45.6499574" lon="-73.5413441"/>
      <trkpt lat="45.6464945" lon="-73.5484808"/>
      <trkpt lat="45.6444619" lon="-73.5525018"/>
      <trkpt lat="45.6440444" lon="-73.5532533"/>
      <trkpt lat="45.643819" lon="-73.5536384"/>
      <trkpt lat="45.6436067" lon="-73.5540292"/>
      <trkpt lat="45.6439162" lon="-73.5543615"/>
      <trkpt lat="45.6456109" lon="-73.5561263"/>
      <trkpt lat="45.6477266" lon="-73.5583497"/>
      <trkpt lat="45.6479748" lon="-73.5586077"/>
      <trkpt lat="45.6477266" lon="-73.5583497"/>
      <trkpt lat="45.6456109" lon="-73.5561263"/>
      <trkpt lat="45.6439162" lon="-73.5543615"/>
      <trkpt lat="45.6436067" lon="-73.5540292"/>
      <trkpt lat="45.6426264" lon="-73.5555847"/>
      <trkpt lat="45.6421704" lon="-73.5562897"/>
      <trkpt lat="45.641782" lon="-73.55689"/>
      <trkpt lat="45.6413766" lon="-73.5574714"/>
      <trkpt lat="45.6397913" lon="-73.559963"/>
      <trkpt lat="45.6363378" lon="-73.5652179"/>
      <trkpt lat="45.6371141" lon="-73.5661059"/>
      <trkpt lat="45.6413778" lon="-73.5706657"/>
      <trkpt lat="45.6417864" lon="-73.5710868"/>
      <trkpt lat="45.6417078" lon="-73.5712567"/>
      <trkpt lat="45.6417864" lon="-73.5710868"/>
      <trkpt lat="45.6417078" lon="-73.5712567"/>
      <trkpt lat="45.6411805" lon="-73.5706888"/>
      <trkpt lat="45.641136" lon="-73.5706399"/>
      <trkpt lat="45.6371603" lon="-73.5663743"/>
      <trkpt lat="45.636247" lon="-73.565362"/>
      <trkpt lat="45.6284209" lon="-73.5771459"/>
      <trkpt lat="45.6282774" lon="-73.5773812"/>
      <trkpt lat="45.6270392" lon="-73.579202"/>
      <trkpt lat="45.6254087" lon="-73.5815407"/>
      <trkpt lat="45.6262667" lon="-73.5827467"/>
      <trkpt lat="45.6264124" lon="-73.5830371"/>
      <trkpt lat="45.6291688" lon="-73.5867681"/>
      <trkpt lat="45.6292429" lon="-73.5866619"/>
      <trkpt lat="45.6297224" lon="-73.5859827"/>
      <trkpt lat="45.6305126" lon="-73.5868337"/>
      <trkpt lat="45.6320984" lon="-73.5871234"/>
      <trkpt lat="45.6328332" lon="-73.5861451"/>
      <trkpt lat="45.633645" lon="-73.5850997"/>
      <trkpt lat="45.6341022" lon="-73.5844664"/>
      <trkpt lat="45.6345919" lon="-73.5838332"/>
      <trkpt lat="45.6357331" lon="-73.5823526"/>
      <trkpt lat="45.6363417" lon="-73.5829827"/>
      <trkpt lat="45.6385084" lon="-73.5801412"/>
      <trkpt lat="45.6412741" lon="-73.5765025"/>
      <trkpt lat="45.6425805" lon="-73.5747875"/>
      <trkpt lat="45.6438006" lon="-73.5731721"/>
      <trkpt lat="45.6438878" lon="-73.5730623"/>
      <trkpt lat="45.6439841" lon="-73.5731497"/>
      <trkpt lat="45.6461427" lon="-73.5754703"/>
      <trkpt lat="45.6471871" lon="-73.5765873"/>
      <trkpt lat="45.6485011" lon="-73.5779858"/>
      <trkpt lat="45.6493564" lon="-73.5789121"/>
      <trkpt lat="45.6501284" lon="-73.5779798"/>
      <trkpt lat="45.650831" lon="-73.5771759"/>
      <trkpt lat="45.6517479" lon="-73.5760905"/>
      <trkpt lat="45.65196" lon="-73.5758378"/>
      <trkpt lat="45.6524348" lon="-73.5752836"/>
      <trkpt lat="45.6530067" lon="-73.5746072"/>
      <trkpt lat="45.6543998" lon="-73.5722811"/>
      <trkpt lat="45.6547777" lon="-73.5715553"/>
      <trkpt lat="45.6551208" lon="-73.57089"/>
      <trkpt lat="45.655457" lon="-73.5702337"/>
      <trkpt lat="45.6558603" lon="-73.5694596"/>
      <trkpt lat="45.6564182" lon="-73.5683759"/>
      <trkpt lat="45.6567322" lon="-73.5677615"/>
      <trkpt lat="45.6568419" lon="-73.5678721"/>
      <trkpt lat="45.658051" lon="-73.5691049"/>
      <trkpt lat="45.6587833" lon="-73.5698493"/>
      <trkpt lat="45.658051" lon="-73.5691049"/>
      <trkpt lat="45.6587833" lon="-73.5698493"/>
      <trkpt lat="45.6596012" lon="-73.5706859"/>
      <trkpt lat="45.659756" lon="-73.5702122"/>
      <trkpt lat="45.6611609" lon="-73.5663801"/>
      <trkpt lat="45.6615723" lon="-73.5654644"/>
      <trkpt lat="45.6620565" lon="-73.5644038"/>
      <trkpt lat="45.6608908" lon="-73.563529"/>
      <trkpt lat="45.6624569" lon="-73.5635226"/>
      <trkpt lat="45.6635421" lon="-73.5614057"/>
      <trkpt lat="45.6642339" lon="-73.5603412"/>
      <trkpt lat="45.6668609" lon="-73.5556845"/>
      <trkpt lat="45.6660902" lon="-73.5551168"/>
      <trkpt lat="45.6656403" lon="-73.5547696"/>
      <trkpt lat="45.663692" lon="-73.5578128"/>
      <trkpt lat="45.6635281" lon="-73.5582964"/>
      <trkpt lat="45.6634541" lon="-73.5585"/>
      <trkpt lat="45.6631234" lon="-73.5594351"/>
      <trkpt lat="45.6627567" lon="-73.5591589"/>
      <trkpt lat="45.6612124" lon="-73.5593753"/>
      <trkpt lat="45.6610964" lon="-73.5592899"/>
      <trkpt lat="45.6616048" lon="-73.5583689"/>
      <trkpt lat="45.6633196" lon="-73.5559715"/>
      <trkpt lat="45.6646265" lon="-73.5543825"/>
      <trkpt lat="45.6659815" lon="-73.5527111"/>
      <trkpt lat="45.6660575" lon="-73.552856"/>
      <trkpt lat="45.6666657" lon="-73.5536137"/>
      <trkpt lat="45.6674942" lon="-73.5520982"/>
      <trkpt lat="45.6677979" lon="-73.5523047"/>
      <trkpt lat="45.6690627" lon="-73.5531573"/>
      <trkpt lat="45.6699843" lon="-73.552066"/>
      <trkpt lat="45.6703782" lon="-73.5512447"/>
      <trkpt lat="45.66805" lon="-73.5495779"/>
      <trkpt lat="45.6660575" lon="-73.552856"/>
      <trkpt lat="45.663444" lon="-73.5560594"/>
      <trkpt lat="45.6617323" lon="-73.5584495"/>
      <trkpt lat="45.6612124" lon="-73.5593753"/>
      <trkpt lat="45.6610964" lon="-73.5592899"/>
      <trkpt lat="45.6616048" lon="-73.5583689"/>
      <trkpt lat="45.6633196" lon="-73.5559715"/>
      <trkpt lat="45.6646265" lon="-73.5543825"/>
      <trkpt lat="45.6659815" lon="-73.5527111"/>
      <trkpt lat="45.6685059" lon="-73.5486153"/>
      <trkpt lat="45.6706026" lon="-73.5505305"/>
      <trkpt lat="45.6685059" lon="-73.5486153"/>
      <trkpt lat="45.666039" lon="-73.5468398"/>
      <trkpt lat="45.6685059" lon="-73.5486153"/>
      <trkpt lat="45.66805" lon="-73.5495779"/>
      <trkpt lat="45.6660575" lon="-73.552856"/>
      <trkpt lat="45.663444" lon="-73.5560594"/>
      <trkpt lat="45.6617323" lon="-73.5584495"/>
      <trkpt lat="45.6612124" lon="-73.5593753"/>
      <trkpt lat="45.6610964" lon="-73.5592899"/>
      <trkpt lat="45.6616048" lon="-73.5583689"/>
      <trkpt lat="45.6633196" lon="-73.5559715"/>
      <trkpt lat="45.663444" lon="-73.5560594"/>
      <trkpt lat="45.6617323" lon="-73.5584495"/>
      <trkpt lat="45.6612124" lon="-73.5593753"/>
      <trkpt lat="45.6590006" lon="-73.5636661"/>
      <trkpt lat="45.6586877" lon="-73.5642821"/>
      <trkpt lat="45.6585814" lon="-73.5641722"/>
      <trkpt lat="45.6573252" lon="-73.5629779"/>
      <trkpt lat="45.6571039" lon="-73.5633925"/>
      <trkpt lat="45.65474" lon="-73.5610345"/>
      <trkpt lat="45.6548108" lon="-73.5609049"/>
      <trkpt lat="45.6524094" lon="-73.5583982"/>
      <trkpt lat="45.6520477" lon="-73.5590978"/>
      <trkpt lat="45.6515866" lon="-73.5599992"/>
      <trkpt lat="45.6511706" lon="-73.5608046"/>
      <trkpt lat="45.6507891" lon="-73.5615366"/>
      <trkpt lat="45.6531477" lon="-73.5640124"/>
      <trkpt lat="45.6507891" lon="-73.5615366"/>
      <trkpt lat="45.6507055" lon="-73.561447"/>
      <trkpt lat="45.6507891" lon="-73.5615366"/>
      <trkpt lat="45.6507055" lon="-73.561447"/>
      <trkpt lat="45.6479748" lon="-73.5586077"/>
      <trkpt lat="45.6477266" lon="-73.5583497"/>
      <trkpt lat="45.6456109" lon="-73.5561263"/>
      <trkpt lat="45.6439162" lon="-73.5543615"/>
      <trkpt lat="45.6436067" lon="-73.5540292"/>
      <trkpt lat="45.6426264" lon="-73.5555847"/>
      <trkpt lat="45.6421704" lon="-73.5562897"/>
      <trkpt lat="45.641782" lon="-73.55689"/>
      <trkpt lat="45.6413766" lon="-73.5574714"/>
      <trkpt lat="45.6397913" lon="-73.559963"/>
      <trkpt lat="45.6363378" lon="-73.5652179"/>
      <trkpt lat="45.6371141" lon="-73.5661059"/>
      <trkpt lat="45.6413778" lon="-73.5706657"/>
      <trkpt lat="45.6417864" lon="-73.5710868"/>
      <trkpt lat="45.6417078" lon="-73.5712567"/>
      <trkpt lat="45.6411805" lon="-73.5706888"/>
      <trkpt lat="45.641136" lon="-73.5706399"/>
      <trkpt lat="45.6371603" lon="-73.5663743"/>
      <trkpt lat="45.636247" lon="-73.565362"/>
      <trkpt lat="45.6284209" lon="-73.5771459"/>
      <trkpt lat="45.6282774" lon="-73.5773812"/>
      <trkpt lat="45.6270392" lon="-73.579202"/>
      <trkpt lat="45.6254087" lon="-73.5815407"/>
      <trkpt lat="45.6262667" lon="-73.5827467"/>
      <trkpt lat="45.6264124" lon="-73.5830371"/>
      <trkpt lat="45.6262667" lon="-73.5827467"/>
      <trkpt lat="45.6264124" lon="-73.5830371"/>
      <trkpt lat="45.6291688" lon="-73.5867681"/>
      <trkpt lat="45.6292429" lon="-73.5866619"/>
      <trkpt lat="45.6297224" lon="-73.5859827"/>
      <trkpt lat="45.6305126" lon="-73.5868337"/>
      <trkpt lat="45.6320984" lon="-73.5871234"/>
      <trkpt lat="45.6328332" lon="-73.5861451"/>
      <trkpt lat="45.633645" lon="-73.5850997"/>
      <trkpt lat="45.6341022" lon="-73.5844664"/>
      <trkpt lat="45.6345919" lon="-73.5838332"/>
      <trkpt lat="45.6357331" lon="-73.5823526"/>
      <trkpt lat="45.6363417" lon="-73.5829827"/>
      <trkpt lat="45.6385084" lon="-73.5801412"/>
      <trkpt lat="45.6412741" lon="-73.5765025"/>
      <trkpt lat="45.6425805" lon="-73.5747875"/>
      <trkpt lat="45.6438006" lon="-73.5731721"/>
      <trkpt lat="45.6438878" lon="-73.5730623"/>
      <trkpt lat="45.6439841" lon="-73.5731497"/>
      <trkpt lat="45.6438957" lon="-73.5732561"/>
      <trkpt lat="45.6426625" lon="-73.5748755"/>
      <trkpt lat="45.6413563" lon="-73.5765901"/>
      <trkpt lat="45.6385947" lon="-73.5802261"/>
      <trkpt lat="45.6364276" lon="-73.5830685"/>
      <trkpt lat="45.6370393" lon="-73.5837055"/>
      <trkpt lat="45.638443" lon="-73.5865017"/>
      <trkpt lat="45.637946" lon="-73.5873266"/>
      <trkpt lat="45.6359074" lon="-73.5851914"/>
      <trkpt lat="45.6353788" lon="-73.5858868"/>
      <trkpt lat="45.6349428" lon="-73.5864707"/>
      <trkpt lat="45.6344893" lon="-73.5870577"/>
      <trkpt lat="45.6333946" lon="-73.5884985"/>
      <trkpt lat="45.6328086" lon="-73.5878658"/>
      <trkpt lat="45.6315664" lon="-73.589486"/>
      <trkpt lat="45.6314606" lon="-73.5896075"/>
      <trkpt lat="45.6313788" lon="-73.5895073"/>
      <trkpt lat="45.631474" lon="-73.5893893"/>
      <trkpt lat="45.632717" lon="-73.5877735"/>
      <trkpt lat="45.6342386" lon="-73.585733"/>
      <trkpt lat="45.633645" lon="-73.5850997"/>
      <trkpt lat="45.6341022" lon="-73.5844664"/>
      <trkpt lat="45.6345919" lon="-73.5838332"/>
      <trkpt lat="45.6357331" lon="-73.5823526"/>
      <trkpt lat="45.6372906" lon="-73.5803012"/>
      <trkpt lat="45.6378905" lon="-73.5795065"/>
      <trkpt lat="45.6391552" lon="-73.5778328"/>
      <trkpt lat="45.6373187" lon="-73.5789031"/>
      <trkpt lat="45.6367575" lon="-73.5783158"/>
      <trkpt lat="45.6358834" lon="-73.5774021"/>
      <trkpt lat="45.635295" lon="-73.5781996"/>
      <trkpt lat="45.6347484" lon="-73.5789265"/>
      <trkpt lat="45.6342513" lon="-73.5795763"/>
      <trkpt lat="45.633739" lon="-73.5802445"/>
      <trkpt lat="45.6329596" lon="-73.5794175"/>
      <trkpt lat="45.633739" lon="-73.5802445"/>
      <trkpt lat="45.6351375" lon="-73.5817174"/>
      <trkpt lat="45.633739" lon="-73.5802445"/>
      <trkpt lat="45.6351375" lon="-73.5817174"/>
      <trkpt lat="45.6357331" lon="-73.5823526"/>
      <trkpt lat="45.6351375" lon="-73.5817174"/>
      <trkpt lat="45.6357331" lon="-73.5823526"/>
      <trkpt lat="45.6363417" lon="-73.5829827"/>
      <trkpt lat="45.6357331" lon="-73.5823526"/>
      <trkpt lat="45.6363417" lon="-73.5829827"/>
      <trkpt lat="45.6385084" lon="-73.5801412"/>
      <trkpt lat="45.6412741" lon="-73.5765025"/>
      <trkpt lat="45.6425805" lon="-73.5747875"/>
      <trkpt lat="45.6438006" lon="-73.5731721"/>
      <trkpt lat="45.6438878" lon="-73.5730623"/>
      <trkpt lat="45.6439841" lon="-73.5731497"/>
      <trkpt lat="45.6438957" lon="-73.5732561"/>
      <trkpt lat="45.6426625" lon="-73.5748755"/>
      <trkpt lat="45.6413563" lon="-73.5765901"/>
      <trkpt lat="45.6385947" lon="-73.5802261"/>
      <trkpt lat="45.6364276" lon="-73.5830685"/>
      <trkpt lat="45.6353177" lon="-73.5845364"/>
      <trkpt lat="45.6343394" lon="-73.5858406"/>
      <trkpt lat="45.6328086" lon="-73.5878658"/>
      <trkpt lat="45.6315664" lon="-73.589486"/>
      <trkpt lat="45.6314606" lon="-73.5896075"/>
      <trkpt lat="45.6313788" lon="-73.5895073"/>
      <trkpt lat="45.6290839" lon="-73.5868871"/>
      <trkpt lat="45.6261572" lon="-73.5828176"/>
      <trkpt lat="45.6253271" lon="-73.5816786"/>
      <trkpt lat="45.6235836" lon="-73.5842192"/>
      <trkpt lat="45.62188" lon="-73.5867295"/>
      <trkpt lat="45.6207701" lon="-73.5883526"/>
      <trkpt lat="45.6194942" lon="-73.5902168"/>
      <trkpt lat="45.6181588" lon="-73.5921843"/>
      <trkpt lat="45.6169319" lon="-73.5939824"/>
      <trkpt lat="45.6166351" lon="-73.5944088"/>
      <trkpt lat="45.6170941" lon="-73.5975924"/>
      <trkpt lat="45.6184988" lon="-73.5993999"/>
      <trkpt lat="45.6198963" lon="-73.6008283"/>
      <trkpt lat="45.6223639" lon="-73.6033218"/>
      <trkpt lat="45.6229721" lon="-73.6033353"/>
      <trkpt lat="45.6236894" lon="-73.6021086"/>
      <trkpt lat="45.6240087" lon="-73.601493"/>
      <trkpt lat="45.62468" lon="-73.6002042"/>
      <trkpt lat="45.6253619" lon="-73.5988885"/>
      <trkpt lat="45.6261766" lon="-73.5973223"/>
      <trkpt lat="45.6271037" lon="-73.5955496"/>
      <trkpt lat="45.6278029" lon="-73.5942869"/>
      <trkpt lat="45.6285469" lon="-73.5932331"/>
      <trkpt lat="45.629347" lon="-73.5921829"/>
      <trkpt lat="45.6304573" lon="-73.590729"/>
      <trkpt lat="45.6307984" lon="-73.590276"/>
      <trkpt lat="45.6313788" lon="-73.5895073"/>
      <trkpt lat="45.6290839" lon="-73.5868871"/>
      <trkpt lat="45.6261572" lon="-73.5828176"/>
      <trkpt lat="45.6253271" lon="-73.5816786"/>
      <trkpt lat="45.6235836" lon="-73.5842192"/>
      <trkpt lat="45.62188" lon="-73.5867295"/>
      <trkpt lat="45.6207701" lon="-73.5883526"/>
      <trkpt lat="45.6194942" lon="-73.5902168"/>
      <trkpt lat="45.6181588" lon="-73.5921843"/>
      <trkpt lat="45.6169319" lon="-73.5939824"/>
      <trkpt lat="45.6166351" lon="-73.5944088"/>
      <trkpt lat="45.6170941" lon="-73.5975924"/>
      <trkpt lat="45.6184988" lon="-73.5993999"/>
      <trkpt lat="45.6198963" lon="-73.6008283"/>
      <trkpt lat="45.6223639" lon="-73.6033218"/>
      <trkpt lat="45.6227674" lon="-73.6037322"/>
      <trkpt lat="45.6228957" lon="-73.6038705"/>
      <trkpt lat="45.6224987" lon="-73.6046345"/>
      <trkpt lat="45.6210267" lon="-73.6074712"/>
      <trkpt lat="45.6201161" lon="-73.6092314"/>
      <trkpt lat="45.6200356" lon="-73.6091463"/>
      <trkpt lat="45.6209494" lon="-73.6073907"/>
      <trkpt lat="45.622371" lon="-73.6044944"/>
      <trkpt lat="45.6227674" lon="-73.6037322"/>
      <trkpt lat="45.6229721" lon="-73.6033353"/>
      <trkpt lat="45.6236894" lon="-73.6021086"/>
      <trkpt lat="45.6240087" lon="-73.601493"/>
      <trkpt lat="45.62468" lon="-73.6002042"/>
      <trkpt lat="45.6253619" lon="-73.5988885"/>
      <trkpt lat="45.6261766" lon="-73.5973223"/>
      <trkpt lat="45.6271037" lon="-73.5955496"/>
      <trkpt lat="45.6278029" lon="-73.5942869"/>
      <trkpt lat="45.6285469" lon="-73.5932331"/>
      <trkpt lat="45.629347" lon="-73.5921829"/>
      <trkpt lat="45.6304573" lon="-73.590729"/>
      <trkpt lat="45.6307984" lon="-73.590276"/>
      <trkpt lat="45.6313788" lon="-73.5895073"/>
      <trkpt lat="45.631474" lon="-73.5893893"/>
      <trkpt lat="45.632717" lon="-73.5877735"/>
      <trkpt lat="45.6342386" lon="-73.585733"/>
      <trkpt lat="45.6363417" lon="-73.5829827"/>
      <trkpt lat="45.6385084" lon="-73.5801412"/>
      <trkpt lat="45.6412741" lon="-73.5765025"/>
      <trkpt lat="45.6425805" lon="-73.5747875"/>
      <trkpt lat="45.6438006" lon="-73.5731721"/>
      <trkpt lat="45.6438878" lon="-73.5730623"/>
      <trkpt lat="45.6439841" lon="-73.5731497"/>
      <trkpt lat="45.6461427" lon="-73.5754703"/>
      <trkpt lat="45.6471871" lon="-73.5765873"/>
      <trkpt lat="45.6485011" lon="-73.5779858"/>
      <trkpt lat="45.6493564" lon="-73.5789121"/>
      <trkpt lat="45.6494515" lon="-73.5790065"/>
      <trkpt lat="45.6493611" lon="-73.5791088"/>
      <trkpt lat="45.6485642" lon="-73.5800783"/>
      <trkpt lat="45.6480652" lon="-73.5806491"/>
      <trkpt lat="45.6467012" lon="-73.5822462"/>
      <trkpt lat="45.6461485" lon="-73.5828922"/>
      <trkpt lat="45.6441573" lon="-73.5860702"/>
      <trkpt lat="45.6424988" lon="-73.5893226"/>
      <trkpt lat="45.64204" lon="-73.5901968"/>
      <trkpt lat="45.6415761" lon="-73.5911134"/>
      <trkpt lat="45.6411224" lon="-73.5919816"/>
      <trkpt lat="45.6407807" lon="-73.5926381"/>
      <trkpt lat="45.6404223" lon="-73.5933392"/>
      <trkpt lat="45.6400921" lon="-73.5939595"/>
      <trkpt lat="45.6397019" lon="-73.5947409"/>
      <trkpt lat="45.6385595" lon="-73.5969406"/>
      <trkpt lat="45.6384761" lon="-73.5970947"/>
      <trkpt lat="45.6376478" lon="-73.5987149"/>
      <trkpt lat="45.636462" lon="-73.6010178"/>
      <trkpt lat="45.6360597" lon="-73.6018324"/>
      <trkpt lat="45.6356252" lon="-73.6026733"/>
      <trkpt lat="45.6351206" lon="-73.6036521"/>
      <trkpt lat="45.6338788" lon="-73.6056717"/>
      <trkpt lat="45.6328378" lon="-73.6071437"/>
      <trkpt lat="45.6318295" lon="-73.6086057"/>
      <trkpt lat="45.6313794" lon="-73.6092945"/>
      <trkpt lat="45.6309852" lon="-73.6098495"/>
      <trkpt lat="45.6304925" lon="-73.6105405"/>
      <trkpt lat="45.6299862" lon="-73.6113365"/>
      <trkpt lat="45.6294844" lon="-73.6120632"/>
      <trkpt lat="45.6273809" lon="-73.6150407"/>
      <trkpt lat="45.6279342" lon="-73.6156355"/>
      <trkpt lat="45.6284588" lon="-73.6161874"/>
      <trkpt lat="45.628591" lon="-73.6163307"/>
      <trkpt lat="45.6294482" lon="-73.6172344"/>
      <trkpt lat="45.630116" lon="-73.6179466"/>
      <trkpt lat="45.6311343" lon="-73.6164119"/>
      <trkpt lat="45.630116" lon="-73.6179466"/>
      <trkpt lat="45.6311343" lon="-73.6164119"/>
      <trkpt lat="45.6325642" lon="-73.6135116"/>
      <trkpt lat="45.6332509" lon="-73.6122944"/>
      <trkpt lat="45.6316833" lon="-73.6105769"/>
      <trkpt lat="45.6309852" lon="-73.6098495"/>
      <trkpt lat="45.6304925" lon="-73.6105405"/>
      <trkpt lat="45.6299862" lon="-73.6113365"/>
      <trkpt lat="45.6294844" lon="-73.6120632"/>
      <trkpt lat="45.6273809" lon="-73.6150407"/>
      <trkpt lat="45.6272863" lon="-73.6149442"/>
      <trkpt lat="45.6293653" lon="-73.6119377"/>
      <trkpt lat="45.6224987" lon="-73.6046345"/>
      <trkpt lat="45.6210267" lon="-73.6074712"/>
      <trkpt lat="45.6201161" lon="-73.6092314"/>
      <trkpt lat="45.6200356" lon="-73.6091463"/>
      <trkpt lat="45.6209494" lon="-73.6073907"/>
      <trkpt lat="45.622371" lon="-73.6044944"/>
      <trkpt lat="45.6227674" lon="-73.6037322"/>
      <trkpt lat="45.6228957" lon="-73.6038705"/>
      <trkpt lat="45.629872" lon="-73.6112268"/>
      <trkpt lat="45.6303968" lon="-73.6104345"/>
      <trkpt lat="45.6304925" lon="-73.6105405"/>
      <trkpt lat="45.6299862" lon="-73.6113365"/>
      <trkpt lat="45.6294844" lon="-73.6120632"/>
      <trkpt lat="45.6293653" lon="-73.6119377"/>
      <trkpt lat="45.6224987" lon="-73.6046345"/>
      <trkpt lat="45.6210267" lon="-73.6074712"/>
      <trkpt lat="45.6201161" lon="-73.6092314"/>
      <trkpt lat="45.6200356" lon="-73.6091463"/>
      <trkpt lat="45.6209494" lon="-73.6073907"/>
      <trkpt lat="45.622371" lon="-73.6044944"/>
      <trkpt lat="45.6227674" lon="-73.6037322"/>
      <trkpt lat="45.6228957" lon="-73.6038705"/>
      <trkpt lat="45.629872" lon="-73.6112268"/>
      <trkpt lat="45.6299862" lon="-73.6113365"/>
      <trkpt lat="45.6294844" lon="-73.6120632"/>
      <trkpt lat="45.6293653" lon="-73.6119377"/>
      <trkpt lat="45.6224987" lon="-73.6046345"/>
      <trkpt lat="45.6210267" lon="-73.6074712"/>
      <trkpt lat="45.6201161" lon="-73.6092314"/>
      <trkpt lat="45.6200356" lon="-73.6091463"/>
      <trkpt lat="45.6209494" lon="-73.6073907"/>
      <trkpt lat="45.622371" lon="-73.6044944"/>
      <trkpt lat="45.6227674" lon="-73.6037322"/>
      <trkpt lat="45.6229721" lon="-73.6033353"/>
      <trkpt lat="45.6236894" lon="-73.6021086"/>
      <trkpt lat="45.6240087" lon="-73.601493"/>
      <trkpt lat="45.62468" lon="-73.6002042"/>
      <trkpt lat="45.6253619" lon="-73.5988885"/>
      <trkpt lat="45.6261766" lon="-73.5973223"/>
      <trkpt lat="45.6271037" lon="-73.5955496"/>
      <trkpt lat="45.6278029" lon="-73.5942869"/>
      <trkpt lat="45.6285469" lon="-73.5932331"/>
      <trkpt lat="45.629347" lon="-73.5921829"/>
      <trkpt lat="45.6304573" lon="-73.590729"/>
      <trkpt lat="45.6307984" lon="-73.590276"/>
      <trkpt lat="45.6313788" lon="-73.5895073"/>
      <trkpt lat="45.631474" lon="-73.5893893"/>
      <trkpt lat="45.6315664" lon="-73.589486"/>
      <trkpt lat="45.6314606" lon="-73.5896075"/>
      <trkpt lat="45.6308683" lon="-73.5903724"/>
      <trkpt lat="45.6307984" lon="-73.590276"/>
      <trkpt lat="45.6313788" lon="-73.5895073"/>
      <trkpt lat="45.631474" lon="-73.5893893"/>
      <trkpt lat="45.632717" lon="-73.5877735"/>
      <trkpt lat="45.6342386" lon="-73.585733"/>
      <trkpt lat="45.6363417" lon="-73.5829827"/>
      <trkpt lat="45.6385084" lon="-73.5801412"/>
      <trkpt lat="45.6412741" lon="-73.5765025"/>
      <trkpt lat="45.6425805" lon="-73.5747875"/>
      <trkpt lat="45.6438006" lon="-73.5731721"/>
      <trkpt lat="45.6438878" lon="-73.5730623"/>
      <trkpt lat="45.6439841" lon="-73.5731497"/>
      <trkpt lat="45.6438957" lon="-73.5732561"/>
      <trkpt lat="45.6426625" lon="-73.5748755"/>
      <trkpt lat="45.6413563" lon="-73.5765901"/>
      <trkpt lat="45.6385947" lon="-73.5802261"/>
    </trkseg>
  </trk>
</gpx>
